{
"type": "FeatureCollection",
"name": "geo_40_特別支援学校",
"crs": { "type": "name", "properties": { "name": "urn:ogc:def:crs:EPSG::6668" } },
"features": [
{ "type": "Feature", "properties": { "P29_001": "40108", "P29_002": "E140210000014", "P29_003": "16012", "P29_004": "福岡県立北九州視覚特別支援学校", "P29_005": "福岡県北九州市八幡東区高見5-1-12", "P29_006": "2", "P29_007": "0", "P29_008": "00", "P29_009": null }, "geometry": { "type": "Point", "coordinates": [ 130.835786825252114, 33.870791664865692 ] } },
{ "type": "Feature", "properties": { "P29_001": "40106", "P29_002": "E140210000023", "P29_003": "16012", "P29_004": "福岡県立小倉聴覚特別支援学校", "P29_005": "福岡県北九州市小倉北区三郎丸2-9-1", "P29_006": "2", "P29_007": "0", "P29_008": "00", "P29_009": null }, "geometry": { "type": "Point", "coordinates": [ 130.890890811820242, 33.864561406544624 ] } },
{ "type": "Feature", "properties": { "P29_001": "40105", "P29_002": "E140210000050", "P29_003": "16012", "P29_004": "北九州市立特別支援学校北九州中央高等学園", "P29_005": "福岡県北九州市戸畑区沢見1-3-47", "P29_006": "3", "P29_007": "0", "P29_008": "00", "P29_009": null }, "geometry": { "type": "Point", "coordinates": [ 130.836912670876018, 33.889963899685725 ] } },
{ "type": "Feature", "properties": { "P29_001": "40106", "P29_002": "E140210000069", "P29_003": "16012", "P29_004": "北九州市立小倉北特別支援学校", "P29_005": "福岡県北九州市小倉北区下到津4-3-1", "P29_006": "3", "P29_007": "0", "P29_008": "00", "P29_009": null }, "geometry": { "type": "Point", "coordinates": [ 130.856680195005964, 33.879098462173758 ] } },
{ "type": "Feature", "properties": { "P29_001": "40107", "P29_002": "E140210000078", "P29_003": "16012", "P29_004": "北九州市立小倉南特別支援学校", "P29_005": "福岡県北九州市小倉南区若園4-1-1", "P29_006": "3", "P29_007": "0", "P29_008": "00", "P29_009": null }, "geometry": { "type": "Point", "coordinates": [ 130.885751432203278, 33.84797393748606 ] } },
{ "type": "Feature", "properties": { "P29_001": "40107", "P29_002": "E140210000087", "P29_003": "16012", "P29_004": "北九州市立小倉総合特別支援学校", "P29_005": "福岡県北九州市小倉南区春ケ丘10-3", "P29_006": "3", "P29_007": "0", "P29_008": "00", "P29_009": null }, "geometry": { "type": "Point", "coordinates": [ 130.884870105480303, 33.850566832824661 ] } },
{ "type": "Feature", "properties": { "P29_001": "40109", "P29_002": "E140210000096", "P29_003": "16012", "P29_004": "北九州市立八幡特別支援学校", "P29_005": "福岡県北九州市八幡西区鷹の巣3-7-1", "P29_006": "3", "P29_007": "0", "P29_008": "00", "P29_009": null }, "geometry": { "type": "Point", "coordinates": [ 130.744049866940315, 33.854407208067578 ] } },
{ "type": "Feature", "properties": { "P29_001": "40131", "P29_002": "E140213000036", "P29_003": "16012", "P29_004": "福岡市立東福岡特別支援学校", "P29_005": "福岡県福岡市東区青葉3-8-1", "P29_006": "3", "P29_007": "0", "P29_008": "00", "P29_009": null }, "geometry": { "type": "Point", "coordinates": [ 130.461906856285566, 33.644894655681689 ] } },
{ "type": "Feature", "properties": { "P29_001": "40132", "P29_002": "E140213000045", "P29_003": "16012", "P29_004": "福岡市立南福岡特別支援学校", "P29_005": "福岡県福岡市博多区西月隈5-6-1", "P29_006": "3", "P29_007": "0", "P29_008": "00", "P29_009": null }, "geometry": { "type": "Point", "coordinates": [ 130.456231954583643, 33.565591430254088 ] } },
{ "type": "Feature", "properties": { "P29_001": "40133", "P29_002": "E140213000063", "P29_003": "16012", "P29_004": "福岡市立福岡中央特別支援学校", "P29_005": "福岡県福岡市中央区地行浜2-1-18", "P29_006": "3", "P29_007": "0", "P29_008": "00", "P29_009": null }, "geometry": { "type": "Point", "coordinates": [ 130.365727499265347, 33.593802220256258 ] } },
{ "type": "Feature", "properties": { "P29_001": "40134", "P29_002": "E140213000072", "P29_003": "16012", "P29_004": "福岡市立屋形原特別支援学校", "P29_005": "福岡県福岡市南区屋形原2-31-1", "P29_006": "3", "P29_007": "0", "P29_008": "00", "P29_009": null }, "geometry": { "type": "Point", "coordinates": [ 130.410003812933468, 33.536866743326911 ] } },
{ "type": "Feature", "properties": { "P29_001": "40134", "P29_002": "E140213000081", "P29_003": "16012", "P29_004": "福岡市立若久特別支援学校", "P29_005": "福岡県福岡市南区若久2-3-13", "P29_006": "3", "P29_007": "0", "P29_008": "00", "P29_009": null }, "geometry": { "type": "Point", "coordinates": [ 130.416651634147399, 33.554457629375314 ] } },
{ "type": "Feature", "properties": { "P29_001": "40202", "P29_002": "E140220200011", "P29_003": "16012", "P29_004": "大牟田市立大牟田特別支援学校", "P29_005": "福岡県大牟田市天道町24", "P29_006": "3", "P29_007": "0", "P29_008": "00", "P29_009": null }, "geometry": { "type": "Point", "coordinates": [ 130.464071637814442, 33.01466715036571 ] } },
{ "type": "Feature", "properties": { "P29_001": "40203", "P29_002": "E140220300010", "P29_003": "16012", "P29_004": "福岡県立久留米聴覚特別支援学校", "P29_005": "福岡県久留米市高良内町2935", "P29_006": "2", "P29_007": "0", "P29_008": "00", "P29_009": null }, "geometry": { "type": "Point", "coordinates": [ 130.546653421274243, 33.290379552500987 ] } },
{ "type": "Feature", "properties": { "P29_001": "40203", "P29_002": "E140220300029", "P29_003": "16012", "P29_004": "福岡県立田主丸特別支援学校", "P29_005": "福岡県久留米市田主丸町石垣1190-1", "P29_006": "2", "P29_007": "0", "P29_008": "00", "P29_009": null }, "geometry": { "type": "Point", "coordinates": [ 130.699013099020618, 33.323834812321685 ] } },
{ "type": "Feature", "properties": { "P29_001": "40203", "P29_002": "E140220300038", "P29_003": "16012", "P29_004": "久留米市立久留米特別支援学校", "P29_005": "福岡県久留米市南1-2-1", "P29_006": "3", "P29_007": "0", "P29_008": "00", "P29_009": null }, "geometry": { "type": "Point", "coordinates": [ 130.513537571956078, 33.292285109140977 ] } },
{ "type": "Feature", "properties": { "P29_001": "40211", "P29_002": "E140221100010", "P29_003": "16012", "P29_004": "福岡県立筑後特別支援学校", "P29_005": "福岡県筑後市下北島318", "P29_006": "2", "P29_007": "0", "P29_008": "00", "P29_009": null }, "geometry": { "type": "Point", "coordinates": [ 130.488877719986476, 33.201945904333307 ] } },
{ "type": "Feature", "properties": { "P29_001": "40215", "P29_002": "E140221500016", "P29_003": "16012", "P29_004": "福岡県立特別支援学校「北九州高等学園」", "P29_005": "福岡県中間市大辻町18-1", "P29_006": "2", "P29_007": "0", "P29_008": "00", "P29_009": null }, "geometry": { "type": "Point", "coordinates": [ 130.727437680691139, 33.808021237780501 ] } },
{ "type": "Feature", "properties": { "P29_001": "40217", "P29_002": "E140221700014", "P29_003": "16012", "P29_004": "福岡県立福岡視覚特別支援学校", "P29_005": "福岡県筑紫野市牛島114", "P29_006": "2", "P29_007": "0", "P29_008": "00", "P29_009": null }, "geometry": { "type": "Point", "coordinates": [ 130.546841644809518, 33.485595388744649 ] } },
{ "type": "Feature", "properties": { "P29_001": "40217", "P29_002": "E140221700032", "P29_003": "16012", "P29_004": "福岡県立特別支援学校「福岡高等学園」", "P29_005": "福岡県筑紫野市古賀304", "P29_006": "2", "P29_007": "0", "P29_008": "00", "P29_009": null }, "geometry": { "type": "Point", "coordinates": [ 130.512569110593773, 33.471213941546026 ] } },
{ "type": "Feature", "properties": { "P29_001": "40221", "P29_002": "E140222100018", "P29_003": "16012", "P29_004": "福岡県立太宰府特別支援学校", "P29_005": "福岡県太宰府市大佐野557-1", "P29_006": "2", "P29_007": "0", "P29_008": "00", "P29_009": null }, "geometry": { "type": "Point", "coordinates": [ 130.492695621804472, 33.493945183201106 ] } },
{ "type": "Feature", "properties": { "P29_001": "40223", "P29_002": "E140222300016", "P29_003": "16012", "P29_004": "福岡県立古賀特別支援学校", "P29_005": "福岡県古賀市千鳥4-3-1", "P29_006": "2", "P29_007": "0", "P29_008": "00", "P29_009": null }, "geometry": { "type": "Point", "coordinates": [ 130.479961439486971, 33.747339772243109 ] } },
{ "type": "Feature", "properties": { "P29_001": "40227", "P29_002": "E140222700012", "P29_003": "16012", "P29_004": "福岡県立嘉穂特別支援学校", "P29_005": "福岡県嘉麻市大字鴨生328-1", "P29_006": "2", "P29_007": "0", "P29_008": "00", "P29_009": null }, "geometry": { "type": "Point", "coordinates": [ 130.728767857427158, 33.603515829713672 ] } },
{ "type": "Feature", "properties": { "P29_001": "40345", "P29_002": "E140234500019", "P29_003": "16012", "P29_004": "福岡県立福岡特別支援学校", "P29_005": "福岡県糟屋郡新宮町緑ヶ浜4-1-1", "P29_006": "2", "P29_007": "0", "P29_008": "00", "P29_009": null }, "geometry": { "type": "Point", "coordinates": [ 130.445338013747431, 33.71228290904768 ] } },
{ "type": "Feature", "properties": { "P29_001": "40647", "P29_002": "E140264700014", "P29_003": "16012", "P29_004": "福岡県立築城特別支援学校", "P29_005": "福岡県築上郡築上町築城1561", "P29_006": "2", "P29_007": "0", "P29_008": "00", "P29_009": null }, "geometry": { "type": "Point", "coordinates": [ 131.039305055208445, 33.662580245928879 ] } },
{ "type": "Feature", "properties": { "P29_001": "40101", "P29_002": "E140210000032", "P29_003": "16012", "P29_004": "北九州市立門司総合特別支援学校", "P29_005": "福岡県北九州市門司区矢筈町13-1", "P29_006": "3", "P29_007": "0", "P29_008": "00", "P29_009": null }, "geometry": { "type": "Point", "coordinates": [ 130.944844140231396, 33.916769511915071 ] } },
{ "type": "Feature", "properties": { "P29_001": "40103", "P29_002": "E140210000041", "P29_003": "16012", "P29_004": "北九州市立小池特別支援学校", "P29_005": "福岡県北九州市若松区小敷583-1", "P29_006": "3", "P29_007": "0", "P29_008": "00", "P29_009": null }, "geometry": { "type": "Point", "coordinates": [ 130.705067041173322, 33.885336989128078 ] } },
{ "type": "Feature", "properties": { "P29_001": "40109", "P29_002": "E140210000103", "P29_003": "16012", "P29_004": "北九州市立八幡西特別支援学校", "P29_005": "福岡県北九州市八幡西区下上津役4-8-2", "P29_006": "3", "P29_007": "0", "P29_008": "00", "P29_009": null }, "geometry": { "type": "Point", "coordinates": [ 130.748731954488704, 33.82686484302323 ] } },
{ "type": "Feature", "properties": { "P29_001": "40137", "P29_002": "E140213000018", "P29_003": "16012", "P29_004": "福岡県立福岡聴覚特別支援学校", "P29_005": "福岡県福岡市早良区荒江3-2-1", "P29_006": "2", "P29_007": "0", "P29_008": "00", "P29_009": null }, "geometry": { "type": "Point", "coordinates": [ 130.35367207599171, 33.571539291396725 ] } },
{ "type": "Feature", "properties": { "P29_001": "40137", "P29_002": "E140213000027", "P29_003": "16012", "P29_004": "福岡県立福岡高等聴覚特別支援学校", "P29_005": "福岡県福岡市早良区荒江3-2-2", "P29_006": "2", "P29_007": "0", "P29_008": "00", "P29_009": null }, "geometry": { "type": "Point", "coordinates": [ 130.353654449332026, 33.571801227213896 ] } },
{ "type": "Feature", "properties": { "P29_001": "40132", "P29_002": "E140213000054", "P29_003": "16012", "P29_004": "福岡市立特別支援学校「博多高等学園」", "P29_005": "福岡県福岡市博多区下呉服町10-40", "P29_006": "3", "P29_007": "0", "P29_008": "00", "P29_009": null }, "geometry": { "type": "Point", "coordinates": [ 130.408213281038286, 33.602741422460049 ] } },
{ "type": "Feature", "properties": { "P29_001": "40135", "P29_002": "E140213000090", "P29_003": "16012", "P29_004": "福岡市立今津特別支援学校", "P29_005": "福岡県福岡市西区大字今津5413", "P29_006": "3", "P29_007": "0", "P29_008": "00", "P29_009": null }, "geometry": { "type": "Point", "coordinates": [ 130.251566226828231, 33.601244958052717 ] } },
{ "type": "Feature", "properties": { "P29_001": "40135", "P29_002": "E140213000107", "P29_003": "16012", "P29_004": "福岡市立生の松原特別支援学校", "P29_005": "福岡県福岡市西区野方7-825", "P29_006": "3", "P29_007": "0", "P29_008": "00", "P29_009": null }, "geometry": { "type": "Point", "coordinates": [ 130.302577448658212, 33.557423795610639 ] } },
{ "type": "Feature", "properties": { "P29_001": "40134", "P29_002": "E140213000117", "P29_003": "16012", "P29_004": "福岡市立特別支援学校「清水高等学園」", "P29_005": "福岡県福岡市南区清水1-8-4", "P29_006": "3", "P29_007": "0", "P29_008": "00", "P29_009": null }, "geometry": { "type": "Point", "coordinates": [ 130.421168214035362, 33.571875648630666 ] } },
{ "type": "Feature", "properties": { "P29_001": "40204", "P29_002": "E140220400019", "P29_003": "16012", "P29_004": "福岡県立直方特別支援学校", "P29_005": "福岡県直方市大字下境410-2", "P29_006": "2", "P29_007": "0", "P29_008": "00", "P29_009": null }, "geometry": { "type": "Point", "coordinates": [ 130.753401875354257, 33.731856039290726 ] } },
{ "type": "Feature", "properties": { "P29_001": "40207", "P29_002": "E140220700016", "P29_003": "16012", "P29_004": "福岡県立柳河特別支援学校", "P29_005": "福岡県柳川市三橋町今古賀170", "P29_006": "2", "P29_007": "0", "P29_008": "01", "P29_009": null }, "geometry": { "type": "Point", "coordinates": [ 130.415679084499999, 33.162549124899421 ] } },
{ "type": "Feature", "properties": { "P29_001": "40216", "P29_002": "E140221600015", "P29_003": "16012", "P29_004": "福岡県立小郡特別支援学校", "P29_005": "福岡県小郡市下岩田2341-3", "P29_006": "2", "P29_007": "0", "P29_008": "00", "P29_009": null }, "geometry": { "type": "Point", "coordinates": [ 130.582729633217014, 33.391033282524475 ] } },
{ "type": "Feature", "properties": { "P29_001": "40217", "P29_002": "E140221700023", "P29_003": "16012", "P29_004": "福岡県立福岡高等視覚特別支援学校", "P29_005": "福岡県筑紫野市大字牛島151", "P29_006": "2", "P29_007": "0", "P29_008": "00", "P29_009": null }, "geometry": { "type": "Point", "coordinates": [ 130.546838705152055, 33.485599676541455 ] } },
{ "type": "Feature", "properties": { "P29_001": "40605", "P29_002": "E140260500014", "P29_003": "16012", "P29_004": "福岡県立川崎特別支援学校", "P29_005": "福岡県田川郡川崎町大字川崎2343", "P29_006": "2", "P29_007": "0", "P29_008": "00", "P29_009": null }, "geometry": { "type": "Point", "coordinates": [ 130.816264846725232, 33.576418424431523 ] } },
{ "type": "Feature", "properties": { "P29_001": "40202", "P29_002": "E140220700016", "P29_003": "16012", "P29_004": "福岡県立柳河特別支援学校", "P29_005": "福岡県大牟田市橘1044-1", "P29_006": "2", "P29_007": "0", "P29_008": "02", "P29_009": "大牟田分教室" }, "geometry": { "type": "Point", "coordinates": [ 130.472952268727994, 33.072807930293841 ] } }
]
}
