{
"type": "FeatureCollection",
"name": "geo_40_高等専門学校",
"crs": { "type": "name", "properties": { "name": "urn:ogc:def:crs:EPSG::6668" } },
"features": [
{ "type": "Feature", "properties": { "P29_001": "40203", "P29_002": "G140110111107", "P29_003": "16005", "P29_004": "久留米工業高等専門学校", "P29_005": "福岡県久留米市小森野1-1-1", "P29_006": "1", "P29_007": "0", "P29_008": "00", "P29_009": null }, "geometry": { "type": "Point", "coordinates": [ 130.5094617173811, 33.335448371570251 ] } },
{ "type": "Feature", "properties": { "P29_001": "40202", "P29_002": "G140110111116", "P29_003": "16005", "P29_004": "有明工業高等専門学校", "P29_005": "福岡県大牟田市東萩尾町150", "P29_006": "1", "P29_007": "0", "P29_008": "00", "P29_009": null }, "geometry": { "type": "Point", "coordinates": [ 130.473916755994338, 33.004301097540576 ] } },
{ "type": "Feature", "properties": { "P29_001": "40107", "P29_002": "G140110111125", "P29_003": "16005", "P29_004": "北九州工業高等専門学校", "P29_005": "福岡県北九州市小倉南区志井5-20-1", "P29_006": "1", "P29_007": "0", "P29_008": "00", "P29_009": null }, "geometry": { "type": "Point", "coordinates": [ 130.871718285872817, 33.816593173589467 ] } }
]
}
