{
"type": "FeatureCollection",
"name": "geo_40_幼保連携型認定こども園",
"crs": { "type": "name", "properties": { "name": "urn:ogc:def:crs:EPSG::6668" } },
"features": [
{ "type": "Feature", "properties": { "P29_001": "40205", "P29_002": "A240220500016", "P29_003": "16013", "P29_004": "飯塚市立認定こども園頴田こども園", "P29_005": "福岡県飯塚市勢田1010-1", "P29_006": "3", "P29_007": "0", "P29_008": "00", "P29_009": null }, "geometry": { "type": "Point", "coordinates": [ 130.724463086632369, 33.68079240409299 ] } },
{ "type": "Feature", "properties": { "P29_001": "40205", "P29_002": "A240220500025", "P29_003": "16013", "P29_004": "飯塚市立認定こども園庄内こども園", "P29_005": "福岡県飯塚市赤坂364", "P29_006": "3", "P29_007": "0", "P29_008": "00", "P29_009": null }, "geometry": { "type": "Point", "coordinates": [ 130.732762801198334, 33.621969925296177 ] } },
{ "type": "Feature", "properties": { "P29_001": "40131", "P29_002": "A240313000014", "P29_003": "16013", "P29_004": "名島りすの森こども園", "P29_005": "福岡県福岡市東区名島3-25-1", "P29_006": "4", "P29_007": "0", "P29_008": "00", "P29_009": null }, "geometry": { "type": "Point", "coordinates": [ 130.427564567125927, 33.645219067841907 ] } },
{ "type": "Feature", "properties": { "P29_001": "40132", "P29_002": "A240313000023", "P29_003": "16013", "P29_004": "博多ピノキオこども園", "P29_005": "福岡県福岡市博多区上牟田1-7-11", "P29_006": "4", "P29_007": "0", "P29_008": "00", "P29_009": null }, "geometry": { "type": "Point", "coordinates": [ 130.436751015779663, 33.589270633355042 ] } },
{ "type": "Feature", "properties": { "P29_001": "40135", "P29_002": "A240313000032", "P29_003": "16013", "P29_004": "ゆめの森こども園", "P29_005": "福岡県福岡市西区橋本2-25-19", "P29_006": "4", "P29_007": "0", "P29_008": "00", "P29_009": null }, "geometry": { "type": "Point", "coordinates": [ 130.319781950585622, 33.556118909478791 ] } },
{ "type": "Feature", "properties": { "P29_001": "40135", "P29_002": "A240313000041", "P29_003": "16013", "P29_004": "もみじの森保育園", "P29_005": "福岡県福岡市西区大字飯氏868-1", "P29_006": "4", "P29_007": "0", "P29_008": "00", "P29_009": null }, "geometry": { "type": "Point", "coordinates": [ 130.248398811121262, 33.569724134391578 ] } },
{ "type": "Feature", "properties": { "P29_001": "40135", "P29_002": "A240313000050", "P29_003": "16013", "P29_004": "認定こども園ひかりと風とサクランボ", "P29_005": "福岡県福岡市西区今宿町205", "P29_006": "4", "P29_007": "0", "P29_008": "00", "P29_009": null }, "geometry": { "type": "Point", "coordinates": [ 130.274373676602181, 33.570974777886029 ] } },
{ "type": "Feature", "properties": { "P29_001": "40137", "P29_002": "A240313000069", "P29_003": "16013", "P29_004": "エミールこども園", "P29_005": "福岡県福岡市早良区有田8-14-22", "P29_006": "4", "P29_007": "0", "P29_008": "00", "P29_009": null }, "geometry": { "type": "Point", "coordinates": [ 130.329175331223666, 33.55903056214072 ] } },
{ "type": "Feature", "properties": { "P29_001": "40202", "P29_002": "A240320200017", "P29_003": "16013", "P29_004": "若草幼稚園", "P29_005": "福岡県大牟田市上官町3-101", "P29_006": "4", "P29_007": "0", "P29_008": "00", "P29_009": null }, "geometry": { "type": "Point", "coordinates": [ 130.455149571660712, 33.021617090878735 ] } },
{ "type": "Feature", "properties": { "P29_001": "40203", "P29_002": "A240320300025", "P29_003": "16013", "P29_004": "幼保連携型認定こども園くるめ天心幼稚園", "P29_005": "福岡県久留米市安武町安武本718", "P29_006": "4", "P29_007": "0", "P29_008": "00", "P29_009": null }, "geometry": { "type": "Point", "coordinates": [ 130.480306011388677, 33.293559171888809 ] } },
{ "type": "Feature", "properties": { "P29_001": "40203", "P29_002": "A240320300034", "P29_003": "16013", "P29_004": "認定こども園久留米育英幼稚園・保育園", "P29_005": "福岡県久留米市国分町字北口1630-2", "P29_006": "4", "P29_007": "0", "P29_008": "00", "P29_009": null }, "geometry": { "type": "Point", "coordinates": [ 130.526847242071881, 33.295233296210995 ] } },
{ "type": "Feature", "properties": { "P29_001": "40203", "P29_002": "A240320300043", "P29_003": "16013", "P29_004": "つぼみ幼稚園・保育園", "P29_005": "福岡県久留米市荒木町荒木1920-1", "P29_006": "4", "P29_007": "0", "P29_008": "00", "P29_009": null }, "geometry": { "type": "Point", "coordinates": [ 130.506903825611744, 33.263391293451065 ] } },
{ "type": "Feature", "properties": { "P29_001": "40203", "P29_002": "A240320300052", "P29_003": "16013", "P29_004": "幼保連携型認定こども園合川幼稚園", "P29_005": "福岡県久留米市合川町502-1", "P29_006": "4", "P29_007": "0", "P29_008": "00", "P29_009": null }, "geometry": { "type": "Point", "coordinates": [ 130.542409841331363, 33.316514452878252 ] } },
{ "type": "Feature", "properties": { "P29_001": "40203", "P29_002": "A240320300061", "P29_003": "16013", "P29_004": "認定こども園北野おおぞら幼稚園", "P29_005": "福岡県久留米市北野町中687-2", "P29_006": "4", "P29_007": "0", "P29_008": "00", "P29_009": null }, "geometry": { "type": "Point", "coordinates": [ 130.588492585399109, 33.351666050948182 ] } },
{ "type": "Feature", "properties": { "P29_001": "40203", "P29_002": "A240320300070", "P29_003": "16013", "P29_004": "幼保連携型認定こども園アイスクール幼稚園", "P29_005": "福岡県久留米市野中町834-3", "P29_006": "4", "P29_007": "0", "P29_008": "00", "P29_009": null }, "geometry": { "type": "Point", "coordinates": [ 130.534887216243618, 33.309439455648693 ] } },
{ "type": "Feature", "properties": { "P29_001": "40203", "P29_002": "A240320300089", "P29_003": "16013", "P29_004": "幼保連携型認定こども園かおりこども園", "P29_005": "福岡県久留米市宮ノ陣1-12-10", "P29_006": "4", "P29_007": "0", "P29_008": "00", "P29_009": null }, "geometry": { "type": "Point", "coordinates": [ 130.53115512587317, 33.332642666314605 ] } },
{ "type": "Feature", "properties": { "P29_001": "40203", "P29_002": "A240320300098", "P29_003": "16013", "P29_004": "幼保連携型認定こども園かおりガーデンこども園（分園）", "P29_005": "福岡県久留米市宮ノ陣4-2-11", "P29_006": "4", "P29_007": "0", "P29_008": "00", "P29_009": null }, "geometry": { "type": "Point", "coordinates": [ 130.532422062002951, 33.33097759096021 ] } },
{ "type": "Feature", "properties": { "P29_001": "40204", "P29_002": "A240320400015", "P29_003": "16013", "P29_004": "新入ひまわりこども園", "P29_005": "福岡県直方市上新入2047-1", "P29_006": "4", "P29_007": "0", "P29_008": "00", "P29_009": null }, "geometry": { "type": "Point", "coordinates": [ 130.710590383013113, 33.754820211440389 ] } },
{ "type": "Feature", "properties": { "P29_001": "40205", "P29_002": "A240320500023", "P29_003": "16013", "P29_004": "認定こども園さんない幼稚園", "P29_005": "福岡県飯塚市柏の森丁の坪626-1", "P29_006": "4", "P29_007": "0", "P29_008": "00", "P29_009": null }, "geometry": { "type": "Point", "coordinates": [ 130.696893719343507, 33.639060715789846 ] } },
{ "type": "Feature", "properties": { "P29_001": "40205", "P29_002": "A240320500032", "P29_003": "16013", "P29_004": "幼保連携型認定こども園鯰田こども園", "P29_005": "福岡県飯塚市鯰田1363", "P29_006": "4", "P29_007": "0", "P29_008": "00", "P29_009": null }, "geometry": { "type": "Point", "coordinates": [ 130.703835661446135, 33.667747156582635 ] } },
{ "type": "Feature", "properties": { "P29_001": "40205", "P29_002": "A240320500050", "P29_003": "16013", "P29_004": "潤野こども園", "P29_005": "福岡県飯塚市潤野35-6", "P29_006": "4", "P29_007": "0", "P29_008": "00", "P29_009": null }, "geometry": { "type": "Point", "coordinates": [ 130.661574796777273, 33.630562265638282 ] } },
{ "type": "Feature", "properties": { "P29_001": "40207", "P29_002": "A240320700012", "P29_003": "16013", "P29_004": "柳川幼稚園", "P29_005": "福岡県柳川市片原町15-1", "P29_006": "4", "P29_007": "0", "P29_008": "00", "P29_009": null }, "geometry": { "type": "Point", "coordinates": [ 130.405596201650752, 33.167051244169748 ] } },
{ "type": "Feature", "properties": { "P29_001": "40207", "P29_002": "A240320700021", "P29_003": "16013", "P29_004": "認定こども園ふたば幼稚園", "P29_005": "福岡県柳川市西蒲池776", "P29_006": "4", "P29_007": "0", "P29_008": "00", "P29_009": null }, "geometry": { "type": "Point", "coordinates": [ 130.403530025180714, 33.185000076105339 ] } },
{ "type": "Feature", "properties": { "P29_001": "40207", "P29_002": "A240320700030", "P29_003": "16013", "P29_004": "幼保連携型認定こども園柳川幼稚園分園ゆめわかば", "P29_005": "福岡県柳川市本町114-1", "P29_006": "4", "P29_007": "0", "P29_008": "00", "P29_009": null }, "geometry": { "type": "Point", "coordinates": [ 130.405895604764197, 33.163974455691793 ] } },
{ "type": "Feature", "properties": { "P29_001": "40211", "P29_002": "A240321100016", "P29_003": "16013", "P29_004": "幼保連携型認定こども園和泉幼稚園", "P29_005": "福岡県筑後市大字山ノ井480-1", "P29_006": "4", "P29_007": "0", "P29_008": "00", "P29_009": null }, "geometry": { "type": "Point", "coordinates": [ 130.501919507791655, 33.202363962243922 ] } },
{ "type": "Feature", "properties": { "P29_001": "40213", "P29_002": "A240321300014", "P29_003": "16013", "P29_004": "おおぞら認定こども園", "P29_005": "福岡県行橋市草野135-3", "P29_006": "4", "P29_007": "0", "P29_008": "00", "P29_009": null }, "geometry": { "type": "Point", "coordinates": [ 130.957630130005157, 33.73787883259201 ] } },
{ "type": "Feature", "properties": { "P29_001": "40213", "P29_002": "A240321300023", "P29_003": "16013", "P29_004": "みのりこども園", "P29_005": "福岡県行橋市長尾518", "P29_006": "4", "P29_007": "0", "P29_008": "00", "P29_009": null }, "geometry": { "type": "Point", "coordinates": [ 130.921494897837022, 33.736924169274694 ] } },
{ "type": "Feature", "properties": { "P29_001": "40214", "P29_002": "A240321400013", "P29_003": "16013", "P29_004": "こどもの園りとるぱんぷきんず", "P29_005": "福岡県豊前市三毛門959-1", "P29_006": "4", "P29_007": "0", "P29_008": "00", "P29_009": null }, "geometry": { "type": "Point", "coordinates": [ 131.151879063234958, 33.608964646981676 ] } },
{ "type": "Feature", "properties": { "P29_001": "40215", "P29_002": "A240321500012", "P29_003": "16013", "P29_004": "幼保連携型認定こども園砂山こども園", "P29_005": "福岡県中間市大字垣生字大隈田1535", "P29_006": "4", "P29_007": "0", "P29_008": "00", "P29_009": null }, "geometry": { "type": "Point", "coordinates": [ 130.690249326616197, 33.826447607633717 ] } },
{ "type": "Feature", "properties": { "P29_001": "40219", "P29_002": "A240321900018", "P29_003": "16013", "P29_004": "認定こども園大野幼稚園", "P29_005": "福岡県大野城市曙町1-2-27", "P29_006": "4", "P29_007": "0", "P29_008": "00", "P29_009": null }, "geometry": { "type": "Point", "coordinates": [ 130.477539924715444, 33.534641392635827 ] } },
{ "type": "Feature", "properties": { "P29_001": "40219", "P29_002": "A240321900027", "P29_003": "16013", "P29_004": "幼保連携型認定こども園大野東幼稚園", "P29_005": "福岡県大野城市乙金1-10-37", "P29_006": "4", "P29_007": "0", "P29_008": "00", "P29_009": null }, "geometry": { "type": "Point", "coordinates": [ 130.49172492106041, 33.54587740832708 ] } },
{ "type": "Feature", "properties": { "P29_001": "40219", "P29_002": "A240321900036", "P29_003": "16013", "P29_004": "幼保連携型認定こども園筑紫幼稚園", "P29_005": "福岡県大野城市横峰2-2-18", "P29_006": "4", "P29_007": "0", "P29_008": "00", "P29_009": null }, "geometry": { "type": "Point", "coordinates": [ 130.473465386515812, 33.506526446245644 ] } },
{ "type": "Feature", "properties": { "P29_001": "40223", "P29_002": "A240322300012", "P29_003": "16013", "P29_004": "幼保連携型認定こども園花鶴どろんここども園", "P29_005": "福岡県古賀市花鶴丘1-12", "P29_006": "4", "P29_007": "0", "P29_008": "00", "P29_009": null }, "geometry": { "type": "Point", "coordinates": [ 130.466669240926223, 33.726523638193029 ] } },
{ "type": "Feature", "properties": { "P29_001": "40223", "P29_002": "A240322300021", "P29_003": "16013", "P29_004": "幼保連携型認定こども園花見光こども園", "P29_005": "福岡県古賀市千鳥1-6-21", "P29_006": "4", "P29_007": "0", "P29_008": "00", "P29_009": null }, "geometry": { "type": "Point", "coordinates": [ 130.470903921559341, 33.741037271983096 ] } },
{ "type": "Feature", "properties": { "P29_001": "40223", "P29_002": "A240322300030", "P29_003": "16013", "P29_004": "幼保連携型認定こども園庄ひかりこども園", "P29_005": "福岡県古賀市今の庄2-4-1", "P29_006": "4", "P29_007": "0", "P29_008": "00", "P29_009": null }, "geometry": { "type": "Point", "coordinates": [ 130.472189455823525, 33.727447100991746 ] } },
{ "type": "Feature", "properties": { "P29_001": "40223", "P29_002": "A240322300049", "P29_003": "16013", "P29_004": "恵あおぞらこども園", "P29_005": "福岡県古賀市米多比1378", "P29_006": "4", "P29_007": "0", "P29_008": "00", "P29_009": null }, "geometry": { "type": "Point", "coordinates": [ 130.514141058047301, 33.72653541279589 ] } },
{ "type": "Feature", "properties": { "P29_001": "40223", "P29_002": "A240322300058", "P29_003": "16013", "P29_004": "花見あおぞらこども園", "P29_005": "福岡県古賀市花見南2-13-13", "P29_006": "4", "P29_007": "0", "P29_008": "00", "P29_009": null }, "geometry": { "type": "Point", "coordinates": [ 130.467367122915505, 33.742338085099249 ] } },
{ "type": "Feature", "properties": { "P29_001": "40225", "P29_002": "A240322500010", "P29_003": "16013", "P29_004": "認定こども園遊林愛児園", "P29_005": "福岡県うきは市浮羽町高見679-2", "P29_006": "4", "P29_007": "0", "P29_008": "00", "P29_009": null }, "geometry": { "type": "Point", "coordinates": [ 130.811483406429915, 33.351049831189385 ] } },
{ "type": "Feature", "properties": { "P29_001": "40226", "P29_002": "A240322600019", "P29_003": "16013", "P29_004": "宮若さくらこども園", "P29_005": "福岡県宮若市磯光1317-136", "P29_006": "4", "P29_007": "0", "P29_008": "00", "P29_009": null }, "geometry": { "type": "Point", "coordinates": [ 130.686417653005066, 33.70930567669101 ] } },
{ "type": "Feature", "properties": { "P29_001": "40230", "P29_002": "A240323000013", "P29_003": "16013", "P29_004": "幼保連携型認定こども園　るんびにこどもえん", "P29_005": "福岡県糸島市志摩新町392-2", "P29_006": "4", "P29_007": "0", "P29_008": "00", "P29_009": null }, "geometry": { "type": "Point", "coordinates": [ 130.130874012574537, 33.570166929468726 ] } },
{ "type": "Feature", "properties": { "P29_001": "40230", "P29_002": "A240323000022", "P29_003": "16013", "P29_004": "幼保連携型認定こども園一貴山保育園", "P29_005": "福岡県糸島市二丈石崎83-1", "P29_006": "4", "P29_007": "0", "P29_008": "00", "P29_009": null }, "geometry": { "type": "Point", "coordinates": [ 130.164633674568393, 33.516458184229336 ] } },
{ "type": "Feature", "properties": { "P29_001": "40231", "P29_002": "A240323100012", "P29_003": "16013", "P29_004": "幼保連携型認定こども園香蘭女子短期大学附属那珂川第一幼稚園", "P29_005": "福岡県那珂川市松木5-1-1", "P29_006": "4", "P29_007": "0", "P29_008": "00", "P29_009": null }, "geometry": { "type": "Point", "coordinates": [ 130.436065109899999, 33.504793379591121 ] } },
{ "type": "Feature", "properties": { "P29_001": "40343", "P29_002": "A240334300017", "P29_003": "16013", "P29_004": "志免さくらこども園", "P29_005": "福岡県糟屋郡志免町南里2-926", "P29_006": "4", "P29_007": "0", "P29_008": "00", "P29_009": null }, "geometry": { "type": "Point", "coordinates": [ 130.475319736736509, 33.594900528727322 ] } },
{ "type": "Feature", "properties": { "P29_001": "40349", "P29_002": "A240334900011", "P29_003": "16013", "P29_004": "はこぶね認定こども園", "P29_005": "福岡県糟屋郡粕屋町戸原西1-6-12", "P29_006": "4", "P29_007": "0", "P29_008": "00", "P29_009": null }, "geometry": { "type": "Point", "coordinates": [ 130.469851527555818, 33.621911830205406 ] } },
{ "type": "Feature", "properties": { "P29_001": "40382", "P29_002": "A240338200019", "P29_003": "16013", "P29_004": "認定こども園水巻幼稚園", "P29_005": "福岡県遠賀郡水巻町下二西3-6-15", "P29_006": "4", "P29_007": "0", "P29_008": "00", "P29_009": null }, "geometry": { "type": "Point", "coordinates": [ 130.69358487940292, 33.845471367129271 ] } },
{ "type": "Feature", "properties": { "P29_001": "40382", "P29_002": "A240338200028", "P29_003": "16013", "P29_004": "認定こども園水巻中央幼稚園", "P29_005": "福岡県遠賀郡水巻町下二西3-6-15", "P29_006": "4", "P29_007": "0", "P29_008": "00", "P29_009": null }, "geometry": { "type": "Point", "coordinates": [ 130.690276027151583, 33.866471374038262 ] } },
{ "type": "Feature", "properties": { "P29_001": "40383", "P29_002": "A240338300018", "P29_003": "16013", "P29_004": "認定こども園　えびつ幼稚園", "P29_005": "福岡県遠賀郡岡垣町中央台5-7-18", "P29_006": "4", "P29_007": "0", "P29_008": "00", "P29_009": null }, "geometry": { "type": "Point", "coordinates": [ 130.616994657876745, 33.844028434561103 ] } },
{ "type": "Feature", "properties": { "P29_001": "40401", "P29_002": "A240240100018", "P29_003": "16013", "P29_004": "小竹町立小竹こども園", "P29_005": "福岡県鞍手郡小竹町大字勝野2746-1", "P29_006": "3", "P29_007": "0", "P29_008": "00", "P29_009": null }, "geometry": { "type": "Point", "coordinates": [ 130.701015202593027, 33.687922785861403 ] } },
{ "type": "Feature", "properties": { "P29_001": "40203", "P29_002": "A240320300016", "P29_003": "16013", "P29_004": "幼保連携型認定こども園マーヤ永福寺幼稚園・保育園", "P29_005": "福岡県久留米市御井町536-2", "P29_006": "4", "P29_007": "0", "P29_008": "00", "P29_009": null }, "geometry": { "type": "Point", "coordinates": [ 130.552938097303894, 33.306923532972959 ] } },
{ "type": "Feature", "properties": { "P29_001": "40203", "P29_002": "A240320300105", "P29_003": "16013", "P29_004": "青木こども園", "P29_005": "福岡県久留米市城島町上青木950-2", "P29_006": "4", "P29_007": "0", "P29_008": "00", "P29_009": null }, "geometry": { "type": "Point", "coordinates": [ 130.409342730464829, 33.242168967197763 ] } },
{ "type": "Feature", "properties": { "P29_001": "40203", "P29_002": "A240320300114", "P29_003": "16013", "P29_004": "芦塚下田こども園", "P29_005": "福岡県久留米市城島町芦塚3-8", "P29_006": "4", "P29_007": "0", "P29_008": "00", "P29_009": null }, "geometry": { "type": "Point", "coordinates": [ 130.43416189461513, 33.278784955656363 ] } },
{ "type": "Feature", "properties": { "P29_001": "40203", "P29_002": "A240320300123", "P29_003": "16013", "P29_004": "金島子ども園", "P29_005": "福岡県久留米市北野町八重亀594", "P29_006": "4", "P29_007": "0", "P29_008": "00", "P29_009": null }, "geometry": { "type": "Point", "coordinates": [ 130.622113517138075, 33.354345522016203 ] } },
{ "type": "Feature", "properties": { "P29_001": "40203", "P29_002": "A240320300132", "P29_003": "16013", "P29_004": "わらしこ保育園", "P29_005": "福岡県久留米市荒木町下荒木1631", "P29_006": "4", "P29_007": "0", "P29_008": "00", "P29_009": null }, "geometry": { "type": "Point", "coordinates": [ 130.48132988407869, 33.266989918614819 ] } },
{ "type": "Feature", "properties": { "P29_001": "40203", "P29_002": "A240320300141", "P29_003": "16013", "P29_004": "星の子こども園", "P29_005": "福岡県久留米市田主丸町菅原800-1", "P29_006": "4", "P29_007": "0", "P29_008": "00", "P29_009": null }, "geometry": { "type": "Point", "coordinates": [ 130.641254799833604, 33.355974620499531 ] } },
{ "type": "Feature", "properties": { "P29_001": "40203", "P29_002": "A240320300150", "P29_003": "16013", "P29_004": "せいほうこども園", "P29_005": "福岡県久留米市青峰2-3-1", "P29_006": "4", "P29_007": "0", "P29_008": "00", "P29_009": null }, "geometry": { "type": "Point", "coordinates": [ 130.56165960964293, 33.284446531285404 ] } },
{ "type": "Feature", "properties": { "P29_001": "40203", "P29_002": "A240320300169", "P29_003": "16013", "P29_004": "久留米天使こども園", "P29_005": "福岡県久留米市野中町1279", "P29_006": "4", "P29_007": "0", "P29_008": "00", "P29_009": null }, "geometry": { "type": "Point", "coordinates": [ 130.527963421952023, 33.307001846236858 ] } },
{ "type": "Feature", "properties": { "P29_001": "40204", "P29_002": "A240320400024", "P29_003": "16013", "P29_004": "おんがの", "P29_005": "福岡県直方市感田1539", "P29_006": "4", "P29_007": "0", "P29_008": "00", "P29_009": null }, "geometry": { "type": "Point", "coordinates": [ 130.73678568899669, 33.767754714725321 ] } },
{ "type": "Feature", "properties": { "P29_001": "40204", "P29_002": "A240320400033", "P29_003": "16013", "P29_004": "新生第一こども園", "P29_005": "福岡県直方市大字感田字新出3179-2", "P29_006": "4", "P29_007": "0", "P29_008": "00", "P29_009": null }, "geometry": { "type": "Point", "coordinates": [ 130.71704551427851, 33.766039994720558 ] } },
{ "type": "Feature", "properties": { "P29_001": "40204", "P29_002": "A240320400042", "P29_003": "16013", "P29_004": "新生第二こども園", "P29_005": "福岡県直方市下新入558", "P29_006": "4", "P29_007": "0", "P29_008": "00", "P29_009": null }, "geometry": { "type": "Point", "coordinates": [ 130.717081484614425, 33.763197907241832 ] } },
{ "type": "Feature", "properties": { "P29_001": "40204", "P29_002": "A240320400051", "P29_003": "16013", "P29_004": "植木こども園", "P29_005": "福岡県直方市大字植木1099", "P29_006": "4", "P29_007": "0", "P29_008": "00", "P29_009": null }, "geometry": { "type": "Point", "coordinates": [ 130.711469536522827, 33.779966786823501 ] } },
{ "type": "Feature", "properties": { "P29_001": "40204", "P29_002": "A240320400060", "P29_003": "16013", "P29_004": "認定こども園　とんの幼稚園", "P29_005": "福岡県直方市頓野字野添2104-5", "P29_006": "4", "P29_007": "0", "P29_008": "00", "P29_009": null }, "geometry": { "type": "Point", "coordinates": [ 130.749783199782115, 33.747828674455747 ] } },
{ "type": "Feature", "properties": { "P29_001": "40205", "P29_002": "A240320500014", "P29_003": "16013", "P29_004": "認定こども園幸袋こども園", "P29_005": "福岡県飯塚市中513-5", "P29_006": "4", "P29_007": "0", "P29_008": "00", "P29_009": null }, "geometry": { "type": "Point", "coordinates": [ 130.680573994360685, 33.6653020997217 ] } },
{ "type": "Feature", "properties": { "P29_001": "40205", "P29_002": "A240320500041", "P29_003": "16013", "P29_004": "幼保連携型認定こども園ひかるこども園", "P29_005": "福岡県飯塚市伊岐須62-8", "P29_006": "4", "P29_007": "0", "P29_008": "00", "P29_009": null }, "geometry": { "type": "Point", "coordinates": [ 130.667036947248818, 33.65556767829451 ] } },
{ "type": "Feature", "properties": { "P29_001": "40205", "P29_002": "A240320500069", "P29_003": "16013", "P29_004": "横田こども園", "P29_005": "福岡県飯塚市横田351-1", "P29_006": "4", "P29_007": "0", "P29_008": "00", "P29_009": null }, "geometry": { "type": "Point", "coordinates": [ 130.675193260613241, 33.641582519312905 ] } },
{ "type": "Feature", "properties": { "P29_001": "40207", "P29_002": "A240320700049", "P29_003": "16013", "P29_004": "昭代保育園", "P29_005": "福岡県柳川市田脇989-1", "P29_006": "4", "P29_007": "0", "P29_008": "00", "P29_009": null }, "geometry": { "type": "Point", "coordinates": [ 130.38286957977536, 33.170469009136916 ] } },
{ "type": "Feature", "properties": { "P29_001": "40211", "P29_002": "A240321100025", "P29_003": "16013", "P29_004": "筑後中央幼稚園", "P29_005": "福岡県筑後市久富799-1", "P29_006": "4", "P29_007": "0", "P29_008": "00", "P29_009": null }, "geometry": { "type": "Point", "coordinates": [ 130.493549763521941, 33.22120117444738 ] } },
{ "type": "Feature", "properties": { "P29_001": "40214", "P29_002": "A240321400022", "P29_003": "16013", "P29_004": "みのりこどもえん", "P29_005": "福岡県豊前市大字今市323-3", "P29_006": "4", "P29_007": "0", "P29_008": "00", "P29_009": null }, "geometry": { "type": "Point", "coordinates": [ 131.123619317178424, 33.610782353170649 ] } },
{ "type": "Feature", "properties": { "P29_001": "40214", "P29_002": "A240321400031", "P29_003": "16013", "P29_004": "清高りとるぱんぷきんず", "P29_005": "福岡県豊前市八屋1537-1", "P29_006": "4", "P29_007": "0", "P29_008": "00", "P29_009": null }, "geometry": { "type": "Point", "coordinates": [ 131.119200650429576, 33.616211090252577 ] } },
{ "type": "Feature", "properties": { "P29_001": "40215", "P29_002": "A240321500021", "P29_003": "16013", "P29_004": "アンジュこども園", "P29_005": "福岡県中間市七重町18-5", "P29_006": "4", "P29_007": "0", "P29_008": "00", "P29_009": null }, "geometry": { "type": "Point", "coordinates": [ 130.722557682045931, 33.805726312193329 ] } },
{ "type": "Feature", "properties": { "P29_001": "40216", "P29_002": "A240321600011", "P29_003": "16013", "P29_004": "すばるこども園", "P29_005": "福岡県小郡市大保960", "P29_006": "4", "P29_007": "0", "P29_008": "00", "P29_009": null }, "geometry": { "type": "Point", "coordinates": [ 130.56429797331478, 33.411773893155576 ] } },
{ "type": "Feature", "properties": { "P29_001": "40220", "P29_002": "A240322000015", "P29_003": "16013", "P29_004": "認定こども園東海大学附属自由ケ丘幼稚園", "P29_005": "福岡県宗像市田久1-9-3", "P29_006": "4", "P29_007": "0", "P29_008": "00", "P29_009": null }, "geometry": { "type": "Point", "coordinates": [ 130.564862064219398, 33.801606875773288 ] } },
{ "type": "Feature", "properties": { "P29_001": "40220", "P29_002": "A240322000024", "P29_003": "16013", "P29_004": "幼保連携型認定こども園　東郷信愛幼稚園", "P29_005": "福岡県宗像市田熊5-8-5", "P29_006": "4", "P29_007": "0", "P29_008": "00", "P29_009": null }, "geometry": { "type": "Point", "coordinates": [ 130.525887039698205, 33.798742270485889 ] } },
{ "type": "Feature", "properties": { "P29_001": "40221", "P29_002": "A240322100014", "P29_003": "16013", "P29_004": "水城保育園", "P29_005": "福岡県太宰府市長浦台2-4-11", "P29_006": "4", "P29_007": "0", "P29_008": "00", "P29_009": null }, "geometry": { "type": "Point", "coordinates": [ 130.491874906852502, 33.503732584412312 ] } },
{ "type": "Feature", "properties": { "P29_001": "40223", "P29_002": "A240322300067", "P29_003": "16013", "P29_004": "くぼこども園", "P29_005": "福岡県古賀市新久保2-3-23", "P29_006": "4", "P29_007": "0", "P29_008": "00", "P29_009": null }, "geometry": { "type": "Point", "coordinates": [ 130.480983270379198, 33.735345413742564 ] } },
{ "type": "Feature", "properties": { "P29_001": "40223", "P29_002": "A240322300076", "P29_003": "16013", "P29_004": "ほづみこども園", "P29_005": "福岡県古賀市新久保1-3-24", "P29_006": "4", "P29_007": "0", "P29_008": "00", "P29_009": null }, "geometry": { "type": "Point", "coordinates": [ 130.478088549437132, 33.733675958377589 ] } },
{ "type": "Feature", "properties": { "P29_001": "40229", "P29_002": "A240322900016", "P29_003": "16013", "P29_004": "認定こども園岩田幼稚園", "P29_005": "福岡県みやま市高田町岩津962-1", "P29_006": "4", "P29_007": "0", "P29_008": "00", "P29_009": null }, "geometry": { "type": "Point", "coordinates": [ 130.474528152404616, 33.11320075339291 ] } },
{ "type": "Feature", "properties": { "P29_001": "40229", "P29_002": "A240322900025", "P29_003": "16013", "P29_004": "ひがしやまあいじえん", "P29_005": "福岡県みやま市瀬高町小田2215-5", "P29_006": "4", "P29_007": "0", "P29_008": "00", "P29_009": null }, "geometry": { "type": "Point", "coordinates": [ 130.523337666905775, 33.175034525737125 ] } },
{ "type": "Feature", "properties": { "P29_001": "40230", "P29_002": "A240323000031", "P29_003": "16013", "P29_004": "幼保連携型認定こども園福吉保育園", "P29_005": "福岡県糸島市二丈吉井3509-3", "P29_006": "4", "P29_007": "0", "P29_008": "00", "P29_009": null }, "geometry": { "type": "Point", "coordinates": [ 130.076640543340545, 33.502107380659389 ] } },
{ "type": "Feature", "properties": { "P29_001": "40230", "P29_002": "A240323000040", "P29_003": "16013", "P29_004": "幼保連携型認定こども園長糸保育園", "P29_005": "福岡県糸島市長野1540-1", "P29_006": "4", "P29_007": "0", "P29_008": "00", "P29_009": null }, "geometry": { "type": "Point", "coordinates": [ 130.196538372777695, 33.513047492764315 ] } },
{ "type": "Feature", "properties": { "P29_001": "40231", "P29_002": "A240323100021", "P29_003": "16013", "P29_004": "南畑ピノキオ森のこども園", "P29_005": "福岡県那珂川市大字埋金811-1", "P29_006": "4", "P29_007": "0", "P29_008": "00", "P29_009": null }, "geometry": { "type": "Point", "coordinates": [ 130.427757858295337, 33.463065546355047 ] } },
{ "type": "Feature", "properties": { "P29_001": "40231", "P29_002": "A240323100030", "P29_003": "16013", "P29_004": "福岡ピノキオこども園", "P29_005": "福岡県那珂川市恵子1-1-2", "P29_006": "4", "P29_007": "0", "P29_008": "00", "P29_009": null }, "geometry": { "type": "Point", "coordinates": [ 130.41964583766449, 33.515262283738878 ] } },
{ "type": "Feature", "properties": { "P29_001": "40341", "P29_002": "A240334100019", "P29_003": "16013", "P29_004": "宇美タンポポこども園", "P29_005": "福岡県糟屋郡宇美町宇美6-10-22", "P29_006": "4", "P29_007": "0", "P29_008": "00", "P29_009": null }, "geometry": { "type": "Point", "coordinates": [ 130.507448120557115, 33.565532155556923 ] } },
{ "type": "Feature", "properties": { "P29_001": "40342", "P29_002": "A240334200018", "P29_003": "16013", "P29_004": "篠栗どろんこ保育園", "P29_005": "福岡県糟屋郡篠栗町金出3562-1", "P29_006": "4", "P29_007": "0", "P29_008": "00", "P29_009": null }, "geometry": { "type": "Point", "coordinates": [ 130.535873448601194, 33.624647334528071 ] } },
{ "type": "Feature", "properties": { "P29_001": "40344", "P29_002": "A240334400016", "P29_003": "16013", "P29_004": "アザレア幼児園", "P29_005": "福岡県糟屋郡須恵町大字旅石72-521", "P29_006": "4", "P29_007": "0", "P29_008": "00", "P29_009": null }, "geometry": { "type": "Point", "coordinates": [ 130.498707332361477, 33.584076810932132 ] } },
{ "type": "Feature", "properties": { "P29_001": "40344", "P29_002": "A240334400025", "P29_003": "16013", "P29_004": "幼保連携型認定こども園れいんぼー幼児園", "P29_005": "福岡県糟屋郡須恵町大字旅石523", "P29_006": "4", "P29_007": "0", "P29_008": "00", "P29_009": null }, "geometry": { "type": "Point", "coordinates": [ 130.495952825670543, 33.59431124065717 ] } },
{ "type": "Feature", "properties": { "P29_001": "40345", "P29_002": "A240334500015", "P29_003": "16013", "P29_004": "上府あおぞらこども園", "P29_005": "福岡県糟屋郡新宮町大字上府683-4", "P29_006": "4", "P29_007": "0", "P29_008": "00", "P29_009": null }, "geometry": { "type": "Point", "coordinates": [ 130.45970548433769, 33.710060615425618 ] } },
{ "type": "Feature", "properties": { "P29_001": "40402", "P29_002": "A240340200015", "P29_003": "16013", "P29_004": "鞍手あゆみこども園", "P29_005": "福岡県鞍手郡鞍手町中山2213-1", "P29_006": "4", "P29_007": "0", "P29_008": "00", "P29_009": null }, "geometry": { "type": "Point", "coordinates": [ 130.692116481435846, 33.789341012160662 ] } },
{ "type": "Feature", "properties": { "P29_001": "40402", "P29_002": "A240340200024", "P29_003": "16013", "P29_004": "鞍手のぞみこども園", "P29_005": "福岡県鞍手郡鞍手町大字新延1986", "P29_006": "4", "P29_007": "0", "P29_008": "00", "P29_009": null }, "geometry": { "type": "Point", "coordinates": [ 130.662686883267156, 33.789413029167569 ] } }
]
}
