{
"type": "FeatureCollection",
"name": "geo_40_訪問リハビリテーション",
"crs": { "type": "name", "properties": { "name": "urn:ogc:def:crs:OGC:1.3:CRS84" } },
"features": [
{ "type": "Feature", "properties": { "内容": "医療法人　安藤内科循環器科医院【訪問リハビリテーション】福岡県北九州市門司区寺内1丁目1-3", "url": "https://www.kaigokensaku.mhlw.go.jp/40/index.php?action_kouhyou_detail_004_kani=true&JigyosyoCd=4017619505-00&ServiceCd=140&Type=search", "url2": null }, "geometry": { "type": "Point", "coordinates": [ 130.946526, 33.9090859 ] } },
{ "type": "Feature", "properties": { "内容": "晴山会クリニック【訪問リハビリテーション】福岡県北九州市門司区柳町1-2-1", "url": "https://www.kaigokensaku.mhlw.go.jp/40/index.php?action_kouhyou_detail_004_kani=true&JigyosyoCd=4017619877-00&ServiceCd=140&Type=search", "url2": null }, "geometry": { "type": "Point", "coordinates": [ 130.935732599999938, 33.9055779 ] } },
{ "type": "Feature", "properties": { "内容": "ＪＲ九州病院【訪問リハビリテーション】福岡県北九州市門司区高田２丁目１番１号", "url": "https://www.kaigokensaku.mhlw.go.jp/40/index.php?action_kouhyou_detail_004_kani=true&JigyosyoCd=4017629249-00&ServiceCd=140&Type=search", "url2": "www.jrkyushu.co.jp/hospital/" }, "geometry": { "type": "Point", "coordinates": [ 130.936932599999977, 33.9001979 ] } },
{ "type": "Feature", "properties": { "内容": "九州鉄道記念病院【訪問リハビリテーション】福岡県北九州市門司区高田２丁目１番１号", "url": "https://www.kaigokensaku.mhlw.go.jp/40/index.php?action_kouhyou_detail_004_kani=true&JigyosyoCd=4017619893-00&ServiceCd=140&Type=search", "url2": "http://www.krm-hospital.com/" }, "geometry": { "type": "Point", "coordinates": [ 130.936755799999986, 33.9000682 ] } },
{ "type": "Feature", "properties": { "内容": "医療法人のぐち整形外科クリニック【訪問リハビリテーション】福岡県北九州市門司区錦町１０番１０号", "url": "https://www.kaigokensaku.mhlw.go.jp/40/index.php?action_kouhyou_detail_004_kani=true&JigyosyoCd=4017619448-00&ServiceCd=140&Type=search", "url2": null }, "geometry": { "type": "Point", "coordinates": [ 130.968100899999968, 33.9434743 ] } },
{ "type": "Feature", "properties": { "内容": "北九州市立門司病院【訪問リハビリテーション】福岡県北九州市門司区南本町3番1号", "url": "https://www.kaigokensaku.mhlw.go.jp/40/index.php?action_kouhyou_detail_004_kani=true&JigyosyoCd=4017619067-00&ServiceCd=140&Type=search", "url2": "www.akanekai-moji.com/" }, "geometry": { "type": "Point", "coordinates": [ 130.941404, 33.9160712 ] } },
{ "type": "Feature", "properties": { "内容": "新小文字病院【訪問リハビリテーション】福岡県北九州市門司区大里新町2-5", "url": "https://www.kaigokensaku.mhlw.go.jp/40/index.php?action_kouhyou_detail_004_kani=true&JigyosyoCd=4017619869-00&ServiceCd=140&Type=search", "url2": "http://www.shinkomonji-hp.jp/" }, "geometry": { "type": "Point", "coordinates": [ 130.925789200000054, 33.897212 ] } },
{ "type": "Feature", "properties": { "内容": "鳥巣病院訪問リハビリテーション【訪問リハビリテーション】福岡県北九州市門司区吉志５丁目5番10号", "url": "https://www.kaigokensaku.mhlw.go.jp/40/index.php?action_kouhyou_detail_004_kani=true&JigyosyoCd=4017619356-00&ServiceCd=140&Type=search", "url2": "http://www.torisu-hp.or.jp/" }, "geometry": { "type": "Point", "coordinates": [ 130.960975499999989, 33.8652348 ] } },
{ "type": "Feature", "properties": { "内容": "介護老人保健施設　グリーンライフ【訪問リハビリテーション】福岡県北九州市若松区童子丸2丁目7番7号", "url": "https://www.kaigokensaku.mhlw.go.jp/40/index.php?action_kouhyou_detail_004_kani=true&JigyosyoCd=4070202207-00&ServiceCd=140&Type=search", "url2": null }, "geometry": { "type": "Point", "coordinates": [ 130.763256, 33.8896204 ] } },
{ "type": "Feature", "properties": { "内容": "訪問リハビリテーションけやき【訪問リハビリテーション】西畑町9番72号介護老人保健施設けやき", "url": "https://www.kaigokensaku.mhlw.go.jp/40/index.php?action_kouhyou_detail_004_kani=true&JigyosyoCd=4070202215-00&ServiceCd=140&Type=search", "url2": "http://www.e-keyaki.jp" }, "geometry": { "type": "Point", "coordinates": [ 130.791858499999989, 33.9107048 ] } },
{ "type": "Feature", "properties": { "内容": "医療法人　今光会　今光ホームケアクリニック【訪問リハビリテーション】福岡県北九州市若松区今光１丁目９−１０", "url": "https://www.kaigokensaku.mhlw.go.jp/40/index.php?action_kouhyou_detail_004_kani=true&JigyosyoCd=4016511836-00&ServiceCd=140&Type=search", "url2": "http://med-iccc.jp" }, "geometry": { "type": "Point", "coordinates": [ 130.775471399999986, 33.892470400000015 ] } },
{ "type": "Feature", "properties": { "内容": "グリーン・ヒル若松　訪問リハビリテーション【訪問リハビリテーション】福岡県北九州市若松区小敷ひびきの一丁目10番1号", "url": "https://www.kaigokensaku.mhlw.go.jp/40/index.php?action_kouhyou_detail_004_kani=true&JigyosyoCd=4056580071-00&ServiceCd=140&Type=search", "url2": "https://green-hill.wakato.or.jp/" }, "geometry": { "type": "Point", "coordinates": [ 130.70521363068849, 33.896820990287658 ] } },
{ "type": "Feature", "properties": { "内容": "医療法人さいとう＆さめしまクリニック【訪問リハビリテーション】福岡県北九州市若松区棚田町11－13", "url": "https://www.kaigokensaku.mhlw.go.jp/40/index.php?action_kouhyou_detail_004_kani=true&JigyosyoCd=4016519375-00&ServiceCd=140&Type=search", "url2": "https://www.saitoclinic.com/pc/" }, "geometry": { "type": "Point", "coordinates": [ 130.7897448, 33.9138211 ] } },
{ "type": "Feature", "properties": { "内容": "医療法人　優和会　こが医院【訪問リハビリテーション】福岡県北九州市若松区下原町4-11", "url": "https://www.kaigokensaku.mhlw.go.jp/40/index.php?action_kouhyou_detail_004_kani=true&JigyosyoCd=4016519367-00&ServiceCd=140&Type=search", "url2": "http://www.kogaiin.com" }, "geometry": { "type": "Point", "coordinates": [ 130.7912586, 33.9166819 ] } },
{ "type": "Feature", "properties": { "内容": "芳野病院【訪問リハビリテーション】福岡県北九州市若松区本町２丁目15－6", "url": "https://www.kaigokensaku.mhlw.go.jp/40/index.php?action_kouhyou_detail_004_kani=true&JigyosyoCd=4016519490-00&ServiceCd=140&Type=search", "url2": "http://www.yoshino-hp.com" }, "geometry": { "type": "Point", "coordinates": [ 130.810143, 33.9024536 ] } },
{ "type": "Feature", "properties": { "内容": "社会医療法人共愛会　戸畑リハビリテーション病院【訪問リハビリテーション】小芝2丁目4番31号", "url": "https://www.kaigokensaku.mhlw.go.jp/40/index.php?action_kouhyou_detail_004_kani=true&JigyosyoCd=4016419337-00&ServiceCd=140&Type=search", "url2": "https://www.kyoaikai.com/reha/" }, "geometry": { "type": "Point", "coordinates": [ 130.836204400000014, 33.8947556 ] } },
{ "type": "Feature", "properties": { "内容": "戸畑総合病院訪問リハビリテーション【訪問リハビリテーション】福岡県北九州市戸畑区福柳木1丁目3-33医療法人　医和基会　戸畑総合病院", "url": "https://www.kaigokensaku.mhlw.go.jp/40/index.php?action_kouhyou_detail_004_kani=true&JigyosyoCd=4016419212-00&ServiceCd=140&Type=search", "url2": null }, "geometry": { "type": "Point", "coordinates": [ 130.833313800000042, 33.881061600000017 ] } },
{ "type": "Feature", "properties": { "内容": "大手町診療所【訪問リハビリテーション】北九州市小倉北区大手町13-1", "url": "https://www.kaigokensaku.mhlw.go.jp/40/index.php?action_kouhyou_detail_004_kani=true&JigyosyoCd=4017910201-00&ServiceCd=140&Type=search", "url2": "http://www.kenwakai.gr.jp/oteshin/top.html" }, "geometry": { "type": "Point", "coordinates": [ 130.870988336384613, 33.87660896636396 ] } },
{ "type": "Feature", "properties": { "内容": "医療法人　山田内科医院【訪問リハビリテーション】下冨野１丁目４－４７", "url": "https://www.kaigokensaku.mhlw.go.jp/40/index.php?action_kouhyou_detail_004_kani=true&JigyosyoCd=4017719727-00&ServiceCd=140&Type=search", "url2": null }, "geometry": { "type": "Point", "coordinates": [ 130.8926649, 33.8818208 ] } },
{ "type": "Feature", "properties": { "内容": "社会医療法人北九州病院　北九州中央病院【訪問リハビリテーション】小倉北区香春口１丁目１３番１号", "url": "https://www.kaigokensaku.mhlw.go.jp/40/index.php?action_kouhyou_detail_004_kani=true&JigyosyoCd=4017719487-00&ServiceCd=140&Type=search", "url2": "https://www.kitakyu-hp.or.jp/" }, "geometry": { "type": "Point", "coordinates": [ 130.880168899999944, 33.8734825 ] } },
{ "type": "Feature", "properties": { "内容": "三萩野病院　在宅支援センター【訪問リハビリテーション】三萩野2-7-7三萩野病院", "url": "https://www.kaigokensaku.mhlw.go.jp/40/index.php?action_kouhyou_detail_004_kani=true&JigyosyoCd=4017719131-00&ServiceCd=140&Type=search", "url2": "http://www.m-hp.or.jp/" }, "geometry": { "type": "Point", "coordinates": [ 130.884675655433654, 33.870955989133591 ] } },
{ "type": "Feature", "properties": { "内容": "金子クリニック【訪問リハビリテーション】福岡県北九州市小倉北区下富野2丁目10番29号", "url": "https://www.kaigokensaku.mhlw.go.jp/40/index.php?action_kouhyou_detail_004_kani=true&JigyosyoCd=4017911738-00&ServiceCd=140&Type=search", "url2": "kaneko-clinic-2011.jp" }, "geometry": { "type": "Point", "coordinates": [ 130.8989925, 33.881432 ] } },
{ "type": "Feature", "properties": { "内容": "介護老人保健施設エバーグリーン【訪問リハビリテーション】福岡県北九州市小倉北区片野新町1丁目11-7", "url": "https://www.kaigokensaku.mhlw.go.jp/40/index.php?action_kouhyou_detail_004_kani=true&JigyosyoCd=4070404373-00&ServiceCd=140&Type=search", "url2": null }, "geometry": { "type": "Point", "coordinates": [ 130.884103634918205, 33.863102516907034 ] } },
{ "type": "Feature", "properties": { "内容": "小倉リハビリテーション病院訪問リハビリテーション【訪問リハビリテーション】福岡県北九州市小倉北区篠崎1丁目5番1号", "url": "https://www.kaigokensaku.mhlw.go.jp/40/index.php?action_kouhyou_detail_004_kani=true&JigyosyoCd=4017719230-00&ServiceCd=140&Type=search", "url2": "http://www.kyouwakai.net" }, "geometry": { "type": "Point", "coordinates": [ 130.869078, 33.8681414 ] } },
{ "type": "Feature", "properties": { "内容": "大郷内科クリニック訪問リハビリテーション【訪問リハビリテーション】福岡県北九州市小倉北区真鶴1丁目4番12号大郷ビル", "url": "https://www.kaigokensaku.mhlw.go.jp/40/index.php?action_kouhyou_detail_004_kani=true&JigyosyoCd=4017910102-00&ServiceCd=140&Type=search", "url2": "http://www.ohgokai.or.jp/" }, "geometry": { "type": "Point", "coordinates": [ 130.855001, 33.8735824 ] } },
{ "type": "Feature", "properties": { "内容": "九州医療整形外科・内科リハビリテーションクリニック【訪問リハビリテーション】東篠崎1丁目9-8九州医療スポーツ専門学校東篠崎校舎内1階", "url": "https://www.kaigokensaku.mhlw.go.jp/40/index.php?action_kouhyou_detail_004_kani=true&JigyosyoCd=4017911662-00&ServiceCd=140&Type=search", "url2": "http://kms-clinic.com/" }, "geometry": { "type": "Point", "coordinates": [ 130.87107530000003, 33.8640141 ] } },
{ "type": "Feature", "properties": { "内容": "医療法人　北愛会　介護老人保健施設　桜丘【訪問リハビリテーション】福岡県北九州市小倉北区上富野３丁目１７－１", "url": "https://www.kaigokensaku.mhlw.go.jp/40/index.php?action_kouhyou_detail_004_kani=true&JigyosyoCd=4057780167-00&ServiceCd=140&Type=search", "url2": "https://hoku-i.jp/" }, "geometry": { "type": "Point", "coordinates": [ 130.902994300000046, 33.8851903 ] } },
{ "type": "Feature", "properties": { "内容": "かたえ整形外科・リウマチ科　訪問リハビリテーション【訪問リハビリテーション】福岡県北九州市小倉北区真鶴2丁目10-5", "url": "https://www.kaigokensaku.mhlw.go.jp/40/index.php?action_kouhyou_detail_004_kani=true&JigyosyoCd=4017912314-00&ServiceCd=140&Type=search", "url2": "https://www.katae-seikei.com/" }, "geometry": { "type": "Point", "coordinates": [ 130.8529288, 33.8718942 ] } },
{ "type": "Feature", "properties": { "内容": "医療法人真鶴会小倉第一病院【訪問リハビリテーション】福岡県北九州市小倉北区下到津1丁目12-14", "url": "https://www.kaigokensaku.mhlw.go.jp/40/index.php?action_kouhyou_detail_004_kani=true&JigyosyoCd=4017910656-00&ServiceCd=140&Type=search", "url2": "https://www.kdh.gr.jp/" }, "geometry": { "type": "Point", "coordinates": [ 130.8584314, 33.8817624 ] } },
{ "type": "Feature", "properties": { "内容": "新栄会病院【訪問リハビリテーション】福岡県北九州市小倉北区弁天町12-11", "url": "https://www.kaigokensaku.mhlw.go.jp/40/index.php?action_kouhyou_detail_004_kani=true&JigyosyoCd=4017729049-00&ServiceCd=140&Type=search", "url2": "http://shin-eikai.com" }, "geometry": { "type": "Point", "coordinates": [ 130.8632586, 33.8696967 ] } },
{ "type": "Feature", "properties": { "内容": "訪問リハビリテーションさくら【訪問リハビリテーション】北九州市小倉南区朽網西一丁目６番６号", "url": "https://www.kaigokensaku.mhlw.go.jp/40/index.php?action_kouhyou_detail_004_kani=true&JigyosyoCd=4017719503-00&ServiceCd=140&Type=search", "url2": "http://www.sakurakai52.or.jp" }, "geometry": { "type": "Point", "coordinates": [ 130.952765732788066, 33.811992852918806 ] } },
{ "type": "Feature", "properties": { "内容": "医療法人　あさひ松本病院【訪問リハビリテーション】北九州市小倉南区津田5-1-5", "url": "https://www.kaigokensaku.mhlw.go.jp/40/index.php?action_kouhyou_detail_004_kani=true&JigyosyoCd=4017810393-00&ServiceCd=140&Type=search", "url2": "http://www.asahimatumoto.or.jp" }, "geometry": { "type": "Point", "coordinates": [ 130.9283905, 33.8266132 ] } },
{ "type": "Feature", "properties": { "内容": "東和病院(介護予防)訪問リハビリテーション【訪問リハビリテーション】福岡県北九州市小倉南区守恒本町1-3-1東和病院内", "url": "https://www.kaigokensaku.mhlw.go.jp/40/index.php?action_kouhyou_detail_004_kani=true&JigyosyoCd=4017716921-00&ServiceCd=140&Type=search", "url2": "https://tohwa-hospital.or.jp" }, "geometry": { "type": "Point", "coordinates": [ 130.872998199999984, 33.8372396 ] } },
{ "type": "Feature", "properties": { "内容": "小倉南メディカルケア病院【訪問リハビリテーション】福岡県北九州市小倉南区葛原東二丁目１４番２号", "url": "https://www.kaigokensaku.mhlw.go.jp/40/index.php?action_kouhyou_detail_004_kani=true&JigyosyoCd=4017719537-00&ServiceCd=140&Type=search", "url2": "http://www.jojinkai.com/kokura/" }, "geometry": { "type": "Point", "coordinates": [ 130.92949550000003, 33.8401627 ] } },
{ "type": "Feature", "properties": { "内容": "医療法人都留内科医院　訪問リハビリテーション【訪問リハビリテーション】福岡県北九州市小倉南区徳吉西3丁目5番25", "url": "https://www.kaigokensaku.mhlw.go.jp/40/index.php?action_kouhyou_detail_004_kani=true&JigyosyoCd=4017719768-00&ServiceCd=140&Type=search", "url2": null }, "geometry": { "type": "Point", "coordinates": [ 130.8562378, 33.810896500000034 ] } },
{ "type": "Feature", "properties": { "内容": "北九州安部山公園病院【訪問リハビリテーション】北九州市小倉南区大字湯川139番地の21", "url": "https://www.kaigokensaku.mhlw.go.jp/40/index.php?action_kouhyou_detail_004_kani=true&JigyosyoCd=4017810179-00&ServiceCd=140&Type=search", "url2": "https://abeyama.kitakyu-hp.or.jp/" }, "geometry": { "type": "Point", "coordinates": [ 130.9097693, 33.8506108 ] } },
{ "type": "Feature", "properties": { "内容": "しもそね整形外科・骨粗しょう症クリニック【訪問リハビリテーション】福岡県北九州市小倉南区曽根北町2－26", "url": "https://www.kaigokensaku.mhlw.go.jp/40/index.php?action_kouhyou_detail_004_kani=true&JigyosyoCd=4017811276-00&ServiceCd=140&Type=search", "url2": "www.shimosoneclinic.com" }, "geometry": { "type": "Point", "coordinates": [ 130.93974203439322, 33.838104033889408 ] } },
{ "type": "Feature", "properties": { "内容": "訪問リハビリテーションさくら【訪問リハビリテーション】福岡県北九州市小倉南区朽網西１丁目６番６号", "url": "https://www.kaigokensaku.mhlw.go.jp/40/index.php?action_kouhyou_detail_004_kani=true&JigyosyoCd=4070505831-00&ServiceCd=140&Type=search", "url2": "http:/www.sakurakai52.or.jp" }, "geometry": { "type": "Point", "coordinates": [ 130.9528894, 33.8121155 ] } },
{ "type": "Feature", "properties": { "内容": "桃園公園クリニック【訪問リハビリテーション】福岡県北九州市八幡東区桃園１－５－１", "url": "https://www.kaigokensaku.mhlw.go.jp/40/index.php?action_kouhyou_detail_004_kani=true&JigyosyoCd=4016710552-00&ServiceCd=140&Type=search", "url2": "medical-village.jp" }, "geometry": { "type": "Point", "coordinates": [ 130.784613199999967, 33.8632102 ] } },
{ "type": "Feature", "properties": { "内容": "たなか整形外科　訪問リハビリテーション【訪問リハビリテーション】福岡県北九州市八幡東区大蔵1丁目14-2", "url": "https://www.kaigokensaku.mhlw.go.jp/40/index.php?action_kouhyou_detail_004_kani=true&JigyosyoCd=4016701685-00&ServiceCd=140&Type=search", "url2": "http://www.tanaka-seikeigeka.net/" }, "geometry": { "type": "Point", "coordinates": [ 130.822789699999987, 33.8635834 ] } },
{ "type": "Feature", "properties": { "内容": "医療法人ひがしだクリニック【訪問リハビリテーション】福岡県北九州市八幡東区東田１丁目６番２号", "url": "https://www.kaigokensaku.mhlw.go.jp/40/index.php?action_kouhyou_detail_004_kani=true&JigyosyoCd=4016619795-00&ServiceCd=140&Type=search", "url2": "http://higashida-cl.com" }, "geometry": { "type": "Point", "coordinates": [ 130.7958095, 33.8714907 ] } },
{ "type": "Feature", "properties": { "内容": "済生会くれたけ荘訪問リハビリテーション【訪問リハビリテーション】福岡県北九州市八幡東区中尾1-22-18介護老人保健施設済生会くれたけ荘", "url": "https://www.kaigokensaku.mhlw.go.jp/40/index.php?action_kouhyou_detail_004_kani=true&JigyosyoCd=4070602109-00&ServiceCd=140&Type=search", "url2": "http://www.saiseikai-kuretakesou.jp/" }, "geometry": { "type": "Point", "coordinates": [ 130.8296144, 33.8599136 ] } },
{ "type": "Feature", "properties": { "内容": "社会医療法人　北九州病院　北九州八幡東病院【訪問リハビリテーション】福岡県北九州八幡東区東田一丁目4番3号", "url": "https://www.kaigokensaku.mhlw.go.jp/40/index.php?action_kouhyou_detail_004_kani=true&JigyosyoCd=4016619282-00&ServiceCd=140&Type=search", "url2": "http://www.kitakyu-hp.or.jp/contents/kitahasyahatahigasi.htm" }, "geometry": { "type": "Point", "coordinates": [ 130.798125389547977, 33.870416366603862 ] } },
{ "type": "Feature", "properties": { "内容": "医療法人ふらて会西野病院【訪問リハビリテーション】福岡県北九州市八幡東区山路松尾町13-27", "url": "https://www.kaigokensaku.mhlw.go.jp/40/index.php?action_kouhyou_detail_004_kani=true&JigyosyoCd=4016616809-00&ServiceCd=140&Type=search", "url2": "http://www.furate.net/" }, "geometry": { "type": "Point", "coordinates": [ 130.848231299999952, 33.8597133 ] } },
{ "type": "Feature", "properties": { "内容": "北九州訪問クリニックたんぽぽ【訪問リハビリテーション】福岡県北九州市八幡東区昭和2丁目1-13", "url": "https://www.kaigokensaku.mhlw.go.jp/40/index.php?action_kouhyou_detail_004_kani=true&JigyosyoCd=4016711170-00&ServiceCd=140&Type=search", "url2": "https://kitakyu-tanpopo-clinic.com/" }, "geometry": { "type": "Point", "coordinates": [ 130.84185260000001, 33.8685132 ] } },
{ "type": "Feature", "properties": { "内容": "済生会くれたけ荘訪問リハビリテーション【訪問リハビリテーション】福岡県北九州市八幡東区中尾1-22-18", "url": "https://www.kaigokensaku.mhlw.go.jp/40/index.php?action_kouhyou_detail_004_kani=true&JigyosyoCd=4056680129-00&ServiceCd=140&Type=search", "url2": "http://www.saiseikai-kuretakesou.jp/" }, "geometry": { "type": "Point", "coordinates": [ 130.8296235, 33.8599645 ] } },
{ "type": "Feature", "properties": { "内容": "CLCひかり緩和ケアクリニック【訪問リハビリテーション】福岡県北九州市八幡東区春の町5丁目1-13アクアコート八幡　101", "url": "https://www.kaigokensaku.mhlw.go.jp/40/index.php?action_kouhyou_detail_004_kani=true&JigyosyoCd=4016711360-00&ServiceCd=140&Type=search", "url2": "https://clc-hikari-cl.com/" }, "geometry": { "type": "Point", "coordinates": [ 130.806491, 33.867042 ] } },
{ "type": "Feature", "properties": { "内容": "医療法人健美会佐々木病院【訪問リハビリテーション】吉祥寺町９－３６", "url": "https://www.kaigokensaku.mhlw.go.jp/40/index.php?action_kouhyou_detail_004_kani=true&JigyosyoCd=4016617609-00&ServiceCd=140&Type=search", "url2": "https://sasaki-hsp.jp/" }, "geometry": { "type": "Point", "coordinates": [ 130.733206200000012, 33.8048886 ] } },
{ "type": "Feature", "properties": { "内容": "訪問リハビリテーションひまわり【訪問リハビリテーション】福岡県北九州市八幡西区町上津役東3丁目17番10号", "url": "https://www.kaigokensaku.mhlw.go.jp/40/index.php?action_kouhyou_detail_004_kani=true&JigyosyoCd=4070707296-00&ServiceCd=140&Type=search", "url2": "http//www.shinseikai-hos.or.jp" }, "geometry": { "type": "Point", "coordinates": [ 130.760574899999938, 33.8207558 ] } },
{ "type": "Feature", "properties": { "内容": "八幡慈恵病院【訪問リハビリテーション】福岡県北九州市八幡西区木屋瀬1丁目12番23号", "url": "https://www.kaigokensaku.mhlw.go.jp/40/index.php?action_kouhyou_detail_004_kani=true&JigyosyoCd=4016629802-00&ServiceCd=140&Type=search", "url2": "https://yahatajikei.com" }, "geometry": { "type": "Point", "coordinates": [ 130.727833299999986, 33.7815685 ] } },
{ "type": "Feature", "properties": { "内容": "聖ヨハネ病院【訪問リハビリテーション】福岡県北九州市八幡西区陣山1丁目4-28", "url": "https://www.kaigokensaku.mhlw.go.jp/40/index.php?action_kouhyou_detail_004_kani=true&JigyosyoCd=4016711006-00&ServiceCd=140&Type=search", "url2": "https://haruka-mc.jp/" }, "geometry": { "type": "Point", "coordinates": [ 130.780221899999987, 33.8672415 ] } },
{ "type": "Feature", "properties": { "内容": "医療法人　前川整形外科医院【訪問リハビリテーション】浅川学園台3丁目10-8", "url": "https://www.kaigokensaku.mhlw.go.jp/40/index.php?action_kouhyou_detail_004_kani=true&JigyosyoCd=4016617385-00&ServiceCd=140&Type=search", "url2": "https://maekawa1998.com/" }, "geometry": { "type": "Point", "coordinates": [ 130.707796400000035, 33.8848899 ] } },
{ "type": "Feature", "properties": { "内容": "東筑病院訪問リハビリテーション【訪問リハビリテーション】福岡県北九州市八幡西区八枝1丁目7番20号", "url": "https://www.kaigokensaku.mhlw.go.jp/40/index.php?action_kouhyou_detail_004_kani=true&JigyosyoCd=4016616304-00&ServiceCd=140&Type=search", "url2": "http://www.touchiku-hospital.com" }, "geometry": { "type": "Point", "coordinates": [ 130.725025355378079, 33.849896364678251 ] } },
{ "type": "Feature", "properties": { "内容": "医療法人新生会　介護老人保健施設ひまわり訪問リハビリテーション【訪問リハビリテーション】福岡県北九州市八幡西区町上津役東3丁目17番10号", "url": "https://www.kaigokensaku.mhlw.go.jp/40/index.php?action_kouhyou_detail_004_kani=true&JigyosyoCd=4056680152-00&ServiceCd=140&Type=search", "url2": "http//www.shinseikai-hos.or.jp" }, "geometry": { "type": "Point", "coordinates": [ 130.760688, 33.8208024 ] } },
{ "type": "Feature", "properties": { "内容": "介護老人保健施設　宗寿苑【訪問リハビリテーション】北九州市八幡西区友田二丁目4番1号", "url": "https://www.kaigokensaku.mhlw.go.jp/40/index.php?action_kouhyou_detail_004_kani=true&JigyosyoCd=4056680160-00&ServiceCd=140&Type=search", "url2": "http://www.soujyuen.com" }, "geometry": { "type": "Point", "coordinates": [ 130.7234405, 33.8710808 ] } },
{ "type": "Feature", "properties": { "内容": "アールリハビリクリニック【訪問リハビリテーション】福岡県北九州市八幡西区則松６丁目１５番３８号", "url": "https://www.kaigokensaku.mhlw.go.jp/40/index.php?action_kouhyou_detail_004_kani=true&JigyosyoCd=4016616627-00&ServiceCd=140&Type=search", "url2": "https://rclinic.or.jp" }, "geometry": { "type": "Point", "coordinates": [ 130.7193225, 33.8551477 ] } },
{ "type": "Feature", "properties": { "内容": "新生会病院訪問リハビリテーション【訪問リハビリテーション】下上津役1‐5‐1新生会病院", "url": "https://www.kaigokensaku.mhlw.go.jp/40/index.php?action_kouhyou_detail_004_kani=true&JigyosyoCd=4016616650-00&ServiceCd=140&Type=search", "url2": "http://www.shinseikai-hos.or.jp/" }, "geometry": { "type": "Point", "coordinates": [ 130.7411602, 33.8308146 ] } },
{ "type": "Feature", "properties": { "内容": "医療法人しょうわ会　フェリシア福岡病院　訪問リハビリテーション【訪問リハビリテーション】福岡県北九州市八幡西区陣原一丁目2番11号", "url": "https://www.kaigokensaku.mhlw.go.jp/40/index.php?action_kouhyou_detail_004_kani=true&JigyosyoCd=4016616965-00&ServiceCd=140&Type=search", "url2": "https://www.showa-felicia.com" }, "geometry": { "type": "Point", "coordinates": [ 130.743881, 33.8675989 ] } },
{ "type": "Feature", "properties": { "内容": "医療法人西田医院【訪問リハビリテーション】木屋瀬東一丁目８番１号", "url": "https://www.kaigokensaku.mhlw.go.jp/40/index.php?action_kouhyou_detail_004_kani=true&JigyosyoCd=4016617336-00&ServiceCd=140&Type=search", "url2": null }, "geometry": { "type": "Point", "coordinates": [ 130.729995800000012, 33.7805561 ] } },
{ "type": "Feature", "properties": { "内容": "新王子病院訪問リハビリテーション【訪問リハビリテーション】福岡県北九州市八幡西区鉄王2丁目20-1", "url": "https://www.kaigokensaku.mhlw.go.jp/40/index.php?action_kouhyou_detail_004_kani=true&JigyosyoCd=4016619332-00&ServiceCd=140&Type=search", "url2": "http://www.hamayuukai.or.jp" }, "geometry": { "type": "Point", "coordinates": [ 130.75249980000001, 33.8488833 ] } },
{ "type": "Feature", "properties": { "内容": "しんわ苑訪問リハビリテーション【訪問リハビリテーション】福岡県北九州市八幡西区楠橋南2丁目19-6", "url": "https://www.kaigokensaku.mhlw.go.jp/40/index.php?action_kouhyou_detail_004_kani=true&JigyosyoCd=4070708161-00&ServiceCd=140&Type=search", "url2": "https://www.shinwakai-gr.jp/shinwaen/" }, "geometry": { "type": "Point", "coordinates": [ 130.7316184, 33.7842532 ] } },
{ "type": "Feature", "properties": { "内容": "ことのはコラボレーションクリニック【訪問リハビリテーション】福岡県北九州市八幡西区割子川1-2-25", "url": "https://www.kaigokensaku.mhlw.go.jp/40/index.php?action_kouhyou_detail_004_kani=true&JigyosyoCd=4016711311-00&ServiceCd=140&Type=search", "url2": "https://sites.google.com/view/kotonoha-collaboration-clinic/" }, "geometry": { "type": "Point", "coordinates": [ 130.7596852, 33.8395933 ] } },
{ "type": "Feature", "properties": { "内容": "翡翠苑訪問リハビリテーション【訪問リハビリテーション】福岡県北九州市八幡西区森下町27番43号翡翠苑", "url": "https://www.kaigokensaku.mhlw.go.jp/40/index.php?action_kouhyou_detail_004_kani=true&JigyosyoCd=4056680103-00&ServiceCd=140&Type=search", "url2": "https://www.touchiku-hospital.com" }, "geometry": { "type": "Point", "coordinates": [ 130.7421426, 33.8495734 ] } },
{ "type": "Feature", "properties": { "内容": "医療法人　暁会【訪問リハビリテーション】福岡県福岡市東区若宮5丁目３－４５", "url": "https://www.kaigokensaku.mhlw.go.jp/40/index.php?action_kouhyou_detail_004_kani=true&JigyosyoCd=4010210062-00&ServiceCd=140&Type=search", "url2": null }, "geometry": { "type": "Point", "coordinates": [ 130.4432385, 33.6449578 ] } },
{ "type": "Feature", "properties": { "内容": "おくだクリニック【訪問リハビリテーション】福岡県福岡市東区千早2丁目4-18", "url": "https://www.kaigokensaku.mhlw.go.jp/40/index.php?action_kouhyou_detail_004_kani=true&JigyosyoCd=4010210245-00&ServiceCd=140&Type=search", "url2": null }, "geometry": { "type": "Point", "coordinates": [ 130.433289100000025, 33.6451075 ] } },
{ "type": "Feature", "properties": { "内容": "社会医療法人財団　池友会　福岡和白病院【訪問リハビリテーション】福岡県福岡市東区和白丘2-2-75", "url": "https://www.kaigokensaku.mhlw.go.jp/40/index.php?action_kouhyou_detail_004_kani=true&JigyosyoCd=4010210310-00&ServiceCd=140&Type=search", "url2": "http://www.f-wajirohp.jp/" }, "geometry": { "type": "Point", "coordinates": [ 130.43335639999998, 33.6921715 ] } },
{ "type": "Feature", "properties": { "内容": "社会医療法人財団池友会　香椎丘リハビリテーション病院【訪問リハビリテーション】福岡市東区下原2丁目24番36号", "url": "https://www.kaigokensaku.mhlw.go.jp/40/index.php?action_kouhyou_detail_004_kani=true&JigyosyoCd=4010210336-00&ServiceCd=140&Type=search", "url2": "http://www.kashii-rh.net" }, "geometry": { "type": "Point", "coordinates": [ 130.4599998, 33.6708303 ] } },
{ "type": "Feature", "properties": { "内容": "たたらリハビリテーション病院　訪問リハビリテーション【訪問リハビリテーション】福岡市東区八田1-4-66", "url": "https://www.kaigokensaku.mhlw.go.jp/40/index.php?action_kouhyou_detail_004_kani=true&JigyosyoCd=4010210393-00&ServiceCd=140&Type=search", "url2": "http://tatara-reha.jp" }, "geometry": { "type": "Point", "coordinates": [ 130.456461276057439, 33.633403795859678 ] } },
{ "type": "Feature", "properties": { "内容": "福岡輝栄会病院【訪問リハビリテーション】福岡県福岡市東区千早4丁目14－40", "url": "https://www.kaigokensaku.mhlw.go.jp/40/index.php?action_kouhyou_detail_004_kani=true&JigyosyoCd=4010211698-00&ServiceCd=140&Type=search", "url2": "http://www.kieikai.ne.jp" }, "geometry": { "type": "Point", "coordinates": [ 130.437303174868816, 33.647690356712175 ] } },
{ "type": "Feature", "properties": { "内容": "医療法人髙原医院　タカハラ整形外科クリニック【訪問リハビリテーション】香椎浜3丁目2-4-202", "url": "https://www.kaigokensaku.mhlw.go.jp/40/index.php?action_kouhyou_detail_004_kani=true&JigyosyoCd=4010212233-00&ServiceCd=140&Type=search", "url2": "http://takahara-clinic.com" }, "geometry": { "type": "Point", "coordinates": [ 130.427609682139519, 33.656822120675685 ] } },
{ "type": "Feature", "properties": { "内容": "まつもと整形外科クリニック【訪問リハビリテーション】福岡市東区和白３丁目２７−６４", "url": "https://www.kaigokensaku.mhlw.go.jp/40/index.php?action_kouhyou_detail_004_kani=true&JigyosyoCd=4010212753-00&ServiceCd=140&Type=search", "url2": null }, "geometry": { "type": "Point", "coordinates": [ 130.4312186, 33.6907416 ] } },
{ "type": "Feature", "properties": { "内容": "香椎原病院【訪問リハビリテーション】福岡県福岡市東区香椎3丁目3番1号", "url": "https://www.kaigokensaku.mhlw.go.jp/40/index.php?action_kouhyou_detail_004_kani=true&JigyosyoCd=4010319061-00&ServiceCd=140&Type=search", "url2": "http://www.kashiihara.or.jp/" }, "geometry": { "type": "Point", "coordinates": [ 130.450890100000038, 33.657153800000017 ] } },
{ "type": "Feature", "properties": { "内容": "社会医療法人原土井病院訪問リハビリテーション【訪問リハビリテーション】福岡県福岡市東区青葉6丁目40番8号", "url": "https://www.kaigokensaku.mhlw.go.jp/40/index.php?action_kouhyou_detail_004_kani=true&JigyosyoCd=4010319251-00&ServiceCd=140&Type=search", "url2": "http://www.haradoi-hospital.com/" }, "geometry": { "type": "Point", "coordinates": [ 130.468775599999958, 33.64445 ] } },
{ "type": "Feature", "properties": { "内容": "千鳥橋病院附属城浜診療所【訪問リハビリテーション】福岡市東区千早1-6-8", "url": "https://www.kaigokensaku.mhlw.go.jp/40/index.php?action_kouhyou_detail_004_kani=true&JigyosyoCd=4010319376-00&ServiceCd=140&Type=search", "url2": "http://www.sfid.jp/shinryosho/shirohama" }, "geometry": { "type": "Point", "coordinates": [ 130.427172599999949, 33.6481736 ] } },
{ "type": "Feature", "properties": { "内容": "医療法人　和仁会　東福岡和仁会病院【訪問リハビリテーション】福岡県福岡市東区奈多1丁目4-1", "url": "https://www.kaigokensaku.mhlw.go.jp/40/index.php?action_kouhyou_detail_004_kani=true&JigyosyoCd=4010319582-00&ServiceCd=140&Type=search", "url2": "http://higashifukuoka-wajinkai.jp" }, "geometry": { "type": "Point", "coordinates": [ 130.4192271, 33.6914117 ] } },
{ "type": "Feature", "properties": { "内容": "かもりクリニック　訪問リハビリテーション【訪問リハビリテーション】福岡県福岡市東区舞松原1-11-11かもりクリニック　デイケア", "url": "https://www.kaigokensaku.mhlw.go.jp/40/index.php?action_kouhyou_detail_004_kani=true&JigyosyoCd=4010319608-00&ServiceCd=140&Type=search", "url2": "http://kamori-clinic.com/" }, "geometry": { "type": "Point", "coordinates": [ 130.449462422090136, 33.640056306025379 ] } },
{ "type": "Feature", "properties": { "内容": "M．Ｔ奈多ケア院　訪問リハビリステーション【訪問リハビリテーション】福岡県福岡市東区雁の巣1-7-30Ｍ．Ｔ奈多ケア院", "url": "https://www.kaigokensaku.mhlw.go.jp/40/index.php?action_kouhyou_detail_004_kani=true&JigyosyoCd=4050380064-00&ServiceCd=140&Type=search", "url2": null }, "geometry": { "type": "Point", "coordinates": [ 130.408477599999969, 33.6881268 ] } },
{ "type": "Feature", "properties": { "内容": "貝塚病院【訪問リハビリテーション】福岡県福岡市東区箱崎7丁目7-27貝塚病院", "url": "https://www.kaigokensaku.mhlw.go.jp/40/index.php?action_kouhyou_detail_004_kani=true&JigyosyoCd=4010318618-00&ServiceCd=140&Type=search", "url2": "http://kaizuka-hosp.or.jp/" }, "geometry": { "type": "Point", "coordinates": [ 130.4249297, 33.635941799999983 ] } },
{ "type": "Feature", "properties": { "内容": "金隈病院【訪問リハビリテーション】福岡市博多区金の隈３丁目２４－１６", "url": "https://www.kaigokensaku.mhlw.go.jp/40/index.php?action_kouhyou_detail_004_kani=true&JigyosyoCd=4010211615-00&ServiceCd=140&Type=search", "url2": "http:www.kanenokuma.jp/" }, "geometry": { "type": "Point", "coordinates": [ 130.481182399999966, 33.5564769 ] } },
{ "type": "Feature", "properties": { "内容": "まつふじいいん【訪問リハビリテーション】福岡市博多区美野島2丁目26-3", "url": "https://www.kaigokensaku.mhlw.go.jp/40/index.php?action_kouhyou_detail_004_kani=true&JigyosyoCd=4010212191-00&ServiceCd=140&Type=search", "url2": null }, "geometry": { "type": "Point", "coordinates": [ 130.415909100000022, 33.5790421 ] } },
{ "type": "Feature", "properties": { "内容": "医療法人徳隣会つつみクリニック福岡訪問リハビリテーション【訪問リハビリテーション】福岡県福岡市博多区店屋町1番31号1F,2F", "url": "https://www.kaigokensaku.mhlw.go.jp/40/index.php?action_kouhyou_detail_004_kani=true&JigyosyoCd=4010213793-00&ServiceCd=140&Type=search", "url2": "http://tsutsumiclinic.net/" }, "geometry": { "type": "Point", "coordinates": [ 130.410824425836097, 33.59649673217632 ] } },
{ "type": "Feature", "properties": { "内容": "医療法人　相生会　新吉塚病院　訪問リハビリテーション【訪問リハビリテーション】福岡県福岡市博多区吉塚7丁目6番29号新吉塚病院", "url": "https://www.kaigokensaku.mhlw.go.jp/40/index.php?action_kouhyou_detail_004_kani=true&JigyosyoCd=4010213876-00&ServiceCd=140&Type=search", "url2": "http://www.lta-yoshizuka-g.jp/" }, "geometry": { "type": "Point", "coordinates": [ 130.431101500000011, 33.6090786 ] } },
{ "type": "Feature", "properties": { "内容": "ちどりばし在宅診療所【訪問リハビリテーション】千代5丁目16-1", "url": "https://www.kaigokensaku.mhlw.go.jp/40/index.php?action_kouhyou_detail_004_kani=true&JigyosyoCd=4010214874-00&ServiceCd=140&Type=search", "url2": "https://www.chidori-homecare.com/" }, "geometry": { "type": "Point", "coordinates": [ 130.4128475, 33.6076274 ] } },
{ "type": "Feature", "properties": { "内容": "医療法人ながら医院　訪問リハビリテーション【訪問リハビリテーション】福岡県福岡市博多区東比恵三丁目20番1号", "url": "https://www.kaigokensaku.mhlw.go.jp/40/index.php?action_kouhyou_detail_004_kani=true&JigyosyoCd=4010317446-00&ServiceCd=140&Type=search", "url2": "http://nagara-clinic.jp" }, "geometry": { "type": "Point", "coordinates": [ 130.432654899999989, 33.5884859 ] } },
{ "type": "Feature", "properties": { "内容": "医療法人友愛会　友田病院【訪問リハビリテーション】福岡県福岡市博多区諸岡4丁目２８番２４号", "url": "https://www.kaigokensaku.mhlw.go.jp/40/index.php?action_kouhyou_detail_004_kani=true&JigyosyoCd=4010317537-00&ServiceCd=140&Type=search", "url2": "http://yuaikai-tomoda.or.jp/" }, "geometry": { "type": "Point", "coordinates": [ 130.4473869, 33.5585627 ] } },
{ "type": "Feature", "properties": { "内容": "公益社団法人　福岡医療団　千代診療所【訪問リハビリテーション】千代5丁目11-38", "url": "https://www.kaigokensaku.mhlw.go.jp/40/index.php?action_kouhyou_detail_004_kani=true&JigyosyoCd=4010318188-00&ServiceCd=140&Type=search", "url2": "https://chiyoshin.com/" }, "geometry": { "type": "Point", "coordinates": [ 130.411483014155579, 33.607757506381105 ] } },
{ "type": "Feature", "properties": { "内容": "公益社団法人福岡医療団　千鳥橋病院【訪問リハビリテーション】福岡市博多区千代５－１８－１", "url": "https://www.kaigokensaku.mhlw.go.jp/40/index.php?action_kouhyou_detail_004_kani=true&JigyosyoCd=4010319269-00&ServiceCd=140&Type=search", "url2": "http://www.chidoribashi-hp.or.jp/" }, "geometry": { "type": "Point", "coordinates": [ 130.412225300000046, 33.608253 ] } },
{ "type": "Feature", "properties": { "内容": "社会医療法人社団　至誠会　木村病院　訪問リハビリ【訪問リハビリテーション】福岡市博多区千代２丁目１３番１９号木村病院", "url": "https://www.kaigokensaku.mhlw.go.jp/40/index.php?action_kouhyou_detail_004_kani=true&JigyosyoCd=4010319491-00&ServiceCd=140&Type=search", "url2": "http://www.kimura-hosp.or.jp" }, "geometry": { "type": "Point", "coordinates": [ 130.4149423, 33.6009056 ] } },
{ "type": "Feature", "properties": { "内容": "柏愛会訪問リハビリテーション【訪問リハビリテーション】福岡県福岡市博多区東月隈4丁目1番20号", "url": "https://www.kaigokensaku.mhlw.go.jp/40/index.php?action_kouhyou_detail_004_kani=true&JigyosyoCd=4010319863-00&ServiceCd=140&Type=search", "url2": "https://www.h-ortho.jp/medical2-2.html" }, "geometry": { "type": "Point", "coordinates": [ 130.4717526, 33.5787883 ] } },
{ "type": "Feature", "properties": { "内容": "さく病院【訪問リハビリテーション】福岡市博多区竹下4丁目6番25号", "url": "https://www.kaigokensaku.mhlw.go.jp/40/index.php?action_kouhyou_detail_004_kani=true&JigyosyoCd=4010319145-00&ServiceCd=140&Type=search", "url2": "http://www.saku.or.jp" }, "geometry": { "type": "Point", "coordinates": [ 130.4325217, 33.5692646 ] } },
{ "type": "Feature", "properties": { "内容": "くまクリニック　訪問リハビリテーション【訪問リハビリテーション】福岡県福岡市博多区銀天町2-2-3くまクリニック", "url": "https://www.kaigokensaku.mhlw.go.jp/40/index.php?action_kouhyou_detail_004_kani=true&JigyosyoCd=4010319830-00&ServiceCd=140&Type=search", "url2": null }, "geometry": { "type": "Point", "coordinates": [ 130.463103499999988, 33.5449778 ] } },
{ "type": "Feature", "properties": { "内容": "医療法人福岡桜十字　桜十字福岡病院　訪問リハビリテーション【訪問リハビリテーション】福岡県福岡市中央区渡辺通３－５－１１", "url": "https://www.kaigokensaku.mhlw.go.jp/40/index.php?action_kouhyou_detail_004_kani=true&JigyosyoCd=4011022235-00&ServiceCd=140&Type=search", "url2": "http://www.sj-fukuoka.or.jp/" }, "geometry": { "type": "Point", "coordinates": [ 130.4045542, 33.5852358 ] } },
{ "type": "Feature", "properties": { "内容": "桜十字大手門病院　訪問リハビリテーション【訪問リハビリテーション】福岡県福岡市中央区大手門3丁目15-1", "url": "https://www.kaigokensaku.mhlw.go.jp/40/index.php?action_kouhyou_detail_004_kani=true&JigyosyoCd=4011025303-00&ServiceCd=140&Type=search", "url2": "https://www.sj-otemon.jp" }, "geometry": { "type": "Point", "coordinates": [ 130.382427139571178, 33.591695698332899 ] } },
{ "type": "Feature", "properties": { "内容": "博愛訪問リハステーションささおか【訪問リハビリテーション】福岡県福岡市中央区笹丘１丁目２８番１５号ピアステージ笹丘２階", "url": "https://www.kaigokensaku.mhlw.go.jp/40/index.php?action_kouhyou_detail_004_kani=true&JigyosyoCd=4011119932-00&ServiceCd=140&Type=search", "url2": "http://www.hakuaikai.or.jp" }, "geometry": { "type": "Point", "coordinates": [ 130.377856599999973, 33.5643378 ] } },
{ "type": "Feature", "properties": { "内容": "百年橋リハビリテーション病院訪問リハビリテーション【訪問リハビリテーション】福岡県福岡市中央区清川3丁目17番11号", "url": "https://www.kaigokensaku.mhlw.go.jp/40/index.php?action_kouhyou_detail_004_kani=true&JigyosyoCd=4011023365-00&ServiceCd=140&Type=search", "url2": "https://h.seisyukai.jp/" }, "geometry": { "type": "Point", "coordinates": [ 130.412504776721221, 33.576670138692705 ] } },
{ "type": "Feature", "properties": { "内容": "訪問リハひのき【訪問リハビリテーション】福岡市南区桧原6-44-20", "url": "https://www.kaigokensaku.mhlw.go.jp/40/index.php?action_kouhyou_detail_004_kani=true&JigyosyoCd=4071102414-00&ServiceCd=140&Type=search", "url2": "http://hinoki-kai.com/" }, "geometry": { "type": "Point", "coordinates": [ 130.384430100000031, 33.5283057 ] } },
{ "type": "Feature", "properties": { "内容": "医療法人　南島整形外科【訪問リハビリテーション】福岡市南区警弥郷３－２－３", "url": "https://www.kaigokensaku.mhlw.go.jp/40/index.php?action_kouhyou_detail_004_kani=true&JigyosyoCd=4011213487-00&ServiceCd=140&Type=search", "url2": "http://najima-orthopedie.com/" }, "geometry": { "type": "Point", "coordinates": [ 130.431931299999974, 33.5318366 ] } },
{ "type": "Feature", "properties": { "内容": "福岡信和病院訪問リハビリテーション【訪問リハビリテーション】福岡県福岡市南区皿山2丁目1番53号", "url": "https://www.kaigokensaku.mhlw.go.jp/40/index.php?action_kouhyou_detail_004_kani=true&JigyosyoCd=4011214253-00&ServiceCd=140&Type=search", "url2": "http://www.f-shinwa.jp" }, "geometry": { "type": "Point", "coordinates": [ 130.4050499, 33.5472624 ] } },
{ "type": "Feature", "properties": { "内容": "千鳥橋病院附属大楠診療所【訪問リハビリテーション】福岡県福岡市南区大楠1-17-7", "url": "https://www.kaigokensaku.mhlw.go.jp/40/index.php?action_kouhyou_detail_004_kani=true&JigyosyoCd=4011219120-00&ServiceCd=140&Type=search", "url2": "http://www.sfid.jp/" }, "geometry": { "type": "Point", "coordinates": [ 130.416414700000018, 33.573126 ] } },
{ "type": "Feature", "properties": { "内容": "原病院【訪問リハビリテーション】福岡県福岡市南区若久2-6-1", "url": "https://www.kaigokensaku.mhlw.go.jp/40/index.php?action_kouhyou_detail_004_kani=true&JigyosyoCd=4011219229-00&ServiceCd=140&Type=search", "url2": "http://www.hara-hospital.com" }, "geometry": { "type": "Point", "coordinates": [ 130.417618100000027, 33.5538866 ] } },
{ "type": "Feature", "properties": { "内容": "夫婦石病院　訪問リハビリテーション【訪問リハビリテーション】福岡県福岡市南区大字桧原853-9夫婦石病院", "url": "https://www.kaigokensaku.mhlw.go.jp/40/index.php?action_kouhyou_detail_004_kani=true&JigyosyoCd=4011219443-00&ServiceCd=140&Type=search", "url2": "http://www.meotoiwa.com/" }, "geometry": { "type": "Point", "coordinates": [ 130.379933299999948, 33.523217100000025 ] } },
{ "type": "Feature", "properties": { "内容": "南折立病院　訪問リハビリテーション【訪問リハビリテーション】福岡県福岡市南区横手1丁目14-1", "url": "https://www.kaigokensaku.mhlw.go.jp/40/index.php?action_kouhyou_detail_004_kani=true&JigyosyoCd=4011219641-00&ServiceCd=140&Type=search", "url2": null }, "geometry": { "type": "Point", "coordinates": [ 130.437666, 33.5510168 ] } },
{ "type": "Feature", "properties": { "内容": "医療法人　石井リハビリクリニック　訪問リハビリ　ラシクアーレ【訪問リハビリテーション】福岡県福岡市南区三宅1丁目25-13", "url": "https://www.kaigokensaku.mhlw.go.jp/40/index.php?action_kouhyou_detail_004_kani=true&JigyosyoCd=4011214154-00&ServiceCd=140&Type=search", "url2": "http://ishii-riha.com/" }, "geometry": { "type": "Point", "coordinates": [ 130.423831599999971, 33.5499149 ] } },
{ "type": "Feature", "properties": { "内容": "社会医療法人喜悦会　那珂川病院【訪問リハビリテーション】福岡県福岡市南区向新町２丁目１７番１７号", "url": "https://www.kaigokensaku.mhlw.go.jp/40/index.php?action_kouhyou_detail_004_kani=true&JigyosyoCd=4011219138-00&ServiceCd=140&Type=search", "url2": "http://www.nakagawa-hp.com/" }, "geometry": { "type": "Point", "coordinates": [ 130.427926, 33.5391774 ] } },
{ "type": "Feature", "properties": { "内容": "訪問リハひのき【訪問リハビリテーション】福岡県福岡市南区桧原６丁目４４番２０号介護老人保健施設ひのき", "url": "https://www.kaigokensaku.mhlw.go.jp/40/index.php?action_kouhyou_detail_004_kani=true&JigyosyoCd=4051280099-00&ServiceCd=140&Type=search", "url2": null }, "geometry": { "type": "Point", "coordinates": [ 130.38457, 33.5282765 ] } },
{ "type": "Feature", "properties": { "内容": "タケシマ整形外科医院　訪問リハビリテーション事業所【訪問リハビリテーション】福岡県福岡市西区野方1-16-26", "url": "https://www.kaigokensaku.mhlw.go.jp/40/index.php?action_kouhyou_detail_004_kani=true&JigyosyoCd=4011118181-00&ServiceCd=140&Type=search", "url2": "http://takeshima-seikei.jp" }, "geometry": { "type": "Point", "coordinates": [ 130.3118644, 33.5577269 ] } },
{ "type": "Feature", "properties": { "内容": "医療法人輝松会松尾内科病院【訪問リハビリテーション】福岡県福岡市西区下山門団地40番5号", "url": "https://www.kaigokensaku.mhlw.go.jp/40/index.php?action_kouhyou_detail_004_kani=true&JigyosyoCd=4011010024-00&ServiceCd=140&Type=search", "url2": "https://matsuohosp.kisyoukai.jp/" }, "geometry": { "type": "Point", "coordinates": [ 130.305584, 33.5777007 ] } },
{ "type": "Feature", "properties": { "内容": "医療法人財団華林会村上華林堂病院訪問リハビリテーション【訪問リハビリテーション】福岡県福岡市西区戸切2-14-45", "url": "https://www.kaigokensaku.mhlw.go.jp/40/index.php?action_kouhyou_detail_004_kani=true&JigyosyoCd=4011012178-00&ServiceCd=140&Type=search", "url2": "http://www.karindoh.or.jp/" }, "geometry": { "type": "Point", "coordinates": [ 130.315536400000042, 33.5541855 ] } },
{ "type": "Feature", "properties": { "内容": "医療法人ふかほり整形外科クリニック【訪問リハビリテーション】福岡県福岡市西区拾六町5-16-11", "url": "https://www.kaigokensaku.mhlw.go.jp/40/index.php?action_kouhyou_detail_004_kani=true&JigyosyoCd=4011019306-00&ServiceCd=140&Type=search", "url2": "http://fukahoriseikei.sakura.ne.jp" }, "geometry": { "type": "Point", "coordinates": [ 130.309142100000031, 33.5697315 ] } },
{ "type": "Feature", "properties": { "内容": "医療法人徳隣会つつみクリニック福岡西訪問リハビリテーション【訪問リハビリテーション】福岡県福岡市西区大字飯氏940-1", "url": "https://www.kaigokensaku.mhlw.go.jp/40/index.php?action_kouhyou_detail_004_kani=true&JigyosyoCd=4011025345-00&ServiceCd=140&Type=search", "url2": "https://tsutsumiclinic.net/" }, "geometry": { "type": "Point", "coordinates": [ 130.2419117, 33.5678441 ] } },
{ "type": "Feature", "properties": { "内容": "福岡ハートネット病院　さわら訪問リハビリテーション【訪問リハビリテーション】福岡県福岡市西区姪の浜2-2-50", "url": "https://www.kaigokensaku.mhlw.go.jp/40/index.php?action_kouhyou_detail_004_kani=true&JigyosyoCd=4011025824-00&ServiceCd=140&Type=search", "url2": "https://heartnet-hp.jp" }, "geometry": { "type": "Point", "coordinates": [ 130.3317046, 33.587169 ] } },
{ "type": "Feature", "properties": { "内容": "医療法人　西福岡病院　訪問リハビリテーション【訪問リハビリテーション】福岡県福岡市西区生の松原３丁目１８番８号", "url": "https://www.kaigokensaku.mhlw.go.jp/40/index.php?action_kouhyou_detail_004_kani=true&JigyosyoCd=4011119056-00&ServiceCd=140&Type=search", "url2": "http://www.nishifukuhp.or.jp" }, "geometry": { "type": "Point", "coordinates": [ 130.296751399999948, 33.577261 ] } },
{ "type": "Feature", "properties": { "内容": "医療法人和仁会　福岡和仁会病院【訪問リハビリテーション】福岡県福岡市西区生の松原1丁目33番18号", "url": "https://www.kaigokensaku.mhlw.go.jp/40/index.php?action_kouhyou_detail_004_kani=true&JigyosyoCd=4011119684-00&ServiceCd=140&Type=search", "url2": "http://fukuoka-wajinkai-hp.or.jp/" }, "geometry": { "type": "Point", "coordinates": [ 130.29511530000002, 33.5798246 ] } },
{ "type": "Feature", "properties": { "内容": "医療法人　博仁会　福岡リハビリテーション病院　訪問リハビリテーション【訪問リハビリテーション】福岡市西区野方７丁目７７０番地", "url": "https://www.kaigokensaku.mhlw.go.jp/40/index.php?action_kouhyou_detail_004_kani=true&JigyosyoCd=4011119767-00&ServiceCd=140&Type=search", "url2": "http://frh.or.jp" }, "geometry": { "type": "Point", "coordinates": [ 130.303258925795035, 33.5578224333414 ] } },
{ "type": "Feature", "properties": { "内容": "社会医療法人財団白十字会白十字リハビリテーション病院　訪問リハビリテーション【訪問リハビリテーション】福岡県福岡市西区石丸3-3-9", "url": "https://www.kaigokensaku.mhlw.go.jp/40/index.php?action_kouhyou_detail_004_kani=true&JigyosyoCd=4011119817-00&ServiceCd=140&Type=search", "url2": "https://www.fukuoka.hakujyujikai.or.jp/" }, "geometry": { "type": "Point", "coordinates": [ 130.315410696295203, 33.57406444926135 ] } },
{ "type": "Feature", "properties": { "内容": "シーサイド病院訪問リハビリテーションセンター【訪問リハビリテーション】福岡県福岡市西区今津3810番地", "url": "https://www.kaigokensaku.mhlw.go.jp/40/index.php?action_kouhyou_detail_004_kani=true&JigyosyoCd=4011129808-00&ServiceCd=140&Type=search", "url2": "https://www.seaside-hp.or.jp/introduction/rihabiri.html#a1" }, "geometry": { "type": "Point", "coordinates": [ 130.229509199999939, 33.6117854 ] } },
{ "type": "Feature", "properties": { "内容": "介護老人保健施設　松寿苑　訪問リハビリテーション【訪問リハビリテーション】福岡県福岡市西区今宿町379-1", "url": "https://www.kaigokensaku.mhlw.go.jp/40/index.php?action_kouhyou_detail_004_kani=true&JigyosyoCd=4051180083-00&ServiceCd=140&Type=search", "url2": "http://www.kisyoukai.jp" }, "geometry": { "type": "Point", "coordinates": [ 130.268818649073751, 33.572241926531561 ] } },
{ "type": "Feature", "properties": { "内容": "公益社団法人福岡医療団　千鳥橋病院附属新室見診療所【訪問リハビリテーション】福岡県福岡市西区福重5丁目1-27", "url": "https://www.kaigokensaku.mhlw.go.jp/40/index.php?action_kouhyou_detail_004_kani=true&JigyosyoCd=4011119791-00&ServiceCd=140&Type=search", "url2": "http://www.sfid.jp/shinryosho/shinmuromi/" }, "geometry": { "type": "Point", "coordinates": [ 130.324482399999965, 33.5738231 ] } },
{ "type": "Feature", "properties": { "内容": "とりかい介護老人保健施設訪問リハビリテーション【訪問リハビリテーション】鳥飼6-3-7", "url": "https://www.kaigokensaku.mhlw.go.jp/40/index.php?action_kouhyou_detail_004_kani=true&JigyosyoCd=4051180158-00&ServiceCd=140&Type=search", "url2": "http://kouikai.jp/roken/" }, "geometry": { "type": "Point", "coordinates": [ 130.367441800000051, 33.5754924 ] } },
{ "type": "Feature", "properties": { "内容": "佐田整形外科病院【訪問リハビリテーション】福岡県福岡市城南区神松寺2-19-2", "url": "https://www.kaigokensaku.mhlw.go.jp/40/index.php?action_kouhyou_detail_004_kani=true&JigyosyoCd=4011010404-00&ServiceCd=140&Type=search", "url2": "http://www.sata-sports.or.jp/" }, "geometry": { "type": "Point", "coordinates": [ 130.375311399999987, 33.5530556 ] } },
{ "type": "Feature", "properties": { "内容": "原クリニック【訪問リハビリテーション】福岡市城南区梅林4丁目21-23", "url": "https://www.kaigokensaku.mhlw.go.jp/40/index.php?action_kouhyou_detail_004_kani=true&JigyosyoCd=4011018050-00&ServiceCd=140&Type=search", "url2": "https://fukuoka-haraclinic.jp/" }, "geometry": { "type": "Point", "coordinates": [ 130.353237121304801, 33.545207797951328 ] } },
{ "type": "Feature", "properties": { "内容": "医療法人社団江頭会さくら病院【訪問リハビリテーション】福岡県福岡市城南区南片江6丁目2-32", "url": "https://www.kaigokensaku.mhlw.go.jp/40/index.php?action_kouhyou_detail_004_kani=true&JigyosyoCd=4011118751-00&ServiceCd=140&Type=search", "url2": "http://www.sakurahp.or.jp/" }, "geometry": { "type": "Point", "coordinates": [ 130.370269099999973, 33.546900700000016 ] } },
{ "type": "Feature", "properties": { "内容": "長尾病院【訪問リハビリテーション】福岡県福岡市城南区樋井川3丁目47－1", "url": "https://www.kaigokensaku.mhlw.go.jp/40/index.php?action_kouhyou_detail_004_kani=true&JigyosyoCd=4011119239-00&ServiceCd=140&Type=search", "url2": "http://www.nagao.or.jp" }, "geometry": { "type": "Point", "coordinates": [ 130.38791249999997, 33.5441849 ] } },
{ "type": "Feature", "properties": { "内容": "介護老人保健施設　さわら老健センター　訪問リハビリテーション【訪問リハビリテーション】福岡県福岡市早良区早良1-1-60", "url": "https://www.kaigokensaku.mhlw.go.jp/40/index.php?action_kouhyou_detail_004_kani=true&JigyosyoCd=4051180075-00&ServiceCd=140&Type=search", "url2": "http://www.fukuseikai.com/sub5.htm" }, "geometry": { "type": "Point", "coordinates": [ 130.337036300000022, 33.5084341 ] } },
{ "type": "Feature", "properties": { "内容": "医療法人にのさかクリニック【訪問リハビリテーション】福岡県福岡市早良区野芥4-19-34", "url": "https://www.kaigokensaku.mhlw.go.jp/40/index.php?action_kouhyou_detail_004_kani=true&JigyosyoCd=4011019579-00&ServiceCd=140&Type=search", "url2": "http://www.drnino.jp/" }, "geometry": { "type": "Point", "coordinates": [ 130.3457737, 33.5402064 ] } },
{ "type": "Feature", "properties": { "内容": "医療法人　そうゆう会【訪問リハビリテーション】福岡県福岡市早良区四箇1丁目6番1号", "url": "https://www.kaigokensaku.mhlw.go.jp/40/index.php?action_kouhyou_detail_004_kani=true&JigyosyoCd=4011010420-00&ServiceCd=140&Type=search", "url2": "https://kamura-oc.com/" }, "geometry": { "type": "Point", "coordinates": [ 130.32498350000003, 33.5332398 ] } },
{ "type": "Feature", "properties": { "内容": "案浦クリニック【訪問リハビリテーション】原5-22-13", "url": "https://www.kaigokensaku.mhlw.go.jp/40/index.php?action_kouhyou_detail_004_kani=true&JigyosyoCd=4011011527-00&ServiceCd=140&Type=search", "url2": "http://www.annoura-clinic.com" }, "geometry": { "type": "Point", "coordinates": [ 130.34112319999997, 33.5668955 ] } },
{ "type": "Feature", "properties": { "内容": "医療法人健貢会中山整形外科医院【訪問リハビリテーション】福岡県福岡市早良区梅林　６－１０－３", "url": "https://www.kaigokensaku.mhlw.go.jp/40/index.php?action_kouhyou_detail_004_kani=true&JigyosyoCd=4011012418-00&ServiceCd=140&Type=search", "url2": "https://www.nakayama-seikei.net" }, "geometry": { "type": "Point", "coordinates": [ 130.3484929, 33.5432478 ] } },
{ "type": "Feature", "properties": { "内容": "黒田整形外科医院【訪問リハビリテーション】福岡県福岡市早良区次郎丸5丁目7番9号", "url": "https://www.kaigokensaku.mhlw.go.jp/40/index.php?action_kouhyou_detail_004_kani=true&JigyosyoCd=4011019355-00&ServiceCd=140&Type=search", "url2": "http://www.kousei-kai.org/kurodaseikei/" }, "geometry": { "type": "Point", "coordinates": [ 130.33317969999996, 33.5512303 ] } },
{ "type": "Feature", "properties": { "内容": "ふじもとクリニック　訪問リハビリテーション【訪問リハビリテーション】福岡県福岡市早良区昭代3-5-20", "url": "https://www.kaigokensaku.mhlw.go.jp/40/index.php?action_kouhyou_detail_004_kani=true&JigyosyoCd=4011025246-00&ServiceCd=140&Type=search", "url2": "http://clinic-fujimoto.jp" }, "geometry": { "type": "Point", "coordinates": [ 130.3505463, 33.5760673 ] } },
{ "type": "Feature", "properties": { "内容": "医療法人健和会　おばた内科訪問リハビリテーションセンター【訪問リハビリテーション】田村5丁目16-38", "url": "https://www.kaigokensaku.mhlw.go.jp/40/index.php?action_kouhyou_detail_004_kani=true&JigyosyoCd=4011026269-00&ServiceCd=140&Type=search", "url2": "https://obata-naika.jp/" }, "geometry": { "type": "Point", "coordinates": [ 130.33384860000001, 33.5372142 ] } },
{ "type": "Feature", "properties": { "内容": "医療法人研和会北島内科医院【訪問リハビリテーション】福岡市早良区原１丁目6－5", "url": "https://www.kaigokensaku.mhlw.go.jp/40/index.php?action_kouhyou_detail_004_kani=true&JigyosyoCd=4011118231-00&ServiceCd=140&Type=search", "url2": "https://www.kitajimanaika.com" }, "geometry": { "type": "Point", "coordinates": [ 130.350386399999934, 33.5732446 ] } },
{ "type": "Feature", "properties": { "内容": "牟田病院【訪問リハビリテーション】福岡市早良区干隈3-9-1", "url": "https://www.kaigokensaku.mhlw.go.jp/40/index.php?action_kouhyou_detail_004_kani=true&JigyosyoCd=4011118819-00&ServiceCd=140&Type=search", "url2": "https://seiwakai-hp.jp" }, "geometry": { "type": "Point", "coordinates": [ 130.349587, 33.5536578 ] } },
{ "type": "Feature", "properties": { "内容": "医療法人楽天堂広橋病院【訪問リハビリテーション】福岡県福岡市早良区東入部６丁目２０番５６号", "url": "https://www.kaigokensaku.mhlw.go.jp/40/index.php?action_kouhyou_detail_004_kani=true&JigyosyoCd=4011119551-00&ServiceCd=140&Type=search", "url2": null }, "geometry": { "type": "Point", "coordinates": [ 130.333311200000026, 33.518808 ] } },
{ "type": "Feature", "properties": { "内容": "介護老人保健施設　からざステーション【訪問リハビリテーション】福岡県福岡市早良区野芥5丁目6番38号", "url": "https://www.kaigokensaku.mhlw.go.jp/40/index.php?action_kouhyou_detail_004_kani=true&JigyosyoCd=4051180166-00&ServiceCd=140&Type=search", "url2": "http://www.minkodo.com" }, "geometry": { "type": "Point", "coordinates": [ 130.34829, 33.5390992 ] } },
{ "type": "Feature", "properties": { "内容": "大木整形・リハビリ医院　訪問リハビリテーション事業所【訪問リハビリテーション】福岡市早良区藤崎１－２１－１９", "url": "https://www.kaigokensaku.mhlw.go.jp/40/index.php?action_kouhyou_detail_004_kani=true&JigyosyoCd=4011118637-00&ServiceCd=140&Type=search", "url2": "http://ohki-clinic.jp/" }, "geometry": { "type": "Point", "coordinates": [ 130.34648089999996, 33.5794692 ] } },
{ "type": "Feature", "properties": { "内容": "福岡山王病院訪問リハビリテーション【訪問リハビリテーション】福岡県福岡市早良区百道浜3-6-45福岡山王病院3階リハビリテーションセンター", "url": "https://www.kaigokensaku.mhlw.go.jp/40/index.php?action_kouhyou_detail_004_kani=true&JigyosyoCd=4011015031-00&ServiceCd=140&Type=search", "url2": "https://f-sanno.kouhoukai.or.jp/" }, "geometry": { "type": "Point", "coordinates": [ 130.3501504, 33.5909643 ] } },
{ "type": "Feature", "properties": { "内容": "医療法人吉村病院訪問リハビリテーション【訪問リハビリテーション】福岡県福岡市早良区西新３丁目１１－２７", "url": "https://www.kaigokensaku.mhlw.go.jp/40/index.php?action_kouhyou_detail_004_kani=true&JigyosyoCd=4011025600-00&ServiceCd=140&Type=search", "url2": "https://www.hosp-yoshimura.com/" }, "geometry": { "type": "Point", "coordinates": [ 130.3576491, 33.5843326 ] } },
{ "type": "Feature", "properties": { "内容": "医療法人橘仁心会　たちばなクリニック【訪問リハビリテーション】福岡県大牟田市橘1365番地", "url": "https://www.kaigokensaku.mhlw.go.jp/40/index.php?action_kouhyou_detail_004_kani=true&JigyosyoCd=4014419628-00&ServiceCd=140&Type=search", "url2": "https://www.tachibana365.com/" }, "geometry": { "type": "Point", "coordinates": [ 130.479431660713203, 33.072390263348389 ] } },
{ "type": "Feature", "properties": { "内容": "兼行病院【訪問リハビリテーション】福岡県大牟田市歴木977番地4", "url": "https://www.kaigokensaku.mhlw.go.jp/40/index.php?action_kouhyou_detail_004_kani=true&JigyosyoCd=4014419768-00&ServiceCd=140&Type=search", "url2": "http://kenkougroup.or.jp/kaneyuki.html" }, "geometry": { "type": "Point", "coordinates": [ 130.466960928276421, 33.041304998057981 ] } },
{ "type": "Feature", "properties": { "内容": "福岡県済生会大牟田病院訪問リハビリテーションなでしこ【訪問リハビリテーション】福岡県大牟田市田隈８０８－１", "url": "https://www.kaigokensaku.mhlw.go.jp/40/index.php?action_kouhyou_detail_004_kani=true&JigyosyoCd=4014419164-00&ServiceCd=140&Type=search", "url2": "https://omuta-saiseikai.jp/" }, "geometry": { "type": "Point", "coordinates": [ 130.4661932, 33.0568006 ] } },
{ "type": "Feature", "properties": { "内容": "南大牟田病院訪問リハビリテーション事業所【訪問リハビリテーション】福岡県大牟田市臼井町２３番地の１", "url": "https://www.kaigokensaku.mhlw.go.jp/40/index.php?action_kouhyou_detail_004_kani=true&JigyosyoCd=4014419206-00&ServiceCd=140&Type=search", "url2": "http://www.zaidan-omtiryo.jp" }, "geometry": { "type": "Point", "coordinates": [ 130.460723199999961, 33.0059231 ] } },
{ "type": "Feature", "properties": { "内容": "訪問リハビリテーションはなぞの【訪問リハビリテーション】花園町64-5", "url": "https://www.kaigokensaku.mhlw.go.jp/40/index.php?action_kouhyou_detail_004_kani=true&JigyosyoCd=4054480126-00&ServiceCd=140&Type=search", "url2": "https://www.i-shinwa.com/hanazono/" }, "geometry": { "type": "Point", "coordinates": [ 130.450267, 33.020319 ] } },
{ "type": "Feature", "properties": { "内容": "くさかべ病院【訪問リハビリテーション】福岡県大牟田市大字吉野８５９", "url": "https://www.kaigokensaku.mhlw.go.jp/40/index.php?action_kouhyou_detail_004_kani=true&JigyosyoCd=4014419065-00&ServiceCd=140&Type=search", "url2": "http://soga-hospital.jp/" }, "geometry": { "type": "Point", "coordinates": [ 130.47920309999995, 33.0750553 ] } },
{ "type": "Feature", "properties": { "内容": "みさき病院【訪問リハビリテーション】福岡県大牟田市岬１２３０", "url": "https://www.kaigokensaku.mhlw.go.jp/40/index.php?action_kouhyou_detail_004_kani=true&JigyosyoCd=4014419123-00&ServiceCd=140&Type=search", "url2": "https://misaki-hp.jp/" }, "geometry": { "type": "Point", "coordinates": [ 130.441398916455341, 33.067712102019001 ] } },
{ "type": "Feature", "properties": { "内容": "訪問リハビリテーションらくら【訪問リハビリテーション】北野町今山516-1", "url": "https://www.kaigokensaku.mhlw.go.jp/40/index.php?action_kouhyou_detail_004_kani=true&JigyosyoCd=4012215739-00&ServiceCd=140&Type=search", "url2": "http://www.tanakamasaharu-clinic.jp/" }, "geometry": { "type": "Point", "coordinates": [ 130.5810305, 33.3437624 ] } },
{ "type": "Feature", "properties": { "内容": "医療法人矢野医院【訪問リハビリテーション】福岡県久留米市三潴町田川221-2", "url": "https://www.kaigokensaku.mhlw.go.jp/40/index.php?action_kouhyou_detail_004_kani=true&JigyosyoCd=4012710499-00&ServiceCd=140&Type=search", "url2": "https://yano-clinic.info/" }, "geometry": { "type": "Point", "coordinates": [ 130.470280699999989, 33.2560907 ] } },
{ "type": "Feature", "properties": { "内容": "富田病院訪問リハビリテーション【訪問リハビリテーション】福岡県久留米市城島町四郎丸261番地", "url": "https://www.kaigokensaku.mhlw.go.jp/40/index.php?action_kouhyou_detail_004_kani=true&JigyosyoCd=4012712743-00&ServiceCd=140&Type=search", "url2": "https://tomita-hp-johjima.jp/" }, "geometry": { "type": "Point", "coordinates": [ 130.4035536, 33.2435347 ] } },
{ "type": "Feature", "properties": { "内容": "医療法人　松風海　内藤病院【訪問リハビリテーション】福岡県久留米市西町1169番地1", "url": "https://www.kaigokensaku.mhlw.go.jp/40/index.php?action_kouhyou_detail_004_kani=true&JigyosyoCd=4012219780-00&ServiceCd=140&Type=search", "url2": "http://shoufukai.or.jp/" }, "geometry": { "type": "Point", "coordinates": [ 130.516311, 33.3091964 ] } },
{ "type": "Feature", "properties": { "内容": "介護老人保健施設　高良台【訪問リハビリテーション】久留米市荒木町荒木2020", "url": "https://www.kaigokensaku.mhlw.go.jp/40/index.php?action_kouhyou_detail_004_kani=true&JigyosyoCd=4052280072-00&ServiceCd=140&Type=search", "url2": "http://www.kyueikai.jp/" }, "geometry": { "type": "Point", "coordinates": [ 130.509517326459587, 33.263228495407049 ] } },
{ "type": "Feature", "properties": { "内容": "村岡外科訪問リハビリテーション【訪問リハビリテーション】福岡県久留米市東櫛原１３５６", "url": "https://www.kaigokensaku.mhlw.go.jp/40/index.php?action_kouhyou_detail_004_kani=true&JigyosyoCd=4012219582-00&ServiceCd=140&Type=search", "url2": null }, "geometry": { "type": "Point", "coordinates": [ 130.5146219, 33.3195905 ] } },
{ "type": "Feature", "properties": { "内容": "医療法人福岡桜十字　花畑病院【訪問リハビリテーション】福岡県久留米市西町914", "url": "https://www.kaigokensaku.mhlw.go.jp/40/index.php?action_kouhyou_detail_004_kani=true&JigyosyoCd=4012712354-00&ServiceCd=140&Type=search", "url2": "https://www.sj-hanabatake.jp/" }, "geometry": { "type": "Point", "coordinates": [ 130.5188545, 33.3047872 ] } },
{ "type": "Feature", "properties": { "内容": "医療法人淡河医院　訪問リハビリテーション暁【訪問リハビリテーション】福岡県久留米市安武町武島399番地", "url": "https://www.kaigokensaku.mhlw.go.jp/40/index.php?action_kouhyou_detail_004_kani=true&JigyosyoCd=4012711372-00&ServiceCd=140&Type=search", "url2": "https://ogou-care.jp/" }, "geometry": { "type": "Point", "coordinates": [ 130.477767300000011, 33.2967408 ] } },
{ "type": "Feature", "properties": { "内容": "医療法人　楠病院　訪問リハビリテーション【訪問リハビリテーション】福岡県久留米市日吉町115", "url": "https://www.kaigokensaku.mhlw.go.jp/40/index.php?action_kouhyou_detail_004_kani=true&JigyosyoCd=4012219228-00&ServiceCd=140&Type=search", "url2": "ｈttp：/www．kusu．or．jp" }, "geometry": { "type": "Point", "coordinates": [ 130.51631139999995, 33.315548 ] } },
{ "type": "Feature", "properties": { "内容": "医療法人　三井会　神代病院【訪問リハビリテーション】北野町中川900-1", "url": "https://www.kaigokensaku.mhlw.go.jp/40/index.php?action_kouhyou_detail_004_kani=true&JigyosyoCd=4012710291-00&ServiceCd=140&Type=search", "url2": null }, "geometry": { "type": "Point", "coordinates": [ 130.6255903, 33.3541746 ] } },
{ "type": "Feature", "properties": { "内容": "医療法人　かぶとやま会　久留米リハビリテーション病院　訪問リハビリテーション【訪問リハビリテーション】福岡県久留米市山本町豊田1887", "url": "https://www.kaigokensaku.mhlw.go.jp/40/index.php?action_kouhyou_detail_004_kani=true&JigyosyoCd=4012219103-00&ServiceCd=140&Type=search", "url2": "https://www.kurume-reha.or.jp" }, "geometry": { "type": "Point", "coordinates": [ 130.589970200000039, 33.3064023 ] } },
{ "type": "Feature", "properties": { "内容": "高良台リハビリテーション病院【訪問リハビリテーション】福岡県久留米市藤光町965-2", "url": "https://www.kaigokensaku.mhlw.go.jp/40/index.php?action_kouhyou_detail_004_kani=true&JigyosyoCd=4012219202-00&ServiceCd=140&Type=search", "url2": "www.kyueikai.jp/rehabili" }, "geometry": { "type": "Point", "coordinates": [ 130.5100989, 33.2632474 ] } },
{ "type": "Feature", "properties": { "内容": "安本病院【訪問リハビリテーション】福岡県久留米市三潴町玉満２３７１", "url": "https://www.kaigokensaku.mhlw.go.jp/40/index.php?action_kouhyou_detail_004_kani=true&JigyosyoCd=4012710465-00&ServiceCd=140&Type=search", "url2": "www.yasumoto.or.jp" }, "geometry": { "type": "Point", "coordinates": [ 130.460550799999965, 33.2482923 ] } },
{ "type": "Feature", "properties": { "内容": "三宮整形外科医院　訪問リハビリテーション【訪問リハビリテーション】福岡県久留米市諏訪野町1775-2", "url": "https://www.kaigokensaku.mhlw.go.jp/40/index.php?action_kouhyou_detail_004_kani=true&JigyosyoCd=4012711539-00&ServiceCd=140&Type=search", "url2": "http://sannomiya-seikei.com/" }, "geometry": { "type": "Point", "coordinates": [ 130.525073598883978, 33.301805051798183 ] } },
{ "type": "Feature", "properties": { "内容": "岡田脳神経外科医院【訪問リハビリテーション】福岡県久留米市太郎原町1515-1", "url": "https://www.kaigokensaku.mhlw.go.jp/40/index.php?action_kouhyou_detail_004_kani=true&JigyosyoCd=4012218063-00&ServiceCd=140&Type=search", "url2": "okada-nousinkeigeka.com" }, "geometry": { "type": "Point", "coordinates": [ 130.5862569, 33.3182651 ] } },
{ "type": "Feature", "properties": { "内容": "社会保険直方病院【訪問リハビリテーション】福岡県直方市須崎町1番1号", "url": "https://www.kaigokensaku.mhlw.go.jp/40/index.php?action_kouhyou_detail_004_kani=true&JigyosyoCd=4015419015-00&ServiceCd=140&Type=search", "url2": "https://nogata-hp.jp/" }, "geometry": { "type": "Point", "coordinates": [ 130.7255203, 33.7493008 ] } },
{ "type": "Feature", "properties": { "内容": "福岡県済生会飯塚嘉穂病院【訪問リハビリテーション】太郎丸265", "url": "https://www.kaigokensaku.mhlw.go.jp/40/index.php?action_kouhyou_detail_004_kani=true&JigyosyoCd=4015519616-00&ServiceCd=140&Type=search", "url2": "https://iizuka-kaho.jp/" }, "geometry": { "type": "Point", "coordinates": [ 130.6672785, 33.6013496 ] } },
{ "type": "Feature", "properties": { "内容": "医療法人社団親和会共立病院【訪問リハビリテーション】福岡県飯塚市横田770-3", "url": "https://www.kaigokensaku.mhlw.go.jp/40/index.php?action_kouhyou_detail_004_kani=true&JigyosyoCd=4015519186-00&ServiceCd=140&Type=search", "url2": "http://f-shinwakai.or.jp" }, "geometry": { "type": "Point", "coordinates": [ 130.668038199999955, 33.6493482 ] } },
{ "type": "Feature", "properties": { "内容": "児嶋病院【訪問リハビリテーション】福岡県飯塚市花瀬８７－１", "url": "https://www.kaigokensaku.mhlw.go.jp/40/index.php?action_kouhyou_detail_004_kani=true&JigyosyoCd=4015519541-00&ServiceCd=140&Type=search", "url2": "http://www.kojima-hospital.com" }, "geometry": { "type": "Point", "coordinates": [ 130.682767799999965, 33.6382444 ] } },
{ "type": "Feature", "properties": { "内容": "新飯塚診療所【訪問リハビリテーション】飯塚市柏の森946-6", "url": "https://www.kaigokensaku.mhlw.go.jp/40/index.php?action_kouhyou_detail_004_kani=true&JigyosyoCd=4015519590-00&ServiceCd=140&Type=search", "url2": "www.sfid.jp/shinryosho/shiniizuka/" }, "geometry": { "type": "Point", "coordinates": [ 130.69513603254083, 33.641650414501974 ] } },
{ "type": "Feature", "properties": { "内容": "頴田病院【訪問リハビリテーション】福岡県飯塚市口原１０６１番地１", "url": "https://www.kaigokensaku.mhlw.go.jp/40/index.php?action_kouhyou_detail_004_kani=true&JigyosyoCd=4015519681-00&ServiceCd=140&Type=search", "url2": "http://kaita-hospital.jp/" }, "geometry": { "type": "Point", "coordinates": [ 130.720515299999988, 33.6852283 ] } },
{ "type": "Feature", "properties": { "内容": "らそうむ内科笑顔で百歳クリニック【訪問リハビリテーション】福岡県飯塚市鯰田2219番地20", "url": "https://www.kaigokensaku.mhlw.go.jp/40/index.php?action_kouhyou_detail_004_kani=true&JigyosyoCd=4015512967-00&ServiceCd=140&Type=search", "url2": "https://rasoumu-cl.com/" }, "geometry": { "type": "Point", "coordinates": [ 130.695358457672114, 33.658919251142798 ] } },
{ "type": "Feature", "properties": { "内容": "柴田みえこ内科・神経内科クリニック【訪問リハビリテーション】福岡県飯塚市鶴三緒1547-10", "url": "https://www.kaigokensaku.mhlw.go.jp/40/index.php?action_kouhyou_detail_004_kani=true&JigyosyoCd=4015519798-00&ServiceCd=140&Type=search", "url2": "mieko-snc@mieko-neurologyclinic.com" }, "geometry": { "type": "Point", "coordinates": [ 130.700693300000012, 33.6238498 ] } },
{ "type": "Feature", "properties": { "内容": "田川診療所【訪問リハビリテーション】福岡県田川市新町11-46田川診療所", "url": "https://www.kaigokensaku.mhlw.go.jp/40/index.php?action_kouhyou_detail_004_kani=true&JigyosyoCd=4015619440-00&ServiceCd=140&Type=search", "url2": "https://www.sfid.jp/shinryosho/tagawa/" }, "geometry": { "type": "Point", "coordinates": [ 130.806335105557253, 33.643995080688285 ] } },
{ "type": "Feature", "properties": { "内容": "佐々木整形外科医院訪問リハビリテーション【訪問リハビリテーション】福岡県田川市本町9-27", "url": "https://www.kaigokensaku.mhlw.go.jp/40/index.php?action_kouhyou_detail_004_kani=true&JigyosyoCd=4015619366-00&ServiceCd=140&Type=search", "url2": null }, "geometry": { "type": "Point", "coordinates": [ 130.799050599999987, 33.6284199 ] } },
{ "type": "Feature", "properties": { "内容": "社会福祉法人　柏芳会　田川新生病院　訪問リハビリテーション【訪問リハビリテーション】福岡県田川市大字夏吉3638番地", "url": "https://www.kaigokensaku.mhlw.go.jp/40/index.php?action_kouhyou_detail_004_kani=true&JigyosyoCd=4015619432-00&ServiceCd=140&Type=search", "url2": "https://www.tagawasinsei.jp/" }, "geometry": { "type": "Point", "coordinates": [ 130.815995499999985, 33.6796537 ] } },
{ "type": "Feature", "properties": { "内容": "介護老人保健施設　あけぼの荘【訪問リハビリテーション】福岡県田川市大字夏吉46番地", "url": "https://www.kaigokensaku.mhlw.go.jp/40/index.php?action_kouhyou_detail_004_kani=true&JigyosyoCd=4055680070-00&ServiceCd=140&Type=search", "url2": "http://www.wakoukai.or.jp/" }, "geometry": { "type": "Point", "coordinates": [ 130.8360968, 33.6577219 ] } },
{ "type": "Feature", "properties": { "内容": "医療法人　清和会　長田病院【訪問リハビリテーション】福岡県柳川市下宮永町５２３番地１", "url": "https://www.kaigokensaku.mhlw.go.jp/40/index.php?action_kouhyou_detail_004_kani=true&JigyosyoCd=4014319034-00&ServiceCd=140&Type=search", "url2": "http://www.seiwakai.info" }, "geometry": { "type": "Point", "coordinates": [ 130.402878699999974, 33.1426662 ] } },
{ "type": "Feature", "properties": { "内容": "医療法人柳育会柳病院【訪問リハビリテーション】福岡県八女市吉田2-1", "url": "https://www.kaigokensaku.mhlw.go.jp/40/index.php?action_kouhyou_detail_004_kani=true&JigyosyoCd=4012119139-00&ServiceCd=140&Type=search", "url2": "http://www.ryuuikukai.com/yanagi/" }, "geometry": { "type": "Point", "coordinates": [ 130.5593745, 33.2214665 ] } },
{ "type": "Feature", "properties": { "内容": "医療法人　社団　慶仁会　川崎病院【訪問リハビリテーション】福岡県　八女市　津江　538番地", "url": "https://www.kaigokensaku.mhlw.go.jp/40/index.php?action_kouhyou_detail_004_kani=true&JigyosyoCd=4012119162-00&ServiceCd=140&Type=search", "url2": "https://kawasaki-h.or.jp/" }, "geometry": { "type": "Point", "coordinates": [ 130.57494829999996, 33.2146841 ] } },
{ "type": "Feature", "properties": { "内容": "医療法人　角整形外科医院【訪問リハビリテーション】福岡県八女市黒木町今８－１０", "url": "https://www.kaigokensaku.mhlw.go.jp/40/index.php?action_kouhyou_detail_004_kani=true&JigyosyoCd=4012119378-00&ServiceCd=140&Type=search", "url2": "http://www.sumi-seikeigeka.com" }, "geometry": { "type": "Point", "coordinates": [ 130.6603222, 33.2114331 ] } },
{ "type": "Feature", "properties": { "内容": "地方独立行政法人　筑後市立病院【訪問リハビリテーション】福岡県筑後市大字和泉917-1", "url": "https://www.kaigokensaku.mhlw.go.jp/40/index.php?action_kouhyou_detail_004_kani=true&JigyosyoCd=4012311017-00&ServiceCd=140&Type=search", "url2": "https://www.chikugocity-hp.jp" }, "geometry": { "type": "Point", "coordinates": [ 130.491168, 33.2047151 ] } },
{ "type": "Feature", "properties": { "内容": "医療法人　福田病院【訪問リハビリテーション】福岡県大川市大字向島１７１７－３", "url": "https://www.kaigokensaku.mhlw.go.jp/40/index.php?action_kouhyou_detail_004_kani=true&JigyosyoCd=4012519130-00&ServiceCd=140&Type=search", "url2": "http://www.fukuda-hp.net" }, "geometry": { "type": "Point", "coordinates": [ 130.37317859999996, 33.2123021 ] } },
{ "type": "Feature", "properties": { "内容": "医療法人行橋整形外科【訪問リハビリテーション】福岡県行橋市東泉５丁目１－４", "url": "https://www.kaigokensaku.mhlw.go.jp/40/index.php?action_kouhyou_detail_004_kani=true&JigyosyoCd=4017519473-00&ServiceCd=140&Type=search", "url2": "https://y-oc.com/" }, "geometry": { "type": "Point", "coordinates": [ 130.988297100000011, 33.6975788 ] } },
{ "type": "Feature", "properties": { "内容": "大原病院【訪問リハビリテーション】福岡県行橋市宮市町2番5号", "url": "https://www.kaigokensaku.mhlw.go.jp/40/index.php?action_kouhyou_detail_004_kani=true&JigyosyoCd=4017519028-00&ServiceCd=140&Type=search", "url2": "http://kisei-kai.net/" }, "geometry": { "type": "Point", "coordinates": [ 130.972534499999938, 33.7298412 ] } },
{ "type": "Feature", "properties": { "内容": "介護老人保健施設　ほうらい山荘【訪問リハビリテーション】福岡県豊前市四郎丸１６９０－３", "url": "https://www.kaigokensaku.mhlw.go.jp/40/index.php?action_kouhyou_detail_004_kani=true&JigyosyoCd=4057480081-00&ServiceCd=140&Type=search", "url2": "http://www5.ocn.ne.jp/^hourai/" }, "geometry": { "type": "Point", "coordinates": [ 131.092123799999968, 33.6044603 ] } },
{ "type": "Feature", "properties": { "内容": "医療法人　中村整形外科医院　訪問リハビリテーション事業所【訪問リハビリテーション】福岡県中間市長津2丁目16-47", "url": "https://www.kaigokensaku.mhlw.go.jp/40/index.php?action_kouhyou_detail_004_kani=true&JigyosyoCd=4016219075-00&ServiceCd=140&Type=search", "url2": "nakamura-oc.jp/index.html" }, "geometry": { "type": "Point", "coordinates": [ 130.708096100000034, 33.8289538 ] } },
{ "type": "Feature", "properties": { "内容": "新中間病院【訪問リハビリテーション】福岡県中間市通谷1丁目36-1訪問リハビリテーション", "url": "https://www.kaigokensaku.mhlw.go.jp/40/index.php?action_kouhyou_detail_004_kani=true&JigyosyoCd=4016219091-00&ServiceCd=140&Type=search", "url2": "www.shinnakama.or.jp" }, "geometry": { "type": "Point", "coordinates": [ 130.731221900000037, 33.8241828 ] } },
{ "type": "Feature", "properties": { "内容": "医療法人　協和病院【訪問リハビリテーション】福岡県小郡市祇園2-1-10", "url": "https://www.kaigokensaku.mhlw.go.jp/40/index.php?action_kouhyou_detail_004_kani=true&JigyosyoCd=4012619286-00&ServiceCd=140&Type=search", "url2": "wwwkyouwahp.jp" }, "geometry": { "type": "Point", "coordinates": [ 130.5494037, 33.3942535 ] } },
{ "type": "Feature", "properties": { "内容": "しらさぎ苑訪問リハビリテーション【訪問リハビリテーション】福岡県小郡市三沢字花聳851-1", "url": "https://www.kaigokensaku.mhlw.go.jp/40/index.php?action_kouhyou_detail_004_kani=true&JigyosyoCd=4052680016-00&ServiceCd=140&Type=search", "url2": "https://www.chouseikai.jp/" }, "geometry": { "type": "Point", "coordinates": [ 130.5536826, 33.4196686 ] } },
{ "type": "Feature", "properties": { "内容": "新古賀リハビリテーション病院みらい【訪問リハビリテーション】小郡市山隈字弥八郎273-11", "url": "https://www.kaigokensaku.mhlw.go.jp/40/index.php?action_kouhyou_detail_004_kani=true&JigyosyoCd=4012619385-00&ServiceCd=140&Type=search", "url2": "https://www.tenjinkai.or.jp/mirai/" }, "geometry": { "type": "Point", "coordinates": [ 130.5963188, 33.408103 ] } },
{ "type": "Feature", "properties": { "内容": "嶋田病院【訪問リハビリテーション】福岡県小郡市小郡217-1", "url": "https://www.kaigokensaku.mhlw.go.jp/40/index.php?action_kouhyou_detail_004_kani=true&JigyosyoCd=4012619120-00&ServiceCd=140&Type=search", "url2": "http://www.shimadahp.jp" }, "geometry": { "type": "Point", "coordinates": [ 130.5544729, 33.3960828 ] } },
{ "type": "Feature", "properties": { "内容": "医療法人社団邦生会高山病院訪問リハビリテーション【訪問リハビリテーション】福岡県筑紫野市針摺中央2丁目11番10号", "url": "https://www.kaigokensaku.mhlw.go.jp/40/index.php?action_kouhyou_detail_004_kani=true&JigyosyoCd=4011719251-00&ServiceCd=140&Type=search", "url2": "https://takayama-hosp.org/" }, "geometry": { "type": "Point", "coordinates": [ 130.5368901, 33.483995 ] } },
{ "type": "Feature", "properties": { "内容": "小西第一病院　訪問リハビリテーション【訪問リハビリテーション】福岡県筑紫野市石崎1丁目3番1号", "url": "https://www.kaigokensaku.mhlw.go.jp/40/index.php?action_kouhyou_detail_004_kani=true&JigyosyoCd=4011719137-00&ServiceCd=140&Type=search", "url2": "https://www.konishidaiichi-hp.or.jp/" }, "geometry": { "type": "Point", "coordinates": [ 130.5269811, 33.4868569 ] } },
{ "type": "Feature", "properties": { "内容": "医療法人徳洲会　二日市徳洲会病院【訪問リハビリテーション】福岡県筑紫野市二日市中央4丁目8番25号", "url": "https://www.kaigokensaku.mhlw.go.jp/40/index.php?action_kouhyou_detail_004_kani=true&JigyosyoCd=4011719236-00&ServiceCd=140&Type=search", "url2": "http://www.futsukaichi.tokushukai.or.jp/" }, "geometry": { "type": "Point", "coordinates": [ 130.5171487, 33.4996115 ] } },
{ "type": "Feature", "properties": { "内容": "どい内科クリニック訪問リハビリテーション【訪問リハビリテーション】筑紫野市光が丘4－5－3", "url": "https://www.kaigokensaku.mhlw.go.jp/40/index.php?action_kouhyou_detail_004_kani=true&JigyosyoCd=4011719384-00&ServiceCd=140&Type=search", "url2": "http://www.sanshukai.or.jp/" }, "geometry": { "type": "Point", "coordinates": [ 130.560741300000018, 33.4501356 ] } },
{ "type": "Feature", "properties": { "内容": "医療法人つかさ会よこみぞ医院【訪問リハビリテーション】福岡県筑紫野市大字立明寺506番地の5", "url": "https://www.kaigokensaku.mhlw.go.jp/40/index.php?action_kouhyou_detail_004_kani=true&JigyosyoCd=4011719293-00&ServiceCd=140&Type=search", "url2": "https://yokomizo-clinic.com/" }, "geometry": { "type": "Point", "coordinates": [ 130.523843100000022, 33.483627 ] } },
{ "type": "Feature", "properties": { "内容": "医療法人　文杏堂　杉病院　訪問リハビリテーション【訪問リハビリテーション】二日市中央1丁目3-2", "url": "https://www.kaigokensaku.mhlw.go.jp/40/index.php?action_kouhyou_detail_004_kani=true&JigyosyoCd=4011719194-00&ServiceCd=140&Type=search", "url2": "http://sugi-hospital.jp/" }, "geometry": { "type": "Point", "coordinates": [ 130.519907699999976, 33.4952755 ] } },
{ "type": "Feature", "properties": { "内容": "平塚整形外科訪問リハビリテーション【訪問リハビリテーション】福岡県春日市小倉7丁目8番地", "url": "https://www.kaigokensaku.mhlw.go.jp/40/index.php?action_kouhyou_detail_004_kani=true&JigyosyoCd=4011619287-00&ServiceCd=140&Type=search", "url2": "http://www.hiratsuka-seikeigeka.jp" }, "geometry": { "type": "Point", "coordinates": [ 130.4565067, 33.5353283 ] } },
{ "type": "Feature", "properties": { "内容": "医療法人春成会樋口病院【訪問リハビリテーション】福岡県春日市紅葉ヶ丘東1丁目86番地", "url": "https://www.kaigokensaku.mhlw.go.jp/40/index.php?action_kouhyou_detail_004_kani=true&JigyosyoCd=4011619170-00&ServiceCd=140&Type=search", "url2": "http://www.higuchi-hosp.or.jp" }, "geometry": { "type": "Point", "coordinates": [ 130.457916450926149, 33.521304033269686 ] } },
{ "type": "Feature", "properties": { "内容": "ハピタル訪問リハビリ【訪問リハビリテーション】筒井１丁目３番１号", "url": "https://www.kaigokensaku.mhlw.go.jp/40/index.php?action_kouhyou_detail_004_kani=true&JigyosyoCd=4011519354-00&ServiceCd=140&Type=search", "url2": "https://hatabyouin.jp/" }, "geometry": { "type": "Point", "coordinates": [ 130.474347, 33.5407831 ] } },
{ "type": "Feature", "properties": { "内容": "宇都宮内科医院【訪問リハビリテーション】福岡県大野城市御笠川2-1-7", "url": "https://www.kaigokensaku.mhlw.go.jp/40/index.php?action_kouhyou_detail_004_kani=true&JigyosyoCd=4011519271-00&ServiceCd=140&Type=search", "url2": "https://www.umclnc.com/" }, "geometry": { "type": "Point", "coordinates": [ 130.4832897, 33.544974 ] } },
{ "type": "Feature", "properties": { "内容": "訪問リハビリテーション誠愛【訪問リハビリテーション】南大利2丁目7番2号誠愛リハビリテーション病院内", "url": "https://www.kaigokensaku.mhlw.go.jp/40/index.php?action_kouhyou_detail_004_kani=true&JigyosyoCd=4011529049-00&ServiceCd=140&Type=search", "url2": "seiai-riha.com" }, "geometry": { "type": "Point", "coordinates": [ 130.479039899999975, 33.5091444 ] } },
{ "type": "Feature", "properties": { "内容": "医療法人社団原道会摩利支病院【訪問リハビリテーション】福岡県宗像市東郷6丁目2番10号", "url": "https://www.kaigokensaku.mhlw.go.jp/40/index.php?action_kouhyou_detail_004_kani=true&JigyosyoCd=4010619080-00&ServiceCd=140&Type=search", "url2": "soumu@marishi.or.jp" }, "geometry": { "type": "Point", "coordinates": [ 130.5395466, 33.8023086 ] } },
{ "type": "Feature", "properties": { "内容": "医療法人　林外科医院　林外科・内科クリニック【訪問リハビリテーション】福岡県宗像市田久4丁目15-12", "url": "https://www.kaigokensaku.mhlw.go.jp/40/index.php?action_kouhyou_detail_004_kani=true&JigyosyoCd=4010619122-00&ServiceCd=140&Type=search", "url2": "https://www.hayashi-cl.jp/" }, "geometry": { "type": "Point", "coordinates": [ 130.5715478, 33.7997078 ] } },
{ "type": "Feature", "properties": { "内容": "介護老人保健施設　宗像アコール【訪問リハビリテーション】福岡県宗像市光岡130", "url": "https://www.kaigokensaku.mhlw.go.jp/40/index.php?action_kouhyou_detail_004_kani=true&JigyosyoCd=4050680075-00&ServiceCd=140&Type=search", "url2": "http://www.ako-ru.jp" }, "geometry": { "type": "Point", "coordinates": [ 130.5591693, 33.7874441 ] } },
{ "type": "Feature", "properties": { "内容": "コールメディカルクリニック福岡【訪問リハビリテーション】福岡県宗像市公園通り１-９-３", "url": "https://www.kaigokensaku.mhlw.go.jp/40/index.php?action_kouhyou_detail_004_kani=true&JigyosyoCd=4010611236-00&ServiceCd=140&Type=search", "url2": "https://www.call-med-fuk.com/" }, "geometry": { "type": "Point", "coordinates": [ 130.546172500000011, 33.8352772 ] } },
{ "type": "Feature", "properties": { "内容": "社会医療法人　北九州病院　北九州宗像中央病院【訪問リハビリテーション】福岡県宗像市稲元二丁目２番５号", "url": "https://www.kaigokensaku.mhlw.go.jp/40/index.php?action_kouhyou_detail_004_kani=true&JigyosyoCd=4010611368-00&ServiceCd=140&Type=search", "url2": "https://www.kitakyu-hp.or.jp/contents/kitahos_munakatachuo.htm" }, "geometry": { "type": "Point", "coordinates": [ 130.5484743, 33.8078526 ] } },
{ "type": "Feature", "properties": { "内容": "別府病院訪問リハビリテーション【訪問リハビリテーション】福岡県太宰府市宰府1丁目６－２３", "url": "https://www.kaigokensaku.mhlw.go.jp/40/index.php?action_kouhyou_detail_004_kani=true&JigyosyoCd=4011410836-00&ServiceCd=140&Type=search", "url2": "https://houshikai.info/rehabilitation/#houmon" }, "geometry": { "type": "Point", "coordinates": [ 130.5305864, 33.5180674 ] } },
{ "type": "Feature", "properties": { "内容": "医療法人健成会鹿子生整形外科医院【訪問リハビリテーション】福岡県太宰府市五条3丁目4番14号", "url": "https://www.kaigokensaku.mhlw.go.jp/40/index.php?action_kouhyou_detail_004_kani=true&JigyosyoCd=4011419076-00&ServiceCd=140&Type=search", "url2": null }, "geometry": { "type": "Point", "coordinates": [ 130.525431300000037, 33.5096522 ] } },
{ "type": "Feature", "properties": { "内容": "訪問リハビリテーション【訪問リハビリテーション】福岡県古賀市鹿部482番地", "url": "https://www.kaigokensaku.mhlw.go.jp/40/index.php?action_kouhyou_detail_004_kani=true&JigyosyoCd=4010719336-00&ServiceCd=140&Type=search", "url2": "http://www.megumi-kai.or.jp/" }, "geometry": { "type": "Point", "coordinates": [ 130.4618456, 33.7168693 ] } },
{ "type": "Feature", "properties": { "内容": "北九州古賀病院【訪問リハビリテーション】福岡県古賀市千鳥二丁目12番1号", "url": "https://www.kaigokensaku.mhlw.go.jp/40/index.php?action_kouhyou_detail_004_kani=true&JigyosyoCd=4010719112-00&ServiceCd=140&Type=search", "url2": "https://www.kitakyu-hp.or.jp/contents/kitahos_koga.htm" }, "geometry": { "type": "Point", "coordinates": [ 130.476231, 33.7434268 ] } },
{ "type": "Feature", "properties": { "内容": "みやぎびょういん【訪問リハビリテーション】福岡県福津市日蒔野５丁目１２番地の２宮城病院", "url": "https://www.kaigokensaku.mhlw.go.jp/40/index.php?action_kouhyou_detail_004_kani=true&JigyosyoCd=4010521229-00&ServiceCd=140&Type=search", "url2": "https://www.miyagi-hosp.jp" }, "geometry": { "type": "Point", "coordinates": [ 130.4975691, 33.757924500000037 ] } },
{ "type": "Feature", "properties": { "内容": "菜の花診療所【訪問リハビリテーション】福岡県福津市有弥の里2丁目4-2", "url": "https://www.kaigokensaku.mhlw.go.jp/40/index.php?action_kouhyou_detail_004_kani=true&JigyosyoCd=4010511683-00&ServiceCd=140&Type=search", "url2": "https://www.f-nanohana-clinic.com/" }, "geometry": { "type": "Point", "coordinates": [ 130.489776399999982, 33.74850940000001 ] } },
{ "type": "Feature", "properties": { "内容": "東福間病院【訪問リハビリテーション】福岡県福津市津丸1164番地の3", "url": "https://www.kaigokensaku.mhlw.go.jp/40/index.php?action_kouhyou_detail_004_kani=true&JigyosyoCd=4010519199-00&ServiceCd=140&Type=search", "url2": "https://www.souseikai-hp.or.jp" }, "geometry": { "type": "Point", "coordinates": [ 130.5051379, 33.7724187 ] } },
{ "type": "Feature", "properties": { "内容": "宗像水光会総合病院　訪問リハビリテーション【訪問リハビリテーション】福岡県福津市日蒔野5丁目8番地の7介護付有料老人ホーム「水と光の園」1F", "url": "https://www.kaigokensaku.mhlw.go.jp/40/index.php?action_kouhyou_detail_004_kani=true&JigyosyoCd=4010519165-00&ServiceCd=140&Type=search", "url2": "http://www.suikokai.or.jp" }, "geometry": { "type": "Point", "coordinates": [ 130.49772569510651, 33.76020527856479 ] } },
{ "type": "Feature", "properties": { "内容": "筑後川温泉病院【訪問リハビリテーション】福岡県うきは市浮羽町古川１０５５", "url": "https://www.kaigokensaku.mhlw.go.jp/40/index.php?action_kouhyou_detail_004_kani=true&JigyosyoCd=4013319142-00&ServiceCd=140&Type=search", "url2": "http://www.onsen-hp.or.jp" }, "geometry": { "type": "Point", "coordinates": [ 130.809574099999963, 33.357703 ] } },
{ "type": "Feature", "properties": { "内容": "原鶴温泉病院訪問リハビリテーション【訪問リハビリテーション】福岡県うきは市吉井町千年６２８番地", "url": "https://www.kaigokensaku.mhlw.go.jp/40/index.php?action_kouhyou_detail_004_kani=true&JigyosyoCd=4013319126-00&ServiceCd=140&Type=search", "url2": "http://www.harazuru-hp.or.jp/" }, "geometry": { "type": "Point", "coordinates": [ 130.7750853, 33.3523385 ] } },
{ "type": "Feature", "properties": { "内容": "医療法人　宮若整形外科医院【訪問リハビリテーション】福岡県宮若市龍徳１１０６−１７", "url": "https://www.kaigokensaku.mhlw.go.jp/40/index.php?action_kouhyou_detail_004_kani=true&JigyosyoCd=4015810148-00&ServiceCd=140&Type=search", "url2": "http://miyawaka-seikei.com/" }, "geometry": { "type": "Point", "coordinates": [ 130.6861838, 33.7317271 ] } },
{ "type": "Feature", "properties": { "内容": "医療法人　安倍病院【訪問リハビリテーション】福岡県宮若市長井鶴250番地3", "url": "https://www.kaigokensaku.mhlw.go.jp/40/index.php?action_kouhyou_detail_004_kani=true&JigyosyoCd=4015810155-00&ServiceCd=140&Type=search", "url2": "http://www.abe-hp.or.jp" }, "geometry": { "type": "Point", "coordinates": [ 130.6541561, 33.7304336 ] } },
{ "type": "Feature", "properties": { "内容": "医療法人　相生会　宮田病院【訪問リハビリテーション】福岡県宮若市本城１６３６番地", "url": "https://www.kaigokensaku.mhlw.go.jp/40/index.php?action_kouhyou_detail_004_kani=true&JigyosyoCd=4015810163-00&ServiceCd=140&Type=search", "url2": "https://www.miyata-hospital.com/" }, "geometry": { "type": "Point", "coordinates": [ 130.675728599999957, 33.7338031 ] } },
{ "type": "Feature", "properties": { "内容": "健康リハビリテーション内田病院【訪問リハビリテーション】嘉麻市牛隈2510番地4", "url": "https://www.kaigokensaku.mhlw.go.jp/40/index.php?action_kouhyou_detail_004_kani=true&JigyosyoCd=4015719240-00&ServiceCd=140&Type=search", "url2": "http://www.sanai-fukuoka.or.jp/" }, "geometry": { "type": "Point", "coordinates": [ 130.723577100000057, 33.5756594 ] } },
{ "type": "Feature", "properties": { "内容": "社会保険稲築病院訪問リハビリテーション【訪問リハビリテーション】福岡県嘉麻市口春744番地1", "url": "https://www.kaigokensaku.mhlw.go.jp/40/index.php?action_kouhyou_detail_004_kani=true&JigyosyoCd=4015719166-00&ServiceCd=140&Type=search", "url2": null }, "geometry": { "type": "Point", "coordinates": [ 130.713401299999987, 33.6004446 ] } },
{ "type": "Feature", "properties": { "内容": "つつみクリニック朝倉訪問リハビリテーション【訪問リハビリテーション】福岡県朝倉市甘木1596-2", "url": "https://www.kaigokensaku.mhlw.go.jp/40/index.php?action_kouhyou_detail_004_kani=true&JigyosyoCd=4012419349-00&ServiceCd=140&Type=search", "url2": "https://tsutsumiclinic.net/" }, "geometry": { "type": "Point", "coordinates": [ 130.6556833, 33.423568 ] } },
{ "type": "Feature", "properties": { "内容": "医療法人社団医王会　朝倉健生病院　訪問リハビリテーション【訪問リハビリテーション】福岡県朝倉市甘木151番地4", "url": "https://www.kaigokensaku.mhlw.go.jp/40/index.php?action_kouhyou_detail_004_kani=true&JigyosyoCd=4012419166-00&ServiceCd=140&Type=search", "url2": "https://www.a-kensei.jp/" }, "geometry": { "type": "Point", "coordinates": [ 130.6621884, 33.4154654 ] } },
{ "type": "Feature", "properties": { "内容": "甘木中央病院【訪問リハビリテーション】福岡県朝倉市甘木667番地", "url": "https://www.kaigokensaku.mhlw.go.jp/40/index.php?action_kouhyou_detail_004_kani=true&JigyosyoCd=4012419075-00&ServiceCd=140&Type=search", "url2": "https://www.amagichuuou-hp.jp" }, "geometry": { "type": "Point", "coordinates": [ 130.658723799999962, 33.4166129 ] } },
{ "type": "Feature", "properties": { "内容": "医療法人かつき会香月病院【訪問リハビリテーション】福岡県朝倉市下浦715", "url": "https://www.kaigokensaku.mhlw.go.jp/40/index.php?action_kouhyou_detail_004_kani=true&JigyosyoCd=4012419216-00&ServiceCd=140&Type=search", "url2": "info@katsuki-kai.com" }, "geometry": { "type": "Point", "coordinates": [ 130.635689700000057, 33.397334 ] } },
{ "type": "Feature", "properties": { "内容": "社会医療法人　弘恵会　ヨコクラ病院【訪問リハビリテーション】福岡県みやま市高田町濃施４８０番地２", "url": "https://www.kaigokensaku.mhlw.go.jp/40/index.php?action_kouhyou_detail_004_kani=true&JigyosyoCd=4014219424-00&ServiceCd=140&Type=search", "url2": "https://yokokura-hp.or.jp" }, "geometry": { "type": "Point", "coordinates": [ 130.457075896681232, 33.101395481889654 ] } },
{ "type": "Feature", "properties": { "内容": "医療法人　西福岡桜十字　原田病院【訪問リハビリテーション】福岡県糸島市有田912-4", "url": "https://www.kaigokensaku.mhlw.go.jp/40/index.php?action_kouhyou_detail_004_kani=true&JigyosyoCd=4012019081-00&ServiceCd=140&Type=search", "url2": "https://www.sj-harada.jp/" }, "geometry": { "type": "Point", "coordinates": [ 130.216699299999988, 33.5431516 ] } },
{ "type": "Feature", "properties": { "内容": "（介護予防）訪問リハビリテーションふる里【訪問リハビリテーション】福岡県糸島市二丈深江2359-2", "url": "https://www.kaigokensaku.mhlw.go.jp/40/index.php?action_kouhyou_detail_004_kani=true&JigyosyoCd=4052080118-00&ServiceCd=140&Type=search", "url2": "http://furusato1995.com/" }, "geometry": { "type": "Point", "coordinates": [ 130.132442700000013, 33.5084527 ] } },
{ "type": "Feature", "properties": { "内容": "医療法人　社団昭友会　たなかクリニック【訪問リハビリテーション】福岡県糸島市神在西1丁目1-15", "url": "https://www.kaigokensaku.mhlw.go.jp/40/index.php?action_kouhyou_detail_004_kani=true&JigyosyoCd=4012010890-00&ServiceCd=140&Type=search", "url2": "http://www.itoshima-tanakaclinic.jp/" }, "geometry": { "type": "Point", "coordinates": [ 130.177043, 33.54762070000001 ] } },
{ "type": "Feature", "properties": { "内容": "クリニック・パキス【訪問リハビリテーション】福岡県糸島市志摩小富士258番地", "url": "https://www.kaigokensaku.mhlw.go.jp/40/index.php?action_kouhyou_detail_004_kani=true&JigyosyoCd=4012019487-00&ServiceCd=140&Type=search", "url2": "https://hataegeka.or.jp/" }, "geometry": { "type": "Point", "coordinates": [ 130.18315363743443, 33.564287419927339 ] } },
{ "type": "Feature", "properties": { "内容": "誠心会　井上病院　訪問リハビリテーション【訪問リハビリテーション】福岡県糸島市波多江699番地1", "url": "https://www.kaigokensaku.mhlw.go.jp/40/index.php?action_kouhyou_detail_004_kani=true&JigyosyoCd=4012019263-00&ServiceCd=140&Type=search", "url2": "http://www.sih.or.jp/" }, "geometry": { "type": "Point", "coordinates": [ 130.226337699999931, 33.5609571 ] } },
{ "type": "Feature", "properties": { "内容": "医療法人社団　廣徳会　岡部病院【訪問リハビリテーション】福岡県糟屋郡宇美町明神坂1-2-1", "url": "https://www.kaigokensaku.mhlw.go.jp/40/index.php?action_kouhyou_detail_004_kani=true&JigyosyoCd=4010419226-00&ServiceCd=140&Type=search", "url2": "http://www.okabe-hospital.or.jp" }, "geometry": { "type": "Point", "coordinates": [ 130.512772242327856, 33.572566339037529 ] } },
{ "type": "Feature", "properties": { "内容": "医療法人　井上会　篠栗病院【訪問リハビリテーション】福岡県糟屋郡篠栗町田中１丁目１０番１号", "url": "https://www.kaigokensaku.mhlw.go.jp/40/index.php?action_kouhyou_detail_004_kani=true&JigyosyoCd=4010419036-00&ServiceCd=140&Type=search", "url2": "http://www.sasaguri.or.jp" }, "geometry": { "type": "Point", "coordinates": [ 130.521462299999939, 33.6243696 ] } },
{ "type": "Feature", "properties": { "内容": "社会保険仲原病院【訪問リハビリテーション】福岡県糟屋郡志免町別府北2-12-1", "url": "https://www.kaigokensaku.mhlw.go.jp/40/index.php?action_kouhyou_detail_004_kani=true&JigyosyoCd=4010419127-00&ServiceCd=140&Type=search", "url2": "http://www.nakabaru-hp.jp" }, "geometry": { "type": "Point", "coordinates": [ 130.4547363, 33.6074376 ] } },
{ "type": "Feature", "properties": { "内容": "医療法人　うえの病院【訪問リハビリテーション】福岡県糟屋郡志免町志免2丁目10-20", "url": "https://www.kaigokensaku.mhlw.go.jp/40/index.php?action_kouhyou_detail_004_kani=true&JigyosyoCd=4010419788-00&ServiceCd=140&Type=search", "url2": "https://www.uenohospital.jp/" }, "geometry": { "type": "Point", "coordinates": [ 130.488504, 33.583294 ] } },
{ "type": "Feature", "properties": { "内容": "青洲会クリニック【訪問リハビリテーション】福岡県糟屋郡志免町志免４丁目１－７", "url": "https://www.kaigokensaku.mhlw.go.jp/40/index.php?action_kouhyou_detail_004_kani=true&JigyosyoCd=4010419804-00&ServiceCd=140&Type=search", "url2": "http://www.seisyukai-cl.jp/" }, "geometry": { "type": "Point", "coordinates": [ 130.481962399999929, 33.5866872 ] } },
{ "type": "Feature", "properties": { "内容": "医療法人成雅会　泰平病院　訪問リハビリテーション【訪問リハビリテーション】福岡県粕屋郡須恵町大字新原14-7", "url": "https://www.kaigokensaku.mhlw.go.jp/40/index.php?action_kouhyou_detail_004_kani=true&JigyosyoCd=4010419499-00&ServiceCd=140&Type=search", "url2": "http://taihei.or.jp" }, "geometry": { "type": "Point", "coordinates": [ 130.5143835, 33.579582 ] } },
{ "type": "Feature", "properties": { "内容": "医療法人社団正信会水戸病院【訪問リハビリテーション】福岡県糟屋郡須恵町大字旅石115-483", "url": "https://www.kaigokensaku.mhlw.go.jp/40/index.php?action_kouhyou_detail_004_kani=true&JigyosyoCd=4010419101-00&ServiceCd=140&Type=search", "url2": "https://s-mito.org" }, "geometry": { "type": "Point", "coordinates": [ 130.49649260000001, 33.5841697 ] } },
{ "type": "Feature", "properties": { "内容": "千鳥橋病院附属たちばな診療所【訪問リハビリテーション】福岡県糟屋郡新宮町夜臼5丁目5番17号", "url": "https://www.kaigokensaku.mhlw.go.jp/40/index.php?action_kouhyou_detail_004_kani=true&JigyosyoCd=4010412197-00&ServiceCd=140&Type=search", "url2": "http://www.sfid.jp/shinryosho/tachibana/" }, "geometry": { "type": "Point", "coordinates": [ 130.449046700000054, 33.6999593 ] } },
{ "type": "Feature", "properties": { "内容": "青洲の里訪問リハビリテーション【訪問リハビリテーション】福岡県糟屋郡粕屋町長者原西3-13-1", "url": "https://www.kaigokensaku.mhlw.go.jp/40/index.php?action_kouhyou_detail_004_kani=true&JigyosyoCd=4074400708-00&ServiceCd=140&Type=search", "url2": "https://st.seisyukai.jp/" }, "geometry": { "type": "Point", "coordinates": [ 130.4636811, 33.6182959 ] } },
{ "type": "Feature", "properties": { "内容": "福岡青洲会病院訪問リハビリステーション【訪問リハビリテーション】福岡県糟屋郡粕屋町長者原西4-11-8", "url": "https://www.kaigokensaku.mhlw.go.jp/40/index.php?action_kouhyou_detail_004_kani=true&JigyosyoCd=4010419697-00&ServiceCd=140&Type=search", "url2": "http://www.seisyukai.jp/" }, "geometry": { "type": "Point", "coordinates": [ 130.462533600000029, 33.6201738 ] } },
{ "type": "Feature", "properties": { "内容": "千鳥橋病院附属粕屋診療所【訪問リハビリテーション】福岡県糟屋郡粕屋町大字仲原2531-1", "url": "https://www.kaigokensaku.mhlw.go.jp/40/index.php?action_kouhyou_detail_004_kani=true&JigyosyoCd=4010419218-00&ServiceCd=140&Type=search", "url2": "http://www.iryodan-net.jp/kasuya.html" }, "geometry": { "type": "Point", "coordinates": [ 130.4571631, 33.6105441 ] } },
{ "type": "Feature", "properties": { "内容": "青洲の里訪問リハビリテーション【訪問リハビリテーション】福岡県粕屋郡粕屋町長者原西3-13-1", "url": "https://www.kaigokensaku.mhlw.go.jp/40/index.php?action_kouhyou_detail_004_kani=true&JigyosyoCd=4050480138-00&ServiceCd=140&Type=search", "url2": "https://st.seisyukai.jp/" }, "geometry": { "type": "Point", "coordinates": [ 130.463690899999989, 33.6183058 ] } },
{ "type": "Feature", "properties": { "内容": "芦屋中央病院【訪問リハビリテーション】福岡県遠賀郡芦屋町大字鹿283番地7", "url": "https://www.kaigokensaku.mhlw.go.jp/40/index.php?action_kouhyou_detail_004_kani=true&JigyosyoCd=4016111504-00&ServiceCd=140&Type=search", "url2": "www.ashiya-central-hospital.jp/" }, "geometry": { "type": "Point", "coordinates": [ 130.67814520595698, 33.902752808667323 ] } },
{ "type": "Feature", "properties": { "内容": "介護老人保健施設　リカバリーセンターひびき【訪問リハビリテーション】遠賀郡芦屋町大字芦屋1145-3", "url": "https://www.kaigokensaku.mhlw.go.jp/40/index.php?action_kouhyou_detail_004_kani=true&JigyosyoCd=4056180096-00&ServiceCd=140&Type=search", "url2": "http://www.hibiki.or.jp" }, "geometry": { "type": "Point", "coordinates": [ 130.649861200000032, 33.8713257 ] } },
{ "type": "Feature", "properties": { "内容": "医療法人　正周会　水巻共立病院　訪問リハビリテーション【訪問リハビリテーション】福岡県遠賀郡水巻町吉田西４丁目２－１", "url": "https://www.kaigokensaku.mhlw.go.jp/40/index.php?action_kouhyou_detail_004_kani=true&JigyosyoCd=4016119176-00&ServiceCd=140&Type=search", "url2": "http://www.care-net.biz/40/seishukai/" }, "geometry": { "type": "Point", "coordinates": [ 130.7036627, 33.844138 ] } },
{ "type": "Feature", "properties": { "内容": "社会医療法人財団　池友会　福岡新水巻病院【訪問リハビリテーション】福岡県遠賀郡水巻町立屋敷1-2-1", "url": "https://www.kaigokensaku.mhlw.go.jp/40/index.php?action_kouhyou_detail_004_kani=true&JigyosyoCd=4016119523-00&ServiceCd=140&Type=search", "url2": "http://www.f-shinmizumaki.jp/" }, "geometry": { "type": "Point", "coordinates": [ 130.688580499999944, 33.8522143 ] } },
{ "type": "Feature", "properties": { "内容": "遠賀中間医師会おかがき病院【訪問リハビリテーション】福岡県遠賀郡岡垣町大字手野145", "url": "https://www.kaigokensaku.mhlw.go.jp/40/index.php?action_kouhyou_detail_004_kani=true&JigyosyoCd=4016111298-00&ServiceCd=140&Type=search", "url2": "http://www.onmah.jp/" }, "geometry": { "type": "Point", "coordinates": [ 130.588953879762244, 33.873874769486534 ] } },
{ "type": "Feature", "properties": { "内容": "浅木病院訪問リハビリテーション【訪問リハビリテーション】福岡県遠賀郡遠賀町浅木二丁目30番1号", "url": "https://www.kaigokensaku.mhlw.go.jp/40/index.php?action_kouhyou_detail_004_kani=true&JigyosyoCd=4016119275-00&ServiceCd=140&Type=search", "url2": "http://www.asagi-hospital.or.jp/" }, "geometry": { "type": "Point", "coordinates": [ 130.6670188, 33.8263894 ] } },
{ "type": "Feature", "properties": { "内容": "舞風台訪問リハビリテーション【訪問リハビリテーション】福岡県八女郡広川町大字水原1498番地", "url": "https://www.kaigokensaku.mhlw.go.jp/40/index.php?action_kouhyou_detail_004_kani=true&JigyosyoCd=4053580082-00&ServiceCd=140&Type=search", "url2": "https://www.yh-bufudai.jp/" }, "geometry": { "type": "Point", "coordinates": [ 130.587011100000012, 33.2421073 ] } },
{ "type": "Feature", "properties": { "内容": "松本病院【訪問リハビリテーション】福岡県川崎町大字川崎1681番地の1松本病院", "url": "https://www.kaigokensaku.mhlw.go.jp/40/index.php?action_kouhyou_detail_004_kani=true&JigyosyoCd=4015319173-00&ServiceCd=140&Type=search", "url2": "matsumoto-hospital.or.jp/" }, "geometry": { "type": "Point", "coordinates": [ 130.815525699999966, 33.5978066 ] } },
{ "type": "Feature", "properties": { "内容": "医療法人　たくまクリニック【訪問リハビリテーション】福岡県田川郡福智町金田1858-10", "url": "https://www.kaigokensaku.mhlw.go.jp/40/index.php?action_kouhyou_detail_004_kani=true&JigyosyoCd=4015311436-00&ServiceCd=140&Type=search", "url2": null }, "geometry": { "type": "Point", "coordinates": [ 130.7722144, 33.6885219 ] } },
{ "type": "Feature", "properties": { "内容": "医療法人赤池協同医院【訪問リハビリテーション】福岡県田川郡福智町赤池521番地", "url": "https://www.kaigokensaku.mhlw.go.jp/40/index.php?action_kouhyou_detail_004_kani=true&JigyosyoCd=4015319330-00&ServiceCd=140&Type=search", "url2": "http://akaikekyodo.starfree.jp" }, "geometry": { "type": "Point", "coordinates": [ 130.763998899999933, 33.6942003 ] } },
{ "type": "Feature", "properties": { "内容": "つくし訪問リハビリテーション【訪問リハビリテーション】福岡県京都郡苅田町大字新津1598番地", "url": "https://www.kaigokensaku.mhlw.go.jp/40/index.php?action_kouhyou_detail_004_kani=true&JigyosyoCd=4017319072-00&ServiceCd=140&Type=search", "url2": "http://www.youmeikai.jp/" }, "geometry": { "type": "Point", "coordinates": [ 130.971100699999965, 33.753845 ] } },
{ "type": "Feature", "properties": { "内容": "京都病院【訪問リハビリテーション】福岡県京都郡みやこ町勝山箕田２９８番地", "url": "https://www.kaigokensaku.mhlw.go.jp/40/index.php?action_kouhyou_detail_004_kani=true&JigyosyoCd=4017319023-00&ServiceCd=140&Type=search", "url2": "http://www.miyako-hp.or.jp" }, "geometry": { "type": "Point", "coordinates": [ 130.908143599999988, 33.69333 ] } },
{ "type": "Feature", "properties": { "内容": "訪問リハビリセンターひがし【訪問リハビリテーション】福岡県築上郡吉富町593番地の1", "url": "https://www.kaigokensaku.mhlw.go.jp/40/index.php?action_kouhyou_detail_004_kani=true&JigyosyoCd=4017219066-00&ServiceCd=140&Type=search", "url2": "www.higashi-hosp.net/" }, "geometry": { "type": "Point", "coordinates": [ 131.174242, 33.602029 ] } }
]
}
