{
"type": "FeatureCollection",
"name": "geo_40_看護小規模多機能型居宅介護（複合型サービス）",
"crs": { "type": "name", "properties": { "name": "urn:ogc:def:crs:OGC:1.3:CRS84" } },
"features": [
{ "type": "Feature", "properties": { "内容": "看護小規模多機能型居宅介護すみれ庵【看護小規模多機能型居宅介護（複合型サービス）】福岡県北九州市門司区風師4丁目12-31", "url": "https://www.kaigokensaku.mhlw.go.jp/40/index.php?action_kouhyou_detail_004_kani=true&JigyosyoCd=4090100480-00&ServiceCd=&Type=search", "url2": "http：//hanabusakai.jp" }, "geometry": { "type": "Point", "coordinates": [ 130.945321317196658, 33.929516368409168 ] } },
{ "type": "Feature", "properties": { "内容": "看護小規模多機能ひだまりテラス【看護小規模多機能型居宅介護（複合型サービス）】福岡県北九州市小倉北区東篠崎三丁目2番28号", "url": "https://www.kaigokensaku.mhlw.go.jp/40/index.php?action_kouhyou_detail_004_kani=true&JigyosyoCd=4090400567-00&ServiceCd=&Type=search", "url2": "http://www.senrikai.or.jp" }, "geometry": { "type": "Point", "coordinates": [ 130.871991799999932, 33.8678359 ] } },
{ "type": "Feature", "properties": { "内容": "看護小規模多機能帆柱館【看護小規模多機能型居宅介護（複合型サービス）】北九州市八幡西区八千代町9-30", "url": "https://www.kaigokensaku.mhlw.go.jp/40/index.php?action_kouhyou_detail_004_kani=true&JigyosyoCd=4090700917-00&ServiceCd=&Type=search", "url2": "www.caring.jp/" }, "geometry": { "type": "Point", "coordinates": [ 130.7739752, 33.8633654 ] } },
{ "type": "Feature", "properties": { "内容": "複合型サービスケアリング筥崎館【看護小規模多機能型居宅介護（複合型サービス）】福岡県福岡市東区馬出４丁目３番８号ケアリングデイサービス筥崎", "url": "https://www.kaigokensaku.mhlw.go.jp/40/index.php?action_kouhyou_detail_004_kani=true&JigyosyoCd=4090800295-00&ServiceCd=&Type=search", "url2": "http://www.caring.jp" }, "geometry": { "type": "Point", "coordinates": [ 130.417033, 33.6146635 ] } },
{ "type": "Feature", "properties": { "内容": "看護小規模多機能型居宅介護　香風館【看護小規模多機能型居宅介護（複合型サービス）】福岡県福岡市東区香住ヶ丘1丁目7番3号", "url": "https://www.kaigokensaku.mhlw.go.jp/40/index.php?action_kouhyou_detail_004_kani=true&JigyosyoCd=4090800634-00&ServiceCd=&Type=search", "url2": "http://care-net.biz/40/kofukan/" }, "geometry": { "type": "Point", "coordinates": [ 130.440046253303535, 33.667461032951671 ] } },
{ "type": "Feature", "properties": { "内容": "看多機なごみ【看護小規模多機能型居宅介護（複合型サービス）】福岡県福岡市東区千早２丁目２１－7", "url": "https://www.kaigokensaku.mhlw.go.jp/40/index.php?action_kouhyou_detail_004_kani=true&JigyosyoCd=4090800683-00&ServiceCd=&Type=search", "url2": "https://www.nagomikango.com" }, "geometry": { "type": "Point", "coordinates": [ 130.432785599999988, 33.6474858 ] } },
{ "type": "Feature", "properties": { "内容": "看護小規模多機能型居宅介護【看護小規模多機能型居宅介護（複合型サービス）】福岡県福岡市中央区荒戸三丁目3-13インマイライフあらと", "url": "https://www.kaigokensaku.mhlw.go.jp/40/index.php?action_kouhyou_detail_004_kani=true&JigyosyoCd=4091000242-00&ServiceCd=&Type=search", "url2": "https://shimakai.jp/" }, "geometry": { "type": "Point", "coordinates": [ 130.374127100000038, 33.5921148 ] } },
{ "type": "Feature", "properties": { "内容": "看護小規模多機能　光の丘【看護小規模多機能型居宅介護（複合型サービス）】福岡県福岡市南区若久団地9番1号", "url": "https://www.kaigokensaku.mhlw.go.jp/40/index.php?action_kouhyou_detail_004_kani=true&JigyosyoCd=4091100513-00&ServiceCd=&Type=search", "url2": null }, "geometry": { "type": "Point", "coordinates": [ 130.4182022, 33.5546638 ] } },
{ "type": "Feature", "properties": { "内容": "セントケア看護小規模福岡【看護小規模多機能型居宅介護（複合型サービス）】福岡県福岡市南区柏原4丁目37-5", "url": "https://www.kaigokensaku.mhlw.go.jp/40/index.php?action_kouhyou_detail_004_kani=true&JigyosyoCd=4091100612-00&ServiceCd=&Type=search", "url2": "http://www.saint-care.com" }, "geometry": { "type": "Point", "coordinates": [ 130.3937539, 33.5240363 ] } },
{ "type": "Feature", "properties": { "内容": "看護小規模多機能しろくま野方【看護小規模多機能型居宅介護（複合型サービス）】福岡県福岡市西区野方1-13-5", "url": "https://www.kaigokensaku.mhlw.go.jp/40/index.php?action_kouhyou_detail_004_kani=true&JigyosyoCd=4091200495-00&ServiceCd=&Type=search", "url2": "http://hakuyuu.or.jp/" }, "geometry": { "type": "Point", "coordinates": [ 130.310105280950921, 33.556996020616396 ] } },
{ "type": "Feature", "properties": { "内容": "看護小規模多機能型居宅介護　三丁目の花や【看護小規模多機能型居宅介護（複合型サービス）】福岡県福岡市西区今宿東２丁目２番１０号", "url": "https://www.kaigokensaku.mhlw.go.jp/40/index.php?action_kouhyou_detail_004_kani=true&JigyosyoCd=4091200297-00&ServiceCd=&Type=search", "url2": "http://www.kanwa-care.ne.jp" }, "geometry": { "type": "Point", "coordinates": [ 130.277890634815321, 33.579407029297563 ] } },
{ "type": "Feature", "properties": { "内容": "cocoroのとなり【看護小規模多機能型居宅介護（複合型サービス）】福岡県福岡市西区大字千里480番地8", "url": "https://www.kaigokensaku.mhlw.go.jp/40/index.php?action_kouhyou_detail_004_kani=true&JigyosyoCd=4091200321-00&ServiceCd=&Type=search", "url2": null }, "geometry": { "type": "Point", "coordinates": [ 130.238670406745882, 33.56527792000292 ] } },
{ "type": "Feature", "properties": { "内容": "看護小規模多機能ホーム　ずっと一緒に【看護小規模多機能型居宅介護（複合型サービス）】石丸3丁目3番3号", "url": "https://www.kaigokensaku.mhlw.go.jp/40/index.php?action_kouhyou_detail_004_kani=true&JigyosyoCd=4091200511-00&ServiceCd=&Type=search", "url2": null }, "geometry": { "type": "Point", "coordinates": [ 130.3155812, 33.5745779 ] } },
{ "type": "Feature", "properties": { "内容": "看護小規模多機能　かたえの杜【看護小規模多機能型居宅介護（複合型サービス）】福岡県福岡市城南区片江１丁目２０番１１号", "url": "https://www.kaigokensaku.mhlw.go.jp/40/index.php?action_kouhyou_detail_004_kani=true&JigyosyoCd=4091300196-00&ServiceCd=&Type=search", "url2": "https://www.caring.jp/" }, "geometry": { "type": "Point", "coordinates": [ 130.378071200000022, 33.5511144 ] } },
{ "type": "Feature", "properties": { "内容": "看護小規模多機能型居宅介護ゆい【看護小規模多機能型居宅介護（複合型サービス）】田村７丁目２２番２０号", "url": "https://www.kaigokensaku.mhlw.go.jp/40/index.php?action_kouhyou_detail_004_kani=true&JigyosyoCd=4091400483-00&ServiceCd=&Type=search", "url2": "https://yui25.com" }, "geometry": { "type": "Point", "coordinates": [ 130.322800300000011, 33.5351464 ] } },
{ "type": "Feature", "properties": { "内容": "ナーシングホーム　たくま【看護小規模多機能型居宅介護（複合型サービス）】福岡県大牟田市久福木82-1", "url": "https://www.kaigokensaku.mhlw.go.jp/40/index.php?action_kouhyou_detail_004_kani=true&JigyosyoCd=4091500662-00&ServiceCd=&Type=search", "url2": "https://www.shirakawa.or.jp/" }, "geometry": { "type": "Point", "coordinates": [ 130.4756992, 33.0573204 ] } },
{ "type": "Feature", "properties": { "内容": "看護小規模　優花【看護小規模多機能型居宅介護（複合型サービス）】福岡県久留米市田主丸町志塚島907番地3", "url": "https://www.kaigokensaku.mhlw.go.jp/40/index.php?action_kouhyou_detail_004_kani=true&JigyosyoCd=4091601825-00&ServiceCd=&Type=search", "url2": "https://www.fuchsias.jp/" }, "geometry": { "type": "Point", "coordinates": [ 130.666507, 33.3428389 ] } },
{ "type": "Feature", "properties": { "内容": "看護小規模多機能型ホーム　つくし【看護小規模多機能型居宅介護（複合型サービス）】福岡県久留米市上津町2228番地598", "url": "https://www.kaigokensaku.mhlw.go.jp/40/index.php?action_kouhyou_detail_004_kani=true&JigyosyoCd=4091601908-00&ServiceCd=&Type=search", "url2": null }, "geometry": { "type": "Point", "coordinates": [ 130.5327823, 33.2657191 ] } },
{ "type": "Feature", "properties": { "内容": "看護小規模多機能ホーム　かねしま【看護小規模多機能型居宅介護（複合型サービス）】福岡県久留米市北野町八重亀382－1", "url": "https://www.kaigokensaku.mhlw.go.jp/40/index.php?action_kouhyou_detail_004_kani=true&JigyosyoCd=4091601155-00&ServiceCd=&Type=search", "url2": "http://kumashiro-hospital.or.jp" }, "geometry": { "type": "Point", "coordinates": [ 130.625468899999987, 33.3540434 ] } },
{ "type": "Feature", "properties": { "内容": "看護小規模多機能　あおば【看護小規模多機能型居宅介護（複合型サービス）】福岡県久留米市田主丸町豊城483番1", "url": "https://www.kaigokensaku.mhlw.go.jp/40/index.php?action_kouhyou_detail_004_kani=true&JigyosyoCd=4091601437-00&ServiceCd=&Type=search", "url2": "https://fuchsias.jp" }, "geometry": { "type": "Point", "coordinates": [ 130.68289470000002, 33.347725 ] } },
{ "type": "Feature", "properties": { "内容": "看護小規模多機能ホームなごみ【看護小規模多機能型居宅介護（複合型サービス）】久留米市城島町大依310番地13", "url": "https://www.kaigokensaku.mhlw.go.jp/40/index.php?action_kouhyou_detail_004_kani=true&JigyosyoCd=4091601783-00&ServiceCd=&Type=search", "url2": "http://www.swc-hohoemi.or.jp" }, "geometry": { "type": "Point", "coordinates": [ 130.4379324, 33.2543393 ] } },
{ "type": "Feature", "properties": { "内容": "公益社団法人福岡県看護協会　看護小規模多機能型居宅介護　すぴか☆くるめ【看護小規模多機能型居宅介護（複合型サービス）】福岡県久留米市西町105番地18", "url": "https://www.kaigokensaku.mhlw.go.jp/40/index.php?action_kouhyou_detail_004_kani=true&JigyosyoCd=4091601023-00&ServiceCd=&Type=search", "url2": "https://fukuoka-kango.wsgtest.me/" }, "geometry": { "type": "Point", "coordinates": [ 130.514025278956069, 33.294722493938039 ] } },
{ "type": "Feature", "properties": { "内容": "かんたき千歳２４【看護小規模多機能型居宅介護（複合型サービス）】合川町1810番地１", "url": "https://www.kaigokensaku.mhlw.go.jp/40/index.php?action_kouhyou_detail_004_kani=true&JigyosyoCd=4091601551-00&ServiceCd=&Type=search", "url2": "https://chitose-gr.com/kurume/kurume01/" }, "geometry": { "type": "Point", "coordinates": [ 130.533354593254103, 33.317916581070435 ] } },
{ "type": "Feature", "properties": { "内容": "看護小規模多機能型居宅介護事業所　共生の里荒木【看護小規模多機能型居宅介護（複合型サービス）】福岡県久留米市荒木町白口1515", "url": "https://www.kaigokensaku.mhlw.go.jp/40/index.php?action_kouhyou_detail_004_kani=true&JigyosyoCd=4091601627-00&ServiceCd=&Type=search", "url2": "ks-araki.jp" }, "geometry": { "type": "Point", "coordinates": [ 130.511641, 33.280829 ] } },
{ "type": "Feature", "properties": { "内容": "複合型サービス　いちょうの杜山川【看護小規模多機能型居宅介護（複合型サービス）】福岡県久留米市山川町326番地", "url": "https://www.kaigokensaku.mhlw.go.jp/40/index.php?action_kouhyou_detail_004_kani=true&JigyosyoCd=4091601148-00&ServiceCd=&Type=search", "url2": "http://www.ichounomori.com" }, "geometry": { "type": "Point", "coordinates": [ 130.565505, 33.3113435 ] } },
{ "type": "Feature", "properties": { "内容": "看護小規模多機能型居宅介護　ゆのそピア【看護小規模多機能型居宅介護（複合型サービス）】福岡県久留米市藤山町1651番地267", "url": "https://www.kaigokensaku.mhlw.go.jp/40/index.php?action_kouhyou_detail_004_kani=true&JigyosyoCd=4091601221-00&ServiceCd=&Type=search", "url2": "yunosopia@kyueikai.jp" }, "geometry": { "type": "Point", "coordinates": [ 130.540867820237736, 33.264079855683846 ] } },
{ "type": "Feature", "properties": { "内容": "複合型サービス　いちょうの杜鳥飼【看護小規模多機能型居宅介護（複合型サービス）】福岡県久留米市梅満町1251番地1", "url": "https://www.kaigokensaku.mhlw.go.jp/40/index.php?action_kouhyou_detail_004_kani=true&JigyosyoCd=4091600769-00&ServiceCd=&Type=search", "url2": "http://ichounomori.com" }, "geometry": { "type": "Point", "coordinates": [ 130.501814282835909, 33.304310428976535 ] } },
{ "type": "Feature", "properties": { "内容": "看護小規模多機能型居宅介護　カレン【看護小規模多機能型居宅介護（複合型サービス）】久留米市荒木町白口１８５９－１", "url": "https://www.kaigokensaku.mhlw.go.jp/40/index.php?action_kouhyou_detail_004_kani=true&JigyosyoCd=4091601080-00&ServiceCd=&Type=search", "url2": "http://www.current5454.co.jp" }, "geometry": { "type": "Point", "coordinates": [ 130.504022942769126, 33.276578564206226 ] } },
{ "type": "Feature", "properties": { "内容": "看護小規模多機能型居宅介護　七星【看護小規模多機能型居宅介護（複合型サービス）】福岡県久留米市梅満町92番地１", "url": "https://www.kaigokensaku.mhlw.go.jp/40/index.php?action_kouhyou_detail_004_kani=true&JigyosyoCd=4091601395-00&ServiceCd=&Type=search", "url2": "nanase-kaigo.com\\" }, "geometry": { "type": "Point", "coordinates": [ 130.4894122, 33.3093472 ] } },
{ "type": "Feature", "properties": { "内容": "複合型サービスきずな【看護小規模多機能型居宅介護（複合型サービス）】久留米市宮ノ陣町大杜３３２番地２", "url": "https://www.kaigokensaku.mhlw.go.jp/40/index.php?action_kouhyou_detail_004_kani=true&JigyosyoCd=4091600777-00&ServiceCd=&Type=search", "url2": "http://cherish-kizuna.com" }, "geometry": { "type": "Point", "coordinates": [ 130.544899064804099, 33.333239937053364 ] } },
{ "type": "Feature", "properties": { "内容": "複合型サービス　ふきのはなれ【看護小規模多機能型居宅介護（複合型サービス）】福岡県久留米市荒木町荒木１４０４番地１", "url": "https://www.kaigokensaku.mhlw.go.jp/40/index.php?action_kouhyou_detail_004_kani=true&JigyosyoCd=4091600793-00&ServiceCd=&Type=search", "url2": "http:/www.kiccho.org" }, "geometry": { "type": "Point", "coordinates": [ 130.505382936770587, 33.267428083414423 ] } },
{ "type": "Feature", "properties": { "内容": "看護小規模多機能型居宅介護　上村座【看護小規模多機能型居宅介護（複合型サービス）】福岡県久留米市上津1丁目23-10", "url": "https://www.kaigokensaku.mhlw.go.jp/40/index.php?action_kouhyou_detail_004_kani=true&JigyosyoCd=4091600751-00&ServiceCd=&Type=search", "url2": "http://tangaku.com/" }, "geometry": { "type": "Point", "coordinates": [ 130.5307216, 33.2870786 ] } },
{ "type": "Feature", "properties": { "内容": "複合型サービス　クレヨン【看護小規模多機能型居宅介護（複合型サービス）】福岡県飯塚市有安966番地48", "url": "https://www.kaigokensaku.mhlw.go.jp/40/index.php?action_kouhyou_detail_004_kani=true&JigyosyoCd=4091800344-00&ServiceCd=&Type=search", "url2": "http://www.crayon-group.com/" }, "geometry": { "type": "Point", "coordinates": [ 130.719540300000062, 33.6424851 ] } },
{ "type": "Feature", "properties": { "内容": "かんたき　欧州館【看護小規模多機能型居宅介護（複合型サービス）】福岡県飯塚市高田1000番地1", "url": "https://www.kaigokensaku.mhlw.go.jp/40/index.php?action_kouhyou_detail_004_kani=true&JigyosyoCd=4091800328-00&ServiceCd=&Type=search", "url2": null }, "geometry": { "type": "Point", "coordinates": [ 130.636548, 33.6016053 ] } },
{ "type": "Feature", "properties": { "内容": "看護小規模多機能施設あいおす【看護小規模多機能型居宅介護（複合型サービス）】福岡県飯塚市枝国56番地1", "url": "https://www.kaigokensaku.mhlw.go.jp/40/index.php?action_kouhyou_detail_004_kani=true&JigyosyoCd=4091800310-00&ServiceCd=&Type=search", "url2": null }, "geometry": { "type": "Point", "coordinates": [ 130.678172415344307, 33.633110867157605 ] } },
{ "type": "Feature", "properties": { "内容": "看護小規模多機能ホーム森の里【看護小規模多機能型居宅介護（複合型サービス）】福岡県八女市立花町白木610-1", "url": "https://www.kaigokensaku.mhlw.go.jp/40/index.php?action_kouhyou_detail_004_kani=true&JigyosyoCd=4092300153-00&ServiceCd=&Type=search", "url2": "http;//www.morinosato.org" }, "geometry": { "type": "Point", "coordinates": [ 130.56203430000005, 33.1628061 ] } },
{ "type": "Feature", "properties": { "内容": "看護小規模多機能型居宅介護りんどう【看護小規模多機能型居宅介護（複合型サービス）】福岡県中間市大字上底井野1675-1", "url": "https://www.kaigokensaku.mhlw.go.jp/40/index.php?action_kouhyou_detail_004_kani=true&JigyosyoCd=4092800137-00&ServiceCd=&Type=search", "url2": null }, "geometry": { "type": "Point", "coordinates": [ 130.687967, 33.8177162 ] } },
{ "type": "Feature", "properties": { "内容": "ひまわりの郷味坂【看護小規模多機能型居宅介護（複合型サービス）】福岡県小郡市八坂489-1", "url": "https://www.kaigokensaku.mhlw.go.jp/40/index.php?action_kouhyou_detail_004_kani=true&JigyosyoCd=4092900093-00&ServiceCd=&Type=search", "url2": "http://hijirikai.com" }, "geometry": { "type": "Point", "coordinates": [ 130.560577299999977, 33.367044 ] } },
{ "type": "Feature", "properties": { "内容": "看護小規模型ホーム　和楽【看護小規模多機能型居宅介護（複合型サービス）】福岡県春日市一の谷6丁目32番地", "url": "https://www.kaigokensaku.mhlw.go.jp/40/index.php?action_kouhyou_detail_004_kani=true&JigyosyoCd=4093100107-00&ServiceCd=&Type=search", "url2": "http://www.ufinitia.com/ai/" }, "geometry": { "type": "Point", "coordinates": [ 130.448007599999983, 33.5224185 ] } },
{ "type": "Feature", "properties": { "内容": "そらりす８８ヶ亭【看護小規模多機能型居宅介護（複合型サービス）】福岡県糟屋郡篠栗町津波黒3丁目１２番２６号", "url": "https://www.kaigokensaku.mhlw.go.jp/40/index.php?action_kouhyou_detail_004_kani=true&JigyosyoCd=4093900043-00&ServiceCd=&Type=search", "url2": null }, "geometry": { "type": "Point", "coordinates": [ 130.51495460000001, 33.6299495 ] } },
{ "type": "Feature", "properties": { "内容": "社会医療法人青洲会　看護小規模多機能型居宅介護　青洲のあかり【看護小規模多機能型居宅介護（複合型サービス）】福岡県糟屋郡志免町志免4丁目1番7号", "url": "https://www.kaigokensaku.mhlw.go.jp/40/index.php?action_kouhyou_detail_004_kani=true&JigyosyoCd=4094000041-00&ServiceCd=&Type=search", "url2": "http：//www/seisyukai.jp/index.php" }, "geometry": { "type": "Point", "coordinates": [ 130.4819827, 33.586591 ] } }
]
}
