{
"type": "FeatureCollection",
"name": "geo_40_短期大学",
"crs": { "type": "name", "properties": { "name": "urn:ogc:def:crs:EPSG::6668" } },
"features": [
{ "type": "Feature", "properties": { "P29_001": "40109", "P29_002": "F240310110926", "P29_003": "16006", "P29_004": "折尾愛真短期大学", "P29_005": "福岡県北九州市八幡西区堀川町11-1", "P29_006": "4", "P29_007": "0", "P29_008": "00", "P29_009": null }, "geometry": { "type": "Point", "coordinates": [ 130.710000241460989, 33.861609915727598 ] } },
{ "type": "Feature", "properties": { "P29_001": "40109", "P29_002": "F240310110935", "P29_003": "16006", "P29_004": "九州女子短期大学", "P29_005": "福岡県北九州市八幡西区自由ケ丘1", "P29_006": "4", "P29_007": "0", "P29_008": "00", "P29_009": null }, "geometry": { "type": "Point", "coordinates": [ 130.707312015485144, 33.869404021580806 ] } },
{ "type": "Feature", "properties": { "P29_001": "40106", "P29_002": "F240310110944", "P29_003": "16006", "P29_004": "西南女学院大学短期大学部", "P29_005": "福岡県北九州市小倉北区井堀1-3-2", "P29_006": "4", "P29_007": "0", "P29_008": "00", "P29_009": null }, "geometry": { "type": "Point", "coordinates": [ 130.849481919832471, 33.883274006210733 ] } },
{ "type": "Feature", "properties": { "P29_001": "40106", "P29_002": "F240310110953", "P29_003": "16006", "P29_004": "東筑紫短期大学", "P29_005": "福岡県北九州市小倉北区下到津5-1-1", "P29_006": "4", "P29_007": "0", "P29_008": "00", "P29_009": null }, "geometry": { "type": "Point", "coordinates": [ 130.85826828978054, 33.87655052828049 ] } },
{ "type": "Feature", "properties": { "P29_001": "40221", "P29_002": "F240310110962", "P29_003": "16006", "P29_004": "福岡女子短期大学", "P29_005": "福岡県太宰府市五条4-16-1", "P29_006": "4", "P29_007": "0", "P29_008": "00", "P29_009": null }, "geometry": { "type": "Point", "coordinates": [ 130.532051461465272, 33.510048857638765 ] } },
{ "type": "Feature", "properties": { "P29_001": "40205", "P29_002": "F240310110971", "P29_003": "16006", "P29_004": "近畿大学九州短期大学", "P29_005": "福岡県飯塚市菰田東1-5-30", "P29_006": "4", "P29_007": "0", "P29_008": "00", "P29_009": null }, "geometry": { "type": "Point", "coordinates": [ 130.691275902799873, 33.628330044303716 ] } },
{ "type": "Feature", "properties": { "P29_001": "40203", "P29_002": "F240310110980", "P29_003": "16006", "P29_004": "久留米信愛短期大学", "P29_005": "福岡県久留米市御井町2278-1", "P29_006": "4", "P29_007": "0", "P29_008": "00", "P29_009": null }, "geometry": { "type": "Point", "coordinates": [ 130.550817991876301, 33.296183668774226 ] } },
{ "type": "Feature", "properties": { "P29_001": "40134", "P29_002": "F240310110999", "P29_003": "16006", "P29_004": "香蘭女子短期大学", "P29_005": "福岡県福岡市南区横手1-2-1", "P29_006": "4", "P29_007": "0", "P29_008": "00", "P29_009": null }, "geometry": { "type": "Point", "coordinates": [ 130.43524628798923, 33.552857346903515 ] } },
{ "type": "Feature", "properties": { "P29_001": "40134", "P29_002": "F240310111006", "P29_003": "16006", "P29_004": "純真短期大学", "P29_005": "福岡県福岡市南区筑紫丘1-1-1", "P29_006": "4", "P29_007": "0", "P29_008": "00", "P29_009": null }, "geometry": { "type": "Point", "coordinates": [ 130.41996520413565, 33.558981194874285 ] } },
{ "type": "Feature", "properties": { "P29_001": "40218", "P29_002": "F240310111015", "P29_003": "16006", "P29_004": "精華女子短期大学", "P29_005": "福岡県福岡市博多区南八幡町2-12-1", "P29_006": "4", "P29_007": "0", "P29_008": "00", "P29_009": null }, "geometry": { "type": "Point", "coordinates": [ 130.453296641400584, 33.54690196741312 ] } },
{ "type": "Feature", "properties": { "P29_001": "40136", "P29_002": "F240310111024", "P29_003": "16006", "P29_004": "中村学園大学短期大学部", "P29_005": "福岡県福岡市城南区別府5-7-1", "P29_006": "4", "P29_007": "0", "P29_008": "00", "P29_009": null }, "geometry": { "type": "Point", "coordinates": [ 130.366637772909172, 33.572140353637025 ] } },
{ "type": "Feature", "properties": { "P29_001": "40133", "P29_002": "F240310111033", "P29_003": "16006", "P29_004": "西日本短期大学", "P29_005": "福岡県福岡市中央区福浜1-3-1", "P29_006": "4", "P29_007": "0", "P29_008": "00", "P29_009": null }, "geometry": { "type": "Point", "coordinates": [ 130.367420549351493, 33.598012866812773 ] } },
{ "type": "Feature", "properties": { "P29_001": "40131", "P29_002": "F240310111042", "P29_003": "16006", "P29_004": "福岡工業大学短期大学部", "P29_005": "福岡県福岡市東区和白東3-30-1", "P29_006": "4", "P29_007": "0", "P29_008": "00", "P29_009": null }, "geometry": { "type": "Point", "coordinates": [ 130.441476865639686, 33.695098000206741 ] } },
{ "type": "Feature", "properties": { "P29_001": "40134", "P29_002": "F240310111051", "P29_003": "16006", "P29_004": "福岡女学院大学短期大学部", "P29_005": "福岡県福岡市南区曰佐3-42-1", "P29_006": "4", "P29_007": "0", "P29_008": "00", "P29_009": null }, "geometry": { "type": "Point", "coordinates": [ 130.440858940777645, 33.532842244362179 ] } },
{ "type": "Feature", "properties": { "P29_001": "40131", "P29_002": "F240310111060", "P29_003": "16006", "P29_004": "九州産業大学造形短期大学部", "P29_005": "福岡県福岡市東区松香台2-3-1", "P29_006": "4", "P29_007": "0", "P29_008": "00", "P29_009": null }, "geometry": { "type": "Point", "coordinates": [ 130.443976446107172, 33.671937755774451 ] } },
{ "type": "Feature", "properties": { "P29_001": "40211", "P29_002": "F240310111079", "P29_003": "16006", "P29_004": "九州大谷短期大学", "P29_005": "福岡県筑後市蔵数字大谷495-1", "P29_006": "4", "P29_007": "0", "P29_008": "00", "P29_009": null }, "geometry": { "type": "Point", "coordinates": [ 130.505244946943208, 33.241118323680475 ] } },
{ "type": "Feature", "properties": { "P29_001": "40217", "P29_002": "F240310111088", "P29_003": "16006", "P29_004": "福岡こども短期大学", "P29_005": "福岡県太宰府市五条3-11-25", "P29_006": "4", "P29_007": "0", "P29_008": "00", "P29_009": null }, "geometry": { "type": "Point", "coordinates": [ 130.525142855834218, 33.506331961294194 ] } },
{ "type": "Feature", "properties": { "P29_001": "40137", "P29_002": "F240310111097", "P29_003": "16006", "P29_004": "福岡医療短期大学", "P29_005": "福岡県福岡市早良区田村2-15-1", "P29_006": "4", "P29_007": "0", "P29_008": "00", "P29_009": null }, "geometry": { "type": "Point", "coordinates": [ 130.33025153450339, 33.547830196354575 ] } }
]
}
