{
"type": "FeatureCollection",
"name": "geo_40_短期入所療養介護（介護老人保健施設）",
"crs": { "type": "name", "properties": { "name": "urn:ogc:def:crs:OGC:1.3:CRS84" } },
"features": [
{ "type": "Feature", "properties": { "内容": "介護老人保健施設　春幸苑【短期入所療養介護（介護老人保健施設）】福岡県北九州市門司区春日町12番8号", "url": "https://www.kaigokensaku.mhlw.go.jp/40/index.php?action_kouhyou_detail_004_kani=true&JigyosyoCd=4057680086-00&ServiceCd=220&Type=search", "url2": "http://www.yojuen.com/shunkou/" }, "geometry": { "type": "Point", "coordinates": [ 130.972423, 33.9297703 ] } },
{ "type": "Feature", "properties": { "内容": "松恒園【短期入所療養介護（介護老人保健施設）】福岡県北九州市門司区吉志5-5-10", "url": "https://www.kaigokensaku.mhlw.go.jp/40/index.php?action_kouhyou_detail_004_kani=true&JigyosyoCd=4057680102-00&ServiceCd=220&Type=search", "url2": "http://www.torisu-hp.or.jp" }, "geometry": { "type": "Point", "coordinates": [ 130.96094549999998, 33.8651967 ] } },
{ "type": "Feature", "properties": { "内容": "介護老人保健施設　グリーン・ヒル若松【短期入所療養介護（介護老人保健施設）】福岡県北九州市若松区小敷ひびきの一丁目10番1号", "url": "https://www.kaigokensaku.mhlw.go.jp/40/index.php?action_kouhyou_detail_004_kani=true&JigyosyoCd=4056580071-00&ServiceCd=220&Type=search", "url2": "http://www.wakato.or.jp/green_hil/index.html" }, "geometry": { "type": "Point", "coordinates": [ 130.705075004229712, 33.896861717206946 ] } },
{ "type": "Feature", "properties": { "内容": "シルバーケア玄海【短期入所療養介護（介護老人保健施設）】福岡県北九州市若松区大字有毛２９２４", "url": "https://www.kaigokensaku.mhlw.go.jp/40/index.php?action_kouhyou_detail_004_kani=true&JigyosyoCd=4056580097-00&ServiceCd=220&Type=search", "url2": "http://www.care-net.biz/40/seishukai/" }, "geometry": { "type": "Point", "coordinates": [ 130.689030799999955, 33.9340499 ] } },
{ "type": "Feature", "properties": { "内容": "介護老人保健施設　グリーンライフ【短期入所療養介護（介護老人保健施設）】福岡県北九州市若松区童子丸2丁目7番7号", "url": "https://www.kaigokensaku.mhlw.go.jp/40/index.php?action_kouhyou_detail_004_kani=true&JigyosyoCd=4056580089-00&ServiceCd=220&Type=search", "url2": null }, "geometry": { "type": "Point", "coordinates": [ 130.763256, 33.8896204 ] } },
{ "type": "Feature", "properties": { "内容": "介護老人保健施設　けやき【短期入所療養介護（介護老人保健施設）】北九州市若松区西畑町9-72", "url": "https://www.kaigokensaku.mhlw.go.jp/40/index.php?action_kouhyou_detail_004_kani=true&JigyosyoCd=4056580105-00&ServiceCd=220&Type=search", "url2": "http://www.e-keyaki.jp" }, "geometry": { "type": "Point", "coordinates": [ 130.791858499999989, 33.9107048 ] } },
{ "type": "Feature", "properties": { "内容": "介護老人保健施設　牧山いわき苑【短期入所療養介護（介護老人保健施設）】福岡県北九州市戸畑区牧山1丁目1番1号", "url": "https://www.kaigokensaku.mhlw.go.jp/40/index.php?action_kouhyou_detail_004_kani=true&JigyosyoCd=4056480009-00&ServiceCd=220&Type=search", "url2": "http：//www.iwakikai.com" }, "geometry": { "type": "Point", "coordinates": [ 130.819661099999962, 33.892458600000019 ] } },
{ "type": "Feature", "properties": { "内容": "介護老人保健施設　あやめの里【短期入所療養介護（介護老人保健施設）】北九州市戸畑区小芝２丁目４番１８号", "url": "https://www.kaigokensaku.mhlw.go.jp/40/index.php?action_kouhyou_detail_004_kani=true&JigyosyoCd=4056480017-00&ServiceCd=220&Type=search", "url2": "http://www.kyoaikai.com/ayame/" }, "geometry": { "type": "Point", "coordinates": [ 130.8366992, 33.8954547 ] } },
{ "type": "Feature", "properties": { "内容": "介護老人保健施設　伸寿苑【短期入所療養介護（介護老人保健施設）】福岡県北九州市小倉北区篠崎一丁目５番１号", "url": "https://www.kaigokensaku.mhlw.go.jp/40/index.php?action_kouhyou_detail_004_kani=true&JigyosyoCd=4057780001-00&ServiceCd=220&Type=search", "url2": "http://www.kyouwakai.net/" }, "geometry": { "type": "Point", "coordinates": [ 130.869078, 33.8681414 ] } },
{ "type": "Feature", "properties": { "内容": "介護老人保健施設　エメロード三萩野【短期入所療養介護（介護老人保健施設）】北九州市小倉北区東篠崎１丁目９番３号", "url": "https://www.kaigokensaku.mhlw.go.jp/40/index.php?action_kouhyou_detail_004_kani=true&JigyosyoCd=4057780126-00&ServiceCd=220&Type=search", "url2": "http://www.tensuikai.or.jp/tensui/mihagino.html" }, "geometry": { "type": "Point", "coordinates": [ 130.878766400000018, 33.8661139 ] } },
{ "type": "Feature", "properties": { "内容": "介護老人保健施設　「ハーモニー」【短期入所療養介護（介護老人保健施設）】福岡県北九州市小倉北区熊谷2-1-4", "url": "https://www.kaigokensaku.mhlw.go.jp/40/index.php?action_kouhyou_detail_004_kani=true&JigyosyoCd=4057780175-00&ServiceCd=220&Type=search", "url2": "http://www.sinai.or.jp/" }, "geometry": { "type": "Point", "coordinates": [ 130.865636900000027, 33.8582065 ] } },
{ "type": "Feature", "properties": { "内容": "介護老人老人保健施設　エバーグリーン【短期入所療養介護（介護老人保健施設）】福岡県北九州市小倉北区片野新町1丁目11-7", "url": "https://www.kaigokensaku.mhlw.go.jp/40/index.php?action_kouhyou_detail_004_kani=true&JigyosyoCd=4070404373-00&ServiceCd=220&Type=search", "url2": null }, "geometry": { "type": "Point", "coordinates": [ 130.884100981743018, 33.863128205062274 ] } },
{ "type": "Feature", "properties": { "内容": "介護老人保健施設みやこ【短期入所療養介護（介護老人保健施設）】北九州市小倉北区都二丁目１３番８号", "url": "https://www.kaigokensaku.mhlw.go.jp/40/index.php?action_kouhyou_detail_004_kani=true&JigyosyoCd=4057780142-00&ServiceCd=220&Type=search", "url2": "http://www.r-miyako.com" }, "geometry": { "type": "Point", "coordinates": [ 130.845476700000063, 33.8785316 ] } },
{ "type": "Feature", "properties": { "内容": "医療法人　北愛会　介護老人保健施設　桜丘【短期入所療養介護（介護老人保健施設）】福岡県北九州市小倉北区上富野3丁目17-1", "url": "https://www.kaigokensaku.mhlw.go.jp/40/index.php?action_kouhyou_detail_004_kani=true&JigyosyoCd=4057780167-00&ServiceCd=220&Type=search", "url2": "http://hoku-i.jp" }, "geometry": { "type": "Point", "coordinates": [ 130.902994300000046, 33.8851903 ] } },
{ "type": "Feature", "properties": { "内容": "介護老人保健施設博慈苑【短期入所療養介護（介護老人保健施設）】福岡県北九州市小倉南区大字堀越358番地", "url": "https://www.kaigokensaku.mhlw.go.jp/40/index.php?action_kouhyou_detail_004_kani=true&JigyosyoCd=4057780100-00&ServiceCd=220&Type=search", "url2": "http://www.tsutsumikokura.com/" }, "geometry": { "type": "Point", "coordinates": [ 130.88209522883605, 33.817321401946671 ] } },
{ "type": "Feature", "properties": { "内容": "小倉南ヴィラガーデン(ユニット)【短期入所療養介護（介護老人保健施設）】北九州市　小倉南区　葛原東2-14-2", "url": "https://www.kaigokensaku.mhlw.go.jp/40/index.php?action_kouhyou_detail_004_kani=true&JigyosyoCd=4050580010-00&ServiceCd=220&Type=search", "url2": "https://www.jojinkai.com/villa/index.html" }, "geometry": { "type": "Point", "coordinates": [ 130.9294257, 33.840095 ] } },
{ "type": "Feature", "properties": { "内容": "介護老人保健施設　さくら苑【短期入所療養介護（介護老人保健施設）】北九州市小倉南区朽網西一丁目６番６号", "url": "https://www.kaigokensaku.mhlw.go.jp/40/index.php?action_kouhyou_detail_004_kani=true&JigyosyoCd=4057780092-00&ServiceCd=220&Type=search", "url2": "http://www.sakurakai52.or.jp" }, "geometry": { "type": "Point", "coordinates": [ 130.952792100000011, 33.811964 ] } },
{ "type": "Feature", "properties": { "内容": "小倉南ヴィラガーデン【短期入所療養介護（介護老人保健施設）】北九州市　小倉南区　葛原東2-14-2", "url": "https://www.kaigokensaku.mhlw.go.jp/40/index.php?action_kouhyou_detail_004_kani=true&JigyosyoCd=4057780118-00&ServiceCd=220&Type=search", "url2": "http://www.jojinkai.com/villa/" }, "geometry": { "type": "Point", "coordinates": [ 130.929422880517592, 33.840049106619517 ] } },
{ "type": "Feature", "properties": { "内容": "介護老人保健施設わかくさ【短期入所療養介護（介護老人保健施設）】福岡県北九州市小倉南区沼本町4丁目2番19号", "url": "https://www.kaigokensaku.mhlw.go.jp/40/index.php?action_kouhyou_detail_004_kani=true&JigyosyoCd=4057780134-00&ServiceCd=220&Type=search", "url2": "http://www.jikeikai.jp" }, "geometry": { "type": "Point", "coordinates": [ 130.944370299999946, 33.8459647 ] } },
{ "type": "Feature", "properties": { "内容": "介護老人保健施設あけぼの苑【短期入所療養介護（介護老人保健施設）】福岡県北九州市小倉南区大字湯川139番地の21", "url": "https://www.kaigokensaku.mhlw.go.jp/40/index.php?action_kouhyou_detail_004_kani=true&JigyosyoCd=4057780159-00&ServiceCd=220&Type=search", "url2": "http:/www.akebonoen@kitakyu-hp.or.jp." }, "geometry": { "type": "Point", "coordinates": [ 130.9097693, 33.8506108 ] } },
{ "type": "Feature", "properties": { "内容": "介護老人保健施設　シルバーケア若園【短期入所療養介護（介護老人保健施設）】福岡県北九州市小倉南区若園3丁目2-7", "url": "https://www.kaigokensaku.mhlw.go.jp/40/index.php?action_kouhyou_detail_004_kani=true&JigyosyoCd=4057780183-00&ServiceCd=220&Type=search", "url2": null }, "geometry": { "type": "Point", "coordinates": [ 130.888763499999982, 33.8487993 ] } },
{ "type": "Feature", "properties": { "内容": "介護老人保健施設　正寿園【短期入所療養介護（介護老人保健施設）】福岡県北九州市八幡東区大蔵3丁目2番1号", "url": "https://www.kaigokensaku.mhlw.go.jp/40/index.php?action_kouhyou_detail_004_kani=true&JigyosyoCd=4056680087-00&ServiceCd=220&Type=search", "url2": "http://n-sato.com/" }, "geometry": { "type": "Point", "coordinates": [ 130.816950549737612, 33.856656022859958 ] } },
{ "type": "Feature", "properties": { "内容": "介護老人保健施設済生会くれたけ荘【短期入所療養介護（介護老人保健施設）】北九州市八幡東区中尾1丁目22-18", "url": "https://www.kaigokensaku.mhlw.go.jp/40/index.php?action_kouhyou_detail_004_kani=true&JigyosyoCd=4056680129-00&ServiceCd=220&Type=search", "url2": "http://www.saiseikai-kuretakesou.jp" }, "geometry": { "type": "Point", "coordinates": [ 130.829423099999985, 33.8600944 ] } },
{ "type": "Feature", "properties": { "内容": "介護老人保健施設やすらぎ【短期入所療養介護（介護老人保健施設）】福岡県北九州市八幡東区槻田一丁目16-12", "url": "https://www.kaigokensaku.mhlw.go.jp/40/index.php?action_kouhyou_detail_004_kani=true&JigyosyoCd=4056680137-00&ServiceCd=220&Type=search", "url2": "http://www.furate.net/" }, "geometry": { "type": "Point", "coordinates": [ 130.846196500000019, 33.8627362 ] } },
{ "type": "Feature", "properties": { "内容": "介護老人保健施設　翡翠苑【短期入所療養介護（介護老人保健施設）】北九州市八幡西区森下町２７番４３号", "url": "https://www.kaigokensaku.mhlw.go.jp/40/index.php?action_kouhyou_detail_004_kani=true&JigyosyoCd=4056680103-00&ServiceCd=220&Type=search", "url2": "http://www.touchiku-hospital.com/" }, "geometry": { "type": "Point", "coordinates": [ 130.742053805557248, 33.849565003525825 ] } },
{ "type": "Feature", "properties": { "内容": "医療法人新生会　介護老人保健施設　ひまわり【短期入所療養介護（介護老人保健施設）】北九州市八幡西区町上津役東3丁目17番10号", "url": "https://www.kaigokensaku.mhlw.go.jp/40/index.php?action_kouhyou_detail_004_kani=true&JigyosyoCd=4056680152-00&ServiceCd=220&Type=search", "url2": "http://www.shinseikai-hos.or.jp" }, "geometry": { "type": "Point", "coordinates": [ 130.760574899999938, 33.8207558 ] } },
{ "type": "Feature", "properties": { "内容": "介護老人保健施設　サンフラワーズ北九州【短期入所療養介護（介護老人保健施設）】福岡県北九州市八幡西区塔野三丁目16番２号", "url": "https://www.kaigokensaku.mhlw.go.jp/40/index.php?action_kouhyou_detail_004_kani=true&JigyosyoCd=4056680079-00&ServiceCd=220&Type=search", "url2": "http://www.sunflowers-k.com" }, "geometry": { "type": "Point", "coordinates": [ 130.734034248410012, 33.823213878994324 ] } },
{ "type": "Feature", "properties": { "内容": "介護老人保健施設　ナーシングセンター八幡【短期入所療養介護（介護老人保健施設）】福岡県北九州市八幡西区里中3-12-12", "url": "https://www.kaigokensaku.mhlw.go.jp/40/index.php?action_kouhyou_detail_004_kani=true&JigyosyoCd=4056680095-00&ServiceCd=220&Type=search", "url2": "http://www.yahata-hp.com" }, "geometry": { "type": "Point", "coordinates": [ 130.736044075505077, 33.842236157524567 ] } },
{ "type": "Feature", "properties": { "内容": "介護老人保健施設サングレース【短期入所療養介護（介護老人保健施設）】北九州市八幡西区大字則松１０３番地の１", "url": "https://www.kaigokensaku.mhlw.go.jp/40/index.php?action_kouhyou_detail_004_kani=true&JigyosyoCd=4056680111-00&ServiceCd=220&Type=search", "url2": "https://kitakyu-fukushi.or.jp/" }, "geometry": { "type": "Point", "coordinates": [ 130.729343500000027, 33.8526238 ] } },
{ "type": "Feature", "properties": { "内容": "介護老人保健施設しんわ苑【短期入所療養介護（介護老人保健施設）】福岡県北九州市八幡西区楠橋南2丁目19-6", "url": "https://www.kaigokensaku.mhlw.go.jp/40/index.php?action_kouhyou_detail_004_kani=true&JigyosyoCd=4056680145-00&ServiceCd=220&Type=search", "url2": "http://shinwakai-gr.jp" }, "geometry": { "type": "Point", "coordinates": [ 130.731825399999906, 33.7844013 ] } },
{ "type": "Feature", "properties": { "内容": "介護老人保健施設　宗寿苑【短期入所療養介護（介護老人保健施設）】福岡県北九州市八幡西区友田二丁目４番１号", "url": "https://www.kaigokensaku.mhlw.go.jp/40/index.php?action_kouhyou_detail_004_kani=true&JigyosyoCd=4056680160-00&ServiceCd=220&Type=search", "url2": "http://www.soujyuen.com" }, "geometry": { "type": "Point", "coordinates": [ 130.72346, 33.8710824 ] } },
{ "type": "Feature", "properties": { "内容": "介護老人保健施設　香月の杜【短期入所療養介護（介護老人保健施設）】福岡県北九州市八幡西区香月西三丁目10番20号", "url": "https://www.kaigokensaku.mhlw.go.jp/40/index.php?action_kouhyou_detail_004_kani=true&JigyosyoCd=4056680178-00&ServiceCd=220&Type=search", "url2": "https://kourinkai-katsuki.or.jp/related-facilities/katsuki-no-mori/" }, "geometry": { "type": "Point", "coordinates": [ 130.724228700000026, 33.8023297 ] } },
{ "type": "Feature", "properties": { "内容": "介護老人保健施設　Ｍ．Ｔ奈多ケア院【短期入所療養介護（介護老人保健施設）】福岡県福岡市東区雁の巣1-7-30", "url": "https://www.kaigokensaku.mhlw.go.jp/40/index.php?action_kouhyou_detail_004_kani=true&JigyosyoCd=4050380064-00&ServiceCd=220&Type=search", "url2": "http://www.souseikai.or.jp" }, "geometry": { "type": "Point", "coordinates": [ 130.40848040000003, 33.6881241 ] } },
{ "type": "Feature", "properties": { "内容": "みつみ介護老人保健施設【短期入所療養介護（介護老人保健施設）】福岡市東区西戸崎5丁目8-55", "url": "https://www.kaigokensaku.mhlw.go.jp/40/index.php?action_kouhyou_detail_004_kani=true&JigyosyoCd=4050380106-00&ServiceCd=220&Type=search", "url2": "https://fukumitsu.or.jp/mitsumi/" }, "geometry": { "type": "Point", "coordinates": [ 130.3505663, 33.6512506 ] } },
{ "type": "Feature", "properties": { "内容": "介護老人保健施設ローズガーデンM.K.【短期入所療養介護（介護老人保健施設）】福岡県福岡市東区名子１丁目１番５号", "url": "https://www.kaigokensaku.mhlw.go.jp/40/index.php?action_kouhyou_detail_004_kani=true&JigyosyoCd=4050380130-00&ServiceCd=220&Type=search", "url2": "http://asunaro-mk.jp" }, "geometry": { "type": "Point", "coordinates": [ 130.472856099999944, 33.6383201 ] } },
{ "type": "Feature", "properties": { "内容": "金隈老人保健施設フラワーハウス博多【短期入所療養介護（介護老人保健施設）】福岡県福岡市博多区金の隈3-24-8", "url": "https://www.kaigokensaku.mhlw.go.jp/40/index.php?action_kouhyou_detail_004_kani=true&JigyosyoCd=4050380072-00&ServiceCd=220&Type=search", "url2": "http://www.seifu-kai.jp" }, "geometry": { "type": "Point", "coordinates": [ 130.480485199999947, 33.5562825 ] } },
{ "type": "Feature", "properties": { "内容": "ケアセンターサンハウス【短期入所療養介護（介護老人保健施設）】福岡県福岡市博多区諸岡４丁目２８－３２介護老人保健施設　ケアセンターサンハウス", "url": "https://www.kaigokensaku.mhlw.go.jp/40/index.php?action_kouhyou_detail_004_kani=true&JigyosyoCd=4050380122-00&ServiceCd=220&Type=search", "url2": "http://www.yuaikai-tomoda.or.jp/" }, "geometry": { "type": "Point", "coordinates": [ 130.447243599999979, 33.5591672 ] } },
{ "type": "Feature", "properties": { "内容": "介護老人保健施設　楽陽園【短期入所療養介護（介護老人保健施設）】福岡市博多区金の隈３丁目２４番１６号", "url": "https://www.kaigokensaku.mhlw.go.jp/40/index.php?action_kouhyou_detail_004_kani=true&JigyosyoCd=4050380171-00&ServiceCd=220&Type=search", "url2": "https://kanenokuma-hp.jp/rakuyouen/about/" }, "geometry": { "type": "Point", "coordinates": [ 130.4812669, 33.5564336 ] } },
{ "type": "Feature", "properties": { "内容": "介護老人保健施設光【短期入所療養介護（介護老人保健施設）】福岡市博多区吉塚7丁目6－40", "url": "https://www.kaigokensaku.mhlw.go.jp/40/index.php?action_kouhyou_detail_004_kani=true&JigyosyoCd=4050380189-00&ServiceCd=220&Type=search", "url2": "http://www.yoshizuka-hikari.jp" }, "geometry": { "type": "Point", "coordinates": [ 130.431787699999973, 33.6083561 ] } },
{ "type": "Feature", "properties": { "内容": "老健センター　ささおか【短期入所療養介護（介護老人保健施設）】福岡市中央区笹丘１丁目２８番２５号", "url": "https://www.kaigokensaku.mhlw.go.jp/40/index.php?action_kouhyou_detail_004_kani=true&JigyosyoCd=4051180141-00&ServiceCd=220&Type=search", "url2": "http://www.hakuaikai.or.jp" }, "geometry": { "type": "Point", "coordinates": [ 130.377515, 33.5638989 ] } },
{ "type": "Feature", "properties": { "内容": "介護老人保健施設レ・ハビリス桜十字【短期入所療養介護（介護老人保健施設）】福岡県福岡市中央区渡辺通3丁目5-11桜十字メディカルスクエア", "url": "https://www.kaigokensaku.mhlw.go.jp/40/index.php?action_kouhyou_detail_004_kani=true&JigyosyoCd=4050380114-00&ServiceCd=220&Type=search", "url2": "http://www.sj-fukuoka.or.jp/habilis/" }, "geometry": { "type": "Point", "coordinates": [ 130.4045542, 33.5852358 ] } },
{ "type": "Feature", "properties": { "内容": "介護老人保健施設　湯の里まとば【短期入所療養介護（介護老人保健施設）】福岡市南区的場2丁目32-17", "url": "https://www.kaigokensaku.mhlw.go.jp/40/index.php?action_kouhyou_detail_004_kani=true&JigyosyoCd=4051280081-00&ServiceCd=220&Type=search", "url2": "https://www.fukukoukai.or.jp/index.php" }, "geometry": { "type": "Point", "coordinates": [ 130.433758799999964, 33.5408829 ] } },
{ "type": "Feature", "properties": { "内容": "原病院介護老人保健施設花菖蒲【短期入所療養介護（介護老人保健施設）】福岡県福岡市南区若久２丁目６―１", "url": "https://www.kaigokensaku.mhlw.go.jp/40/index.php?action_kouhyou_detail_004_kani=true&JigyosyoCd=4051280107-00&ServiceCd=220&Type=search", "url2": ":http://www.hara-hospital.com/" }, "geometry": { "type": "Point", "coordinates": [ 130.417618100000027, 33.5538866 ] } },
{ "type": "Feature", "properties": { "内容": "医療法人　イースタンクリニック　老人保健施設　木の葉の里【短期入所療養介護（介護老人保健施設）】福岡県福岡市南区多賀２丁目４番６号", "url": "https://www.kaigokensaku.mhlw.go.jp/40/index.php?action_kouhyou_detail_004_kani=true&JigyosyoCd=4051280073-00&ServiceCd=220&Type=search", "url2": "http://konohano-sato.com" }, "geometry": { "type": "Point", "coordinates": [ 130.411276600000065, 33.5597164 ] } },
{ "type": "Feature", "properties": { "内容": "介護老人保健施設　ひのき【短期入所療養介護（介護老人保健施設）】福岡市南区桧原6-44-20", "url": "https://www.kaigokensaku.mhlw.go.jp/40/index.php?action_kouhyou_detail_004_kani=true&JigyosyoCd=4051280099-00&ServiceCd=220&Type=search", "url2": "www.hinoki-kai.com" }, "geometry": { "type": "Point", "coordinates": [ 130.384430100000031, 33.5283057 ] } },
{ "type": "Feature", "properties": { "内容": "介護老人保健施設　松寿苑【短期入所療養介護（介護老人保健施設）】福岡市西区今宿町379-1", "url": "https://www.kaigokensaku.mhlw.go.jp/40/index.php?action_kouhyou_detail_004_kani=true&JigyosyoCd=4051180083-00&ServiceCd=220&Type=search", "url2": "http://www.kisyoukai.jp" }, "geometry": { "type": "Point", "coordinates": [ 130.268856199999959, 33.5720989 ] } },
{ "type": "Feature", "properties": { "内容": "医療法人　海洋会　　介護老人保健施設　春風【短期入所療養介護（介護老人保健施設）】福岡市西区大字飯氏２４３－１", "url": "https://www.kaigokensaku.mhlw.go.jp/40/index.php?action_kouhyou_detail_004_kani=true&JigyosyoCd=4051180109-00&ServiceCd=220&Type=search", "url2": "http://kaiyokai.jp/" }, "geometry": { "type": "Point", "coordinates": [ 130.247938, 33.562579 ] } },
{ "type": "Feature", "properties": { "内容": "介護老人保健施設　ケアプラザ北原【短期入所療養介護（介護老人保健施設）】福岡市西区北原2−2−15", "url": "https://www.kaigokensaku.mhlw.go.jp/40/index.php?action_kouhyou_detail_004_kani=true&JigyosyoCd=4051180174-00&ServiceCd=220&Type=search", "url2": "https://www.tomogiku.or.jp/about/care_plaza_kitabaru" }, "geometry": { "type": "Point", "coordinates": [ 130.255864891160627, 33.580485472322174 ] } },
{ "type": "Feature", "properties": { "内容": "介護老人保健施設　西寿【短期入所療養介護（介護老人保健施設）】福岡県福岡市西区生の松原3-18-9", "url": "https://www.kaigokensaku.mhlw.go.jp/40/index.php?action_kouhyou_detail_004_kani=true&JigyosyoCd=4051180182-00&ServiceCd=220&Type=search", "url2": "http://www.nishifukuhp.or.jp" }, "geometry": { "type": "Point", "coordinates": [ 130.296545899999956, 33.576327700000014 ] } },
{ "type": "Feature", "properties": { "内容": "介護老人保健施設サンライズ壱岐【短期入所療養介護（介護老人保健施設）】福岡県福岡市西区野方1丁目16番32号", "url": "https://www.kaigokensaku.mhlw.go.jp/40/index.php?action_kouhyou_detail_004_kani=true&JigyosyoCd=4071204335-00&ServiceCd=220&Type=search", "url2": "sunrise-iki.jp" }, "geometry": { "type": "Point", "coordinates": [ 130.3119335, 33.5579938 ] } },
{ "type": "Feature", "properties": { "内容": "介護老人保健施設「いこいの森」【短期入所療養介護（介護老人保健施設）】福岡県福岡市城南区東油山6丁目19番23号", "url": "https://www.kaigokensaku.mhlw.go.jp/40/index.php?action_kouhyou_detail_004_kani=true&JigyosyoCd=4051180125-00&ServiceCd=220&Type=search", "url2": "http://www.ikoinomori-8717.or.jp" }, "geometry": { "type": "Point", "coordinates": [ 130.382471900000041, 33.5278501 ] } },
{ "type": "Feature", "properties": { "内容": "とりかい介護老人保健施設【短期入所療養介護（介護老人保健施設）】福岡市城南区鳥飼6丁目3番7号", "url": "https://www.kaigokensaku.mhlw.go.jp/40/index.php?action_kouhyou_detail_004_kani=true&JigyosyoCd=4051180158-00&ServiceCd=220&Type=search", "url2": "http://www.kouikai.jp/roken/index.html" }, "geometry": { "type": "Point", "coordinates": [ 130.366898900000024, 33.5754168 ] } },
{ "type": "Feature", "properties": { "内容": "介護老人保健施設　老健センターながお【短期入所療養介護（介護老人保健施設）】福岡市城南区樋井川3丁目47-1", "url": "https://www.kaigokensaku.mhlw.go.jp/40/index.php?action_kouhyou_detail_004_kani=true&JigyosyoCd=4051180190-00&ServiceCd=220&Type=search", "url2": "http://www.nagao.or.jp/rouken/" }, "geometry": { "type": "Point", "coordinates": [ 130.387823600000047, 33.5441322 ] } },
{ "type": "Feature", "properties": { "内容": "さわら老健センター【短期入所療養介護（介護老人保健施設）】早良1-1-60", "url": "https://www.kaigokensaku.mhlw.go.jp/40/index.php?action_kouhyou_detail_004_kani=true&JigyosyoCd=4051180075-00&ServiceCd=220&Type=search", "url2": "https://www.fukuseikai-group.com/sawara/" }, "geometry": { "type": "Point", "coordinates": [ 130.337036, 33.508437 ] } },
{ "type": "Feature", "properties": { "内容": "介護老人保健施設ひいらぎ【短期入所療養介護（介護老人保健施設）】福岡市早良区干隈3丁目9番2号", "url": "https://www.kaigokensaku.mhlw.go.jp/40/index.php?action_kouhyou_detail_004_kani=true&JigyosyoCd=4051180117-00&ServiceCd=220&Type=search", "url2": "https://seiwakai-hp.jp" }, "geometry": { "type": "Point", "coordinates": [ 130.349192600000038, 33.5535856 ] } },
{ "type": "Feature", "properties": { "内容": "ケアセンターひまわり苑【短期入所療養介護（介護老人保健施設）】福岡市早良区早良１丁目５－５６", "url": "https://www.kaigokensaku.mhlw.go.jp/40/index.php?action_kouhyou_detail_004_kani=true&JigyosyoCd=4051180133-00&ServiceCd=220&Type=search", "url2": "k-himawari@fukuseikai-hp.or.jp" }, "geometry": { "type": "Point", "coordinates": [ 130.336950300000012, 33.5064898 ] } },
{ "type": "Feature", "properties": { "内容": "介護老人保健施設　からざステーション【短期入所療養介護（介護老人保健施設）】福岡県福岡市早良区野芥5丁目6番38号", "url": "https://www.kaigokensaku.mhlw.go.jp/40/index.php?action_kouhyou_detail_004_kani=true&JigyosyoCd=4051180166-00&ServiceCd=220&Type=search", "url2": "http://www.minkodo.com" }, "geometry": { "type": "Point", "coordinates": [ 130.34829, 33.5390992 ] } },
{ "type": "Feature", "properties": { "内容": "介護老人保健施設　サンシャインシティ【短期入所療養介護（介護老人保健施設）】福岡市早良区田村二丁目15番1号", "url": "https://www.kaigokensaku.mhlw.go.jp/40/index.php?action_kouhyou_detail_004_kani=true&JigyosyoCd=4051180208-00&ServiceCd=220&Type=search", "url2": "https://s.fdcnet.ac,jp" }, "geometry": { "type": "Point", "coordinates": [ 130.331601317900095, 33.546454630441637 ] } },
{ "type": "Feature", "properties": { "内容": "介護老人保健施設ぷらいえ【短期入所療養介護（介護老人保健施設）】大牟田市田隈８３０－１", "url": "https://www.kaigokensaku.mhlw.go.jp/40/index.php?action_kouhyou_detail_004_kani=true&JigyosyoCd=4054480134-00&ServiceCd=220&Type=search", "url2": "http://db.omuta.fukuoka.med.or.jp/php/kikan2/disphp.phtml?db=124" }, "geometry": { "type": "Point", "coordinates": [ 130.465099399999986, 33.0575957 ] } },
{ "type": "Feature", "properties": { "内容": "介護老人保健施設はなぞの【短期入所療養介護（介護老人保健施設）】福岡県大牟田市花園町６４－５", "url": "https://www.kaigokensaku.mhlw.go.jp/40/index.php?action_kouhyou_detail_004_kani=true&JigyosyoCd=4054480126-00&ServiceCd=220&Type=search", "url2": "http://www.i-shinwa.com/" }, "geometry": { "type": "Point", "coordinates": [ 130.451071, 33.0211604 ] } },
{ "type": "Feature", "properties": { "内容": "介護老人保健施設ハッピーランド【短期入所療養介護（介護老人保健施設）】福岡県大牟田市大字宮部１７１－２", "url": "https://www.kaigokensaku.mhlw.go.jp/40/index.php?action_kouhyou_detail_004_kani=true&JigyosyoCd=4054480100-00&ServiceCd=220&Type=search", "url2": "http://www.fukuju.or.jp" }, "geometry": { "type": "Point", "coordinates": [ 130.480592699999988, 33.0621122 ] } },
{ "type": "Feature", "properties": { "内容": "介護老人保健施設くろさき苑【短期入所療養介護（介護老人保健施設）】福岡県大牟田市大字岬1254-1", "url": "https://www.kaigokensaku.mhlw.go.jp/40/index.php?action_kouhyou_detail_004_kani=true&JigyosyoCd=4054480092-00&ServiceCd=220&Type=search", "url2": "https://www.k-kurosakien.com" }, "geometry": { "type": "Point", "coordinates": [ 130.441255800000022, 33.0683854 ] } },
{ "type": "Feature", "properties": { "内容": "介護老人保健施設さんぽ【短期入所療養介護（介護老人保健施設）】福岡県大牟田市大字三池866", "url": "https://www.kaigokensaku.mhlw.go.jp/40/index.php?action_kouhyou_detail_004_kani=true&JigyosyoCd=4054480118-00&ServiceCd=220&Type=search", "url2": "http://www.miikehp.com/" }, "geometry": { "type": "Point", "coordinates": [ 130.478617492065496, 33.053159153252793 ] } },
{ "type": "Feature", "properties": { "内容": "済生会大牟田ライフケア院【短期入所療養介護（介護老人保健施設）】福岡県大牟田市大字田隈599-18", "url": "https://www.kaigokensaku.mhlw.go.jp/40/index.php?action_kouhyou_detail_004_kani=true&JigyosyoCd=4054480076-00&ServiceCd=220&Type=search", "url2": "https://omuta-saiseikai.jp/lifecarein/" }, "geometry": { "type": "Point", "coordinates": [ 130.466171600000052, 33.0568291 ] } },
{ "type": "Feature", "properties": { "内容": "済生会大牟田ライフケア院ユニット【短期入所療養介護（介護老人保健施設）】福岡県大牟田田隈599-18", "url": "https://www.kaigokensaku.mhlw.go.jp/40/index.php?action_kouhyou_detail_004_kani=true&JigyosyoCd=4054480142-00&ServiceCd=220&Type=search", "url2": "https://omuta-saiseikai.jp/lifecarein/" }, "geometry": { "type": "Point", "coordinates": [ 130.4696381, 33.0569458 ] } },
{ "type": "Feature", "properties": { "内容": "介護老人保健施設　サンファミリー【短期入所療養介護（介護老人保健施設）】大牟田市大字甘木１１５８", "url": "https://www.kaigokensaku.mhlw.go.jp/40/index.php?action_kouhyou_detail_004_kani=true&JigyosyoCd=4054480084-00&ServiceCd=220&Type=search", "url2": "http://www.sunfamily-omuta.com" }, "geometry": { "type": "Point", "coordinates": [ 130.456146799999942, 33.0634309 ] } },
{ "type": "Feature", "properties": { "内容": "介護老人保健施設こが21短期入所療養介護【短期入所療養介護（介護老人保健施設）】福岡県久留米市宮ノ陣3-3-9", "url": "https://www.kaigokensaku.mhlw.go.jp/40/index.php?action_kouhyou_detail_004_kani=true&JigyosyoCd=4052280130-00&ServiceCd=220&Type=search", "url2": "http://www.tenjinkai.or.jp/page/kaigo/index.html" }, "geometry": { "type": "Point", "coordinates": [ 130.535871400000019, 33.3360024 ] } },
{ "type": "Feature", "properties": { "内容": "介護老人保健施設　サンライフ聖峰【短期入所療養介護（介護老人保健施設）】福岡県久留米市田主丸町田主丸1001-2", "url": "https://www.kaigokensaku.mhlw.go.jp/40/index.php?action_kouhyou_detail_004_kani=true&JigyosyoCd=4052780006-00&ServiceCd=220&Type=search", "url2": "https://seihoukai.or.jp/facility/sunlife_tanki/" }, "geometry": { "type": "Point", "coordinates": [ 130.690755599999989, 33.3365099 ] } },
{ "type": "Feature", "properties": { "内容": "介護老人保健施設　高良台【短期入所療養介護（介護老人保健施設）】久留米市荒木町荒木2020番地", "url": "https://www.kaigokensaku.mhlw.go.jp/40/index.php?action_kouhyou_detail_004_kani=true&JigyosyoCd=4052280072-00&ServiceCd=220&Type=search", "url2": "http://www.kyueikai.jp/" }, "geometry": { "type": "Point", "coordinates": [ 130.509271644889139, 33.26326031322818 ] } },
{ "type": "Feature", "properties": { "内容": "介護老人保健施設　聖母の家【短期入所療養介護（介護老人保健施設）】福岡県久留米市津福本町387-1", "url": "https://www.kaigokensaku.mhlw.go.jp/40/index.php?action_kouhyou_detail_004_kani=true&JigyosyoCd=4052280080-00&ServiceCd=220&Type=search", "url2": "http:/www.st-mary-med.or.jp" }, "geometry": { "type": "Point", "coordinates": [ 130.507550433204642, 33.304254013608386 ] } },
{ "type": "Feature", "properties": { "内容": "介護老人保健施設　ヴィラくしはら【短期入所療養介護（介護老人保健施設）】久留米市東櫛原町１３５６", "url": "https://www.kaigokensaku.mhlw.go.jp/40/index.php?action_kouhyou_detail_004_kani=true&JigyosyoCd=4052280098-00&ServiceCd=220&Type=search", "url2": "http://www.villa-kushihara-pr.jp/" }, "geometry": { "type": "Point", "coordinates": [ 130.522530500000016, 33.3242614 ] } },
{ "type": "Feature", "properties": { "内容": "介護老人保健施設　サンダイヤル【短期入所療養介護（介護老人保健施設）】福岡県久留米市西町６３６番地", "url": "https://www.kaigokensaku.mhlw.go.jp/40/index.php?action_kouhyou_detail_004_kani=true&JigyosyoCd=4052280106-00&ServiceCd=220&Type=search", "url2": "http://www.horikawa.or.jp" }, "geometry": { "type": "Point", "coordinates": [ 130.5169438, 33.3035858 ] } },
{ "type": "Feature", "properties": { "内容": "独立行政法人地域医療機能推進機構　久留米総合病院附属介護老人保健施設【短期入所療養介護（介護老人保健施設）】福岡県久留米市櫛原町２１番地", "url": "https://www.kaigokensaku.mhlw.go.jp/40/index.php?action_kouhyou_detail_004_kani=true&JigyosyoCd=4052280114-00&ServiceCd=220&Type=search", "url2": "https://kurume.jcho.go.jp/" }, "geometry": { "type": "Point", "coordinates": [ 130.513684271827742, 33.318842086155463 ] } },
{ "type": "Feature", "properties": { "内容": "介護老人保健施設　明星苑コスモス【短期入所療養介護（介護老人保健施設）】福岡県久留米市国分町991-1", "url": "https://www.kaigokensaku.mhlw.go.jp/40/index.php?action_kouhyou_detail_004_kani=true&JigyosyoCd=4052280122-00&ServiceCd=220&Type=search", "url2": "http://tsuji-i.com/cosmos.html" }, "geometry": { "type": "Point", "coordinates": [ 130.534335100000021, 33.2918254 ] } },
{ "type": "Feature", "properties": { "内容": "介護老人保健施設すこやか【短期入所療養介護（介護老人保健施設）】福岡県直方市大字頓野975番地", "url": "https://www.kaigokensaku.mhlw.go.jp/40/index.php?action_kouhyou_detail_004_kani=true&JigyosyoCd=4055480091-00&ServiceCd=220&Type=search", "url2": "http://www.onkokai.jp" }, "geometry": { "type": "Point", "coordinates": [ 130.758657500000027, 33.7602959 ] } },
{ "type": "Feature", "properties": { "内容": "介護老人保健施設　ゆうあい福智【短期入所療養介護（介護老人保健施設）】福岡県直方市上頓野2761番地1", "url": "https://www.kaigokensaku.mhlw.go.jp/40/index.php?action_kouhyou_detail_004_kani=true&JigyosyoCd=4055480109-00&ServiceCd=220&Type=search", "url2": "http://yuuai.ichiju-kai.jp" }, "geometry": { "type": "Point", "coordinates": [ 130.7674021, 33.7689851 ] } },
{ "type": "Feature", "properties": { "内容": "ユニット型介護老人保健施設　ゆうあい福智【短期入所療養介護（介護老人保健施設）】福岡県直方市大字上頓野2761番地1", "url": "https://www.kaigokensaku.mhlw.go.jp/40/index.php?action_kouhyou_detail_004_kani=true&JigyosyoCd=4055480117-00&ServiceCd=220&Type=search", "url2": "http://yuuai.ichiju-kai.jp" }, "geometry": { "type": "Point", "coordinates": [ 130.7674021, 33.7689851 ] } },
{ "type": "Feature", "properties": { "内容": "介護老人保健施設サンシルバー直方【短期入所療養介護（介護老人保健施設）】福岡県直方市大字永満寺1347番地", "url": "https://www.kaigokensaku.mhlw.go.jp/40/index.php?action_kouhyou_detail_004_kani=true&JigyosyoCd=4055480083-00&ServiceCd=220&Type=search", "url2": null }, "geometry": { "type": "Point", "coordinates": [ 130.768176899999958, 33.7282611 ] } },
{ "type": "Feature", "properties": { "内容": "介護老人保健施設　　青風苑【短期入所療養介護（介護老人保健施設）】福岡県直方市大字上新入2490番地の14", "url": "https://www.kaigokensaku.mhlw.go.jp/40/index.php?action_kouhyou_detail_004_kani=true&JigyosyoCd=4055480075-00&ServiceCd=220&Type=search", "url2": "http://www.kenmeikai.jp/index.html" }, "geometry": { "type": "Point", "coordinates": [ 130.714445399999988, 33.7416495 ] } },
{ "type": "Feature", "properties": { "内容": "介護老人保健施設　ベスト・シルバー飯塚【短期入所療養介護（介護老人保健施設）】福岡県飯塚市新飯塚1903", "url": "https://www.kaigokensaku.mhlw.go.jp/40/index.php?action_kouhyou_detail_004_kani=true&JigyosyoCd=4055580098-00&ServiceCd=220&Type=search", "url2": "best@mx22.tiki.ne.jp" }, "geometry": { "type": "Point", "coordinates": [ 130.688719899999967, 33.6442067 ] } },
{ "type": "Feature", "properties": { "内容": "介護老人保健施設和泉の澤【短期入所療養介護（介護老人保健施設）】福岡県飯塚市勢田1806-1", "url": "https://www.kaigokensaku.mhlw.go.jp/40/index.php?action_kouhyou_detail_004_kani=true&JigyosyoCd=4055580114-00&ServiceCd=220&Type=search", "url2": "http://www.kouwagroup.or.jp/" }, "geometry": { "type": "Point", "coordinates": [ 130.721518100000054, 33.6960301 ] } },
{ "type": "Feature", "properties": { "内容": "介護老人保健施設あけぼの荘【短期入所療養介護（介護老人保健施設）】福岡県田川市大字夏吉４６番地", "url": "https://www.kaigokensaku.mhlw.go.jp/40/index.php?action_kouhyou_detail_004_kani=true&JigyosyoCd=4055680070-00&ServiceCd=220&Type=search", "url2": "http:www.wakoukai.or.jp/" }, "geometry": { "type": "Point", "coordinates": [ 130.835586400000011, 33.657550600000015 ] } },
{ "type": "Feature", "properties": { "内容": "介護老人保健施設　明寿苑【短期入所療養介護（介護老人保健施設）】福岡県田川市大字川宮1569番地の2", "url": "https://www.kaigokensaku.mhlw.go.jp/40/index.php?action_kouhyou_detail_004_kani=true&JigyosyoCd=4055680088-00&ServiceCd=220&Type=search", "url2": "http://meijuen.jp/" }, "geometry": { "type": "Point", "coordinates": [ 130.800445099999934, 33.6400459 ] } },
{ "type": "Feature", "properties": { "内容": "介護老人保健施設　サンドリーム田川【短期入所療養介護（介護老人保健施設）】福岡県田川市大字伊加利　２０４７－４", "url": "https://www.kaigokensaku.mhlw.go.jp/40/index.php?action_kouhyou_detail_004_kani=true&JigyosyoCd=4055680096-00&ServiceCd=220&Type=search", "url2": "https://sundreamtagawa14528.wixsite.com/my-site" }, "geometry": { "type": "Point", "coordinates": [ 130.825643600000035, 33.6220486 ] } },
{ "type": "Feature", "properties": { "内容": "介護老人保健施設　柳川やすらぎの里【短期入所療養介護（介護老人保健施設）】福岡県柳川市西浜武1076-5介護老人保健施設　柳川やすらぎの里", "url": "https://www.kaigokensaku.mhlw.go.jp/40/index.php?action_kouhyou_detail_004_kani=true&JigyosyoCd=4054380086-00&ServiceCd=220&Type=search", "url2": "http://y-jikeikai.jp" }, "geometry": { "type": "Point", "coordinates": [ 130.385977599999933, 33.170318 ] } },
{ "type": "Feature", "properties": { "内容": "介護老人保健施設　水郷苑【短期入所療養介護（介護老人保健施設）】福岡県柳川市上宮永町柴原２６９番地", "url": "https://www.kaigokensaku.mhlw.go.jp/40/index.php?action_kouhyou_detail_004_kani=true&JigyosyoCd=4054380078-00&ServiceCd=220&Type=search", "url2": "http://www.kouhoukai.org/suigouen/" }, "geometry": { "type": "Point", "coordinates": [ 130.4064032, 33.1553676 ] } },
{ "type": "Feature", "properties": { "内容": "介護老人保健施設シャンティ【短期入所療養介護（介護老人保健施設）】柳川市大和町豊原521-7", "url": "https://www.kaigokensaku.mhlw.go.jp/40/index.php?action_kouhyou_detail_004_kani=true&JigyosyoCd=4054380094-00&ServiceCd=220&Type=search", "url2": "http://www.seiwakai.info" }, "geometry": { "type": "Point", "coordinates": [ 130.423476599999958, 33.147844 ] } },
{ "type": "Feature", "properties": { "内容": "介護老人保健施設　回寿苑【短期入所療養介護（介護老人保健施設）】福岡県八女市黒木町湯辺田270番地介護老人保健施設　回寿苑", "url": "https://www.kaigokensaku.mhlw.go.jp/40/index.php?action_kouhyou_detail_004_kani=true&JigyosyoCd=4052180108-00&ServiceCd=220&Type=search", "url2": "http://www.yamehp.jp/hpmain" }, "geometry": { "type": "Point", "coordinates": [ 130.630705300000045, 33.2108381 ] } },
{ "type": "Feature", "properties": { "内容": "介護老人保健施設　ビハーラ光風【短期入所療養介護（介護老人保健施設）】八女市津江５１３－１", "url": "https://www.kaigokensaku.mhlw.go.jp/40/index.php?action_kouhyou_detail_004_kani=true&JigyosyoCd=4052180082-00&ServiceCd=220&Type=search", "url2": null }, "geometry": { "type": "Point", "coordinates": [ 130.574984399999948, 33.2140259 ] } },
{ "type": "Feature", "properties": { "内容": "介護老人保健施設　グリーンビュー希望ヶ丘【短期入所療養介護（介護老人保健施設）】八女市吉田2221-2", "url": "https://www.kaigokensaku.mhlw.go.jp/40/index.php?action_kouhyou_detail_004_kani=true&JigyosyoCd=4052180090-00&ServiceCd=220&Type=search", "url2": "http://www.ryuuikukai.com/green/index.htm" }, "geometry": { "type": "Point", "coordinates": [ 130.562696100000039, 33.2324433 ] } },
{ "type": "Feature", "properties": { "内容": "介護老人保健施設　のぞみ船小屋【短期入所療養介護（介護老人保健施設）】福岡県筑後市大字志55", "url": "https://www.kaigokensaku.mhlw.go.jp/40/index.php?action_kouhyou_detail_004_kani=true&JigyosyoCd=4052380088-00&ServiceCd=220&Type=search", "url2": "http://www.youzankai.net" }, "geometry": { "type": "Point", "coordinates": [ 130.49848350000002, 33.1852607 ] } },
{ "type": "Feature", "properties": { "内容": "介護老人保健施設　クリーンパル・ゆう【短期入所療養介護（介護老人保健施設）】筑後市大字西牟田６３６３－２", "url": "https://www.kaigokensaku.mhlw.go.jp/40/index.php?action_kouhyou_detail_004_kani=true&JigyosyoCd=4052380070-00&ServiceCd=220&Type=search", "url2": "yuu@cleanpal.jp" }, "geometry": { "type": "Point", "coordinates": [ 130.50014770000007, 33.2407658 ] } },
{ "type": "Feature", "properties": { "内容": "介護老人保健施設　ハッピーライフ【短期入所療養介護（介護老人保健施設）】福岡県大川市向島１５５５－１", "url": "https://www.kaigokensaku.mhlw.go.jp/40/index.php?action_kouhyou_detail_004_kani=true&JigyosyoCd=4052580083-00&ServiceCd=220&Type=search", "url2": "http://fukuda-hp.net" }, "geometry": { "type": "Point", "coordinates": [ 130.373373099999981, 33.211791 ] } },
{ "type": "Feature", "properties": { "内容": "介護老人保健施設　行橋園【短期入所療養介護（介護老人保健施設）】行橋市北泉3丁目11-1", "url": "https://www.kaigokensaku.mhlw.go.jp/40/index.php?action_kouhyou_detail_004_kani=true&JigyosyoCd=4057580039-00&ServiceCd=220&Type=search", "url2": "http://www.yukuhashi-hp.or.jp/yukuhashien/" }, "geometry": { "type": "Point", "coordinates": [ 130.990088931877153, 33.716252056066111 ] } },
{ "type": "Feature", "properties": { "内容": "介護老人保健施設　ほうらい山荘【短期入所療養介護（介護老人保健施設）】福岡県豊前市大字四郎丸１６９０－３", "url": "https://www.kaigokensaku.mhlw.go.jp/40/index.php?action_kouhyou_detail_004_kani=true&JigyosyoCd=4057480081-00&ServiceCd=220&Type=search", "url2": "http://www.houraisansou.com/" }, "geometry": { "type": "Point", "coordinates": [ 131.092123799999968, 33.6044603 ] } },
{ "type": "Feature", "properties": { "内容": "介護老人保健施設　ケアハイツぶぜん【短期入所療養介護（介護老人保健施設）】福岡県豊前市大字千束157－2", "url": "https://www.kaigokensaku.mhlw.go.jp/40/index.php?action_kouhyou_detail_004_kani=true&JigyosyoCd=4057480073-00&ServiceCd=220&Type=search", "url2": null }, "geometry": { "type": "Point", "coordinates": [ 131.128126400000042, 33.6014338 ] } },
{ "type": "Feature", "properties": { "内容": "介護老人保健施設　ガーデンヒルズ【短期入所療養介護（介護老人保健施設）】福岡県　中間市　扇ヶ浦１丁目１４番１号", "url": "https://www.kaigokensaku.mhlw.go.jp/40/index.php?action_kouhyou_detail_004_kani=true&JigyosyoCd=4056280086-00&ServiceCd=220&Type=search", "url2": "http://www.ejkai-noda.com/" }, "geometry": { "type": "Point", "coordinates": [ 130.7201877, 33.8175383 ] } },
{ "type": "Feature", "properties": { "内容": "介護老人保健施設千寿中間【短期入所療養介護（介護老人保健施設）】福岡県中間市通谷1-36-6", "url": "https://www.kaigokensaku.mhlw.go.jp/40/index.php?action_kouhyou_detail_004_kani=true&JigyosyoCd=4056280078-00&ServiceCd=220&Type=search", "url2": "http://www.senju-n.com" }, "geometry": { "type": "Point", "coordinates": [ 130.732630100000051, 33.8238189 ] } },
{ "type": "Feature", "properties": { "内容": "介護老人保健施設　しらさぎ苑【短期入所療養介護（介護老人保健施設）】福岡県小郡市三沢字花聳８５１－１", "url": "https://www.kaigokensaku.mhlw.go.jp/40/index.php?action_kouhyou_detail_004_kani=true&JigyosyoCd=4052680016-00&ServiceCd=220&Type=search", "url2": "http://www.chouseikai.jp/" }, "geometry": { "type": "Point", "coordinates": [ 130.543489099999988, 33.4199806 ] } },
{ "type": "Feature", "properties": { "内容": "介護老人保健施設　弥生園【短期入所療養介護（介護老人保健施設）】福岡県小郡市山隈273-1", "url": "https://www.kaigokensaku.mhlw.go.jp/40/index.php?action_kouhyou_detail_004_kani=true&JigyosyoCd=4052980035-00&ServiceCd=220&Type=search", "url2": "https://www.tenjinkai.or.jp/welfere/service/yayoien" }, "geometry": { "type": "Point", "coordinates": [ 130.5958693, 33.4083402 ] } },
{ "type": "Feature", "properties": { "内容": "介護老人保健施設　ハーモニー聖和【短期入所療養介護（介護老人保健施設）】福岡県筑紫野市大字西小田991番地の3", "url": "https://www.kaigokensaku.mhlw.go.jp/40/index.php?action_kouhyou_detail_004_kani=true&JigyosyoCd=4051780072-00&ServiceCd=220&Type=search", "url2": "www.seiwa-kai.com" }, "geometry": { "type": "Point", "coordinates": [ 130.567943600000035, 33.445411 ] } },
{ "type": "Feature", "properties": { "内容": "介護老人保健施設　ハーモニー聖和（ユニット型）【短期入所療養介護（介護老人保健施設）】福岡県筑紫野市大字西小田991番地の3", "url": "https://www.kaigokensaku.mhlw.go.jp/40/index.php?action_kouhyou_detail_004_kani=true&JigyosyoCd=4051780098-00&ServiceCd=220&Type=search", "url2": "http://seiwa-kai.com/" }, "geometry": { "type": "Point", "coordinates": [ 130.567943600000035, 33.445411 ] } },
{ "type": "Feature", "properties": { "内容": "医療法人　牧和会　介護老人保健施設リハビリハイツアシスト桜台【短期入所療養介護（介護老人保健施設）】福岡県筑紫野市大字常松456-2", "url": "https://www.kaigokensaku.mhlw.go.jp/40/index.php?action_kouhyou_detail_004_kani=true&JigyosyoCd=4051780080-00&ServiceCd=220&Type=search", "url2": "http://www.maki.or.jp" }, "geometry": { "type": "Point", "coordinates": [ 130.539581399999946, 33.4705059 ] } },
{ "type": "Feature", "properties": { "内容": "医療法人つくし会病院　介護老人保健施設はなつくし【短期入所療養介護（介護老人保健施設）】福岡県春日市宝町３丁目２３番１号", "url": "https://www.kaigokensaku.mhlw.go.jp/40/index.php?action_kouhyou_detail_004_kani=true&JigyosyoCd=4051680074-00&ServiceCd=220&Type=search", "url2": "http://tsukushi-kai.com/hanatsukushi/index.html" }, "geometry": { "type": "Point", "coordinates": [ 130.461834100000033, 33.5339734 ] } },
{ "type": "Feature", "properties": { "内容": "医療法人　同仁会　介護老人保険施設　くすの郷【短期入所療養介護（介護老人保健施設）】福岡県大野城市乙金東2丁目17-3", "url": "https://www.kaigokensaku.mhlw.go.jp/40/index.php?action_kouhyou_detail_004_kani=true&JigyosyoCd=4051580084-00&ServiceCd=220&Type=search", "url2": "http://www.otogane.or.jp" }, "geometry": { "type": "Point", "coordinates": [ 130.5001833, 33.5566577 ] } },
{ "type": "Feature", "properties": { "内容": "介護老人保健施設カトレア【短期入所療養介護（介護老人保健施設）】福岡県大野城市南大利二丁目7番1号", "url": "https://www.kaigokensaku.mhlw.go.jp/40/index.php?action_kouhyou_detail_004_kani=true&JigyosyoCd=4051580076-00&ServiceCd=220&Type=search", "url2": "http://www.seiai-riha.com/catorea/" }, "geometry": { "type": "Point", "coordinates": [ 130.480157500000018, 33.5101233 ] } },
{ "type": "Feature", "properties": { "内容": "介護老人保健施設　宗像アコール【短期入所療養介護（介護老人保健施設）】福岡県宗像市光岡１３０", "url": "https://www.kaigokensaku.mhlw.go.jp/40/index.php?action_kouhyou_detail_004_kani=true&JigyosyoCd=4050680075-00&ServiceCd=220&Type=search", "url2": "http://www.ako-ru.jp/" }, "geometry": { "type": "Point", "coordinates": [ 130.5593199, 33.787678 ] } },
{ "type": "Feature", "properties": { "内容": "介護老人保健施設　同朋【短期入所療養介護（介護老人保健施設）】福岡県太宰府市宰都２丁目8-12", "url": "https://www.kaigokensaku.mhlw.go.jp/40/index.php?action_kouhyou_detail_004_kani=true&JigyosyoCd=4051480079-00&ServiceCd=220&Type=search", "url2": "http://www.dohogroup.jp/" }, "geometry": { "type": "Point", "coordinates": [ 130.496611600000051, 33.5178647 ] } },
{ "type": "Feature", "properties": { "内容": "介護老人保健施設　水光苑【短期入所療養介護（介護老人保健施設）】福岡県福津市日蒔野5丁目7-2", "url": "https://www.kaigokensaku.mhlw.go.jp/40/index.php?action_kouhyou_detail_004_kani=true&JigyosyoCd=4050580077-00&ServiceCd=220&Type=search", "url2": "http://www.suikokai.or.jp" }, "geometry": { "type": "Point", "coordinates": [ 130.496627065571943, 33.759834838724117 ] } },
{ "type": "Feature", "properties": { "内容": "ナーシング・ケア宗像【短期入所療養介護（介護老人保健施設）】福岡県福津市上西郷734-3", "url": "https://www.kaigokensaku.mhlw.go.jp/40/index.php?action_kouhyou_detail_004_kani=true&JigyosyoCd=4050580085-00&ServiceCd=220&Type=search", "url2": null }, "geometry": { "type": "Point", "coordinates": [ 130.5107137, 33.7581615 ] } },
{ "type": "Feature", "properties": { "内容": "介護老人保健施設うきは【短期入所療養介護（介護老人保健施設）】福岡県うきは市浮羽町古川1053番地の8", "url": "https://www.kaigokensaku.mhlw.go.jp/40/index.php?action_kouhyou_detail_004_kani=true&JigyosyoCd=4053380079-00&ServiceCd=220&Type=search", "url2": "https://onsen-hp.or.jp" }, "geometry": { "type": "Point", "coordinates": [ 130.810076799999933, 33.3575308 ] } },
{ "type": "Feature", "properties": { "内容": "介護老人保健施設　リストーロ若宮【短期入所療養介護（介護老人保健施設）】福岡県宮若市沼口９６４番地１", "url": "https://www.kaigokensaku.mhlw.go.jp/40/index.php?action_kouhyou_detail_004_kani=true&JigyosyoCd=4055880084-00&ServiceCd=220&Type=search", "url2": "http://www.shiseikai.jp/" }, "geometry": { "type": "Point", "coordinates": [ 130.611074700000017, 33.7364651 ] } },
{ "type": "Feature", "properties": { "内容": "介護老人保健施設なびき苑【短期入所療養介護（介護老人保健施設）】福岡県宮若市下有木1517-1", "url": "https://www.kaigokensaku.mhlw.go.jp/40/index.php?action_kouhyou_detail_004_kani=true&JigyosyoCd=4055880092-00&ServiceCd=220&Type=search", "url2": "nabiki.mints.ne.jp/" }, "geometry": { "type": "Point", "coordinates": [ 130.623540199999979, 33.7509722 ] } },
{ "type": "Feature", "properties": { "内容": "介護老人保健施設　シルバーケア嘉穂【短期入所療養介護（介護老人保健施設）】嘉麻市鴨生480番地1", "url": "https://www.kaigokensaku.mhlw.go.jp/40/index.php?action_kouhyou_detail_004_kani=true&JigyosyoCd=4055780086-00&ServiceCd=220&Type=search", "url2": "http://care-net.biz/40/silvercarekaho/" }, "geometry": { "type": "Point", "coordinates": [ 130.724135781614677, 33.607756281223914 ] } },
{ "type": "Feature", "properties": { "内容": "介護老人保健施設　ほ乃ぼの園【短期入所療養介護（介護老人保健施設）】福岡県嘉麻市馬見64番地2", "url": "https://www.kaigokensaku.mhlw.go.jp/40/index.php?action_kouhyou_detail_004_kani=true&JigyosyoCd=4055780078-00&ServiceCd=220&Type=search", "url2": "http://www.himawarikai.net/" }, "geometry": { "type": "Point", "coordinates": [ 130.754119100000025, 33.5301257 ] } },
{ "type": "Feature", "properties": { "内容": "一般社団法人朝倉医師会介護老人保健施設アスピア【短期入所療養介護（介護老人保健施設）】福岡県朝倉市三奈木２４２０－１５", "url": "https://www.kaigokensaku.mhlw.go.jp/40/index.php?action_kouhyou_detail_004_kani=true&JigyosyoCd=4052480102-00&ServiceCd=220&Type=search", "url2": "http://www.asakura-med.or.jp/aspia/" }, "geometry": { "type": "Point", "coordinates": [ 130.7046451, 33.3997741 ] } },
{ "type": "Feature", "properties": { "内容": "介護老人保健施設　アルファ俊聖【短期入所療養介護（介護老人保健施設）】福岡県朝倉市甘木　１９９－１", "url": "https://www.kaigokensaku.mhlw.go.jp/40/index.php?action_kouhyou_detail_004_kani=true&JigyosyoCd=4052480094-00&ServiceCd=220&Type=search", "url2": "http//www.amagichuuou-hp.jp/" }, "geometry": { "type": "Point", "coordinates": [ 130.659221, 33.416524 ] } },
{ "type": "Feature", "properties": { "内容": "介護老人保健施設　ラ・パス【短期入所療養介護（介護老人保健施設）】福岡県朝倉市菩提寺１８３－５３", "url": "https://www.kaigokensaku.mhlw.go.jp/40/index.php?action_kouhyou_detail_004_kani=true&JigyosyoCd=4052480078-00&ServiceCd=220&Type=search", "url2": "https://jusenkai.com" }, "geometry": { "type": "Point", "coordinates": [ 130.6668671, 33.4311118 ] } },
{ "type": "Feature", "properties": { "内容": "介護老人保健施設　こうわか苑【短期入所療養介護（介護老人保健施設）】福岡県みやま市瀬高町大江1687番地2", "url": "https://www.kaigokensaku.mhlw.go.jp/40/index.php?action_kouhyou_detail_004_kani=true&JigyosyoCd=4054280070-00&ServiceCd=220&Type=search", "url2": "http://www.ykta.jp/kouwakaen" }, "geometry": { "type": "Point", "coordinates": [ 130.4841113, 33.1421486 ] } },
{ "type": "Feature", "properties": { "内容": "介護老人保健施設　寿苑【短期入所療養介護（介護老人保健施設）】福岡県みやま市瀬高町坂田59-1", "url": "https://www.kaigokensaku.mhlw.go.jp/40/index.php?action_kouhyou_detail_004_kani=true&JigyosyoCd=4054280047-00&ServiceCd=220&Type=search", "url2": "http://www.k-kotobukien.com" }, "geometry": { "type": "Point", "coordinates": [ 130.498374199999944, 33.1663409 ] } },
{ "type": "Feature", "properties": { "内容": "介護老人保健施設　アルテンハイムヨコクラ【短期入所療養介護（介護老人保健施設）】福岡県みやま市高田町濃施409", "url": "https://www.kaigokensaku.mhlw.go.jp/40/index.php?action_kouhyou_detail_004_kani=true&JigyosyoCd=4054280096-00&ServiceCd=220&Type=search", "url2": "https://yokokura-hp.or.jp" }, "geometry": { "type": "Point", "coordinates": [ 130.45964170000002, 33.0992526 ] } },
{ "type": "Feature", "properties": { "内容": "介護老人保健施設　まえばる老健センター【短期入所療養介護（介護老人保健施設）】福岡県糸島市志登567-1", "url": "https://www.kaigokensaku.mhlw.go.jp/40/index.php?action_kouhyou_detail_004_kani=true&JigyosyoCd=4052080084-00&ServiceCd=220&Type=search", "url2": "http://www.keishin.or.jp/" }, "geometry": { "type": "Point", "coordinates": [ 130.2180105, 33.5718442 ] } },
{ "type": "Feature", "properties": { "内容": "志摩老健センター・パキス【短期入所療養介護（介護老人保健施設）】福岡県糸島市志摩小富士257", "url": "https://www.kaigokensaku.mhlw.go.jp/40/index.php?action_kouhyou_detail_004_kani=true&JigyosyoCd=4052080100-00&ServiceCd=220&Type=search", "url2": "http://hataegeka.or.jp/pacis/" }, "geometry": { "type": "Point", "coordinates": [ 130.182695, 33.5643744 ] } },
{ "type": "Feature", "properties": { "内容": "介護老人保健施設　ケアプラザ伊都【短期入所療養介護（介護老人保健施設）】福岡県糸島市波多江223-1", "url": "https://www.kaigokensaku.mhlw.go.jp/40/index.php?action_kouhyou_detail_004_kani=true&JigyosyoCd=4052080076-00&ServiceCd=220&Type=search", "url2": "http://www.tomogiku.or.jp/" }, "geometry": { "type": "Point", "coordinates": [ 130.231484499999965, 33.5582798 ] } },
{ "type": "Feature", "properties": { "内容": "介護老人保健施設ふる里【短期入所療養介護（介護老人保健施設）】福岡県糸島市二丈深江２３５９－２", "url": "https://www.kaigokensaku.mhlw.go.jp/40/index.php?action_kouhyou_detail_004_kani=true&JigyosyoCd=4052080118-00&ServiceCd=220&Type=search", "url2": "http://furusato1995.com" }, "geometry": { "type": "Point", "coordinates": [ 130.132572799999906, 33.5084687 ] } },
{ "type": "Feature", "properties": { "内容": "介護老人保健施設あじさい【短期入所療養介護（介護老人保健施設）】福岡県那珂川市下梶原二丁目６番１号", "url": "https://www.kaigokensaku.mhlw.go.jp/40/index.php?action_kouhyou_detail_004_kani=true&JigyosyoCd=4051880088-00&ServiceCd=220&Type=search", "url2": "https://www.nakafuku.jp/about/ajisai/" }, "geometry": { "type": "Point", "coordinates": [ 130.439255499999945, 33.4990092 ] } },
{ "type": "Feature", "properties": { "内容": "医療法人泯江堂三野原病院介護老人保健施設　ささぐり泯江苑【短期入所療養介護（介護老人保健施設）】福岡県糟屋郡篠栗町大字金出宮ノ前3558-2", "url": "https://www.kaigokensaku.mhlw.go.jp/40/index.php?action_kouhyou_detail_004_kani=true&JigyosyoCd=4050480096-00&ServiceCd=220&Type=search", "url2": "http://www.minkodo-minohara.com/" }, "geometry": { "type": "Point", "coordinates": [ 130.536636, 33.624165 ] } },
{ "type": "Feature", "properties": { "内容": "医療法人井上会　介護老人保健施設サンライフ陽光苑【短期入所療養介護（介護老人保健施設）】福岡県糟屋郡篠栗町田中１丁目10番1号", "url": "https://www.kaigokensaku.mhlw.go.jp/40/index.php?action_kouhyou_detail_004_kani=true&JigyosyoCd=4050480112-00&ServiceCd=220&Type=search", "url2": "http://www.sasaguri.or.jp" }, "geometry": { "type": "Point", "coordinates": [ 130.521462299999939, 33.6243696 ] } },
{ "type": "Feature", "properties": { "内容": "介護老人保健施設　永寿苑【短期入所療養介護（介護老人保健施設）】福岡県粕屋郡須恵町大字新原14-7", "url": "https://www.kaigokensaku.mhlw.go.jp/40/index.php?action_kouhyou_detail_004_kani=true&JigyosyoCd=4050480088-00&ServiceCd=220&Type=search", "url2": "http://www.taihei.or.jp" }, "geometry": { "type": "Point", "coordinates": [ 130.5143835, 33.579582 ] } },
{ "type": "Feature", "properties": { "内容": "介護老人保健施設　ニューライフ須恵【短期入所療養介護（介護老人保健施設）】福岡県糟屋郡須恵町大字旅石１１５－４８３", "url": "https://www.kaigokensaku.mhlw.go.jp/40/index.php?action_kouhyou_detail_004_kani=true&JigyosyoCd=4050480104-00&ServiceCd=220&Type=search", "url2": "http://www.s-mito.org" }, "geometry": { "type": "Point", "coordinates": [ 130.496463700000049, 33.5842405 ] } },
{ "type": "Feature", "properties": { "内容": "介護老人保健施設　青洲の里【短期入所療養介護（介護老人保健施設）】福岡県糟屋郡粕屋町長者原西３丁目１３－１", "url": "https://www.kaigokensaku.mhlw.go.jp/40/index.php?action_kouhyou_detail_004_kani=true&JigyosyoCd=4050480138-00&ServiceCd=220&Type=search", "url2": "www.seisyukai-st.jp" }, "geometry": { "type": "Point", "coordinates": [ 130.463640096434034, 33.618369636442438 ] } },
{ "type": "Feature", "properties": { "内容": "リカバリーセンターひびき【短期入所療養介護（介護老人保健施設）】福岡県遠賀郡芦屋町大字芦屋1145-3", "url": "https://www.kaigokensaku.mhlw.go.jp/40/index.php?action_kouhyou_detail_004_kani=true&JigyosyoCd=4056180096-00&ServiceCd=220&Type=search", "url2": "http://www.hibiki.or.jp" }, "geometry": { "type": "Point", "coordinates": [ 130.649861200000032, 33.8713257 ] } },
{ "type": "Feature", "properties": { "内容": "高倉苑【短期入所療養介護（介護老人保健施設）】福岡県遠賀郡岡垣町公園通り１－７－１", "url": "https://www.kaigokensaku.mhlw.go.jp/40/index.php?action_kouhyou_detail_004_kani=true&JigyosyoCd=4056180088-00&ServiceCd=220&Type=search", "url2": "http://www.takakuraen.com" }, "geometry": { "type": "Point", "coordinates": [ 130.611132, 33.8488887 ] } },
{ "type": "Feature", "properties": { "内容": "介護老人保健施設　更生会にじの郷　短期入所療養介護【短期入所療養介護（介護老人保健施設）】中央台3丁目22番1号", "url": "https://www.kaigokensaku.mhlw.go.jp/40/index.php?action_kouhyou_detail_004_kani=true&JigyosyoCd=4056180112-00&ServiceCd=220&Type=search", "url2": "https://www.nihonsyouisya.jp/" }, "geometry": { "type": "Point", "coordinates": [ 130.6227199, 33.8479166 ] } },
{ "type": "Feature", "properties": { "内容": "介護老人保健施設　すずらん【短期入所療養介護（介護老人保健施設）】福岡県遠賀郡遠賀町大字木守1189番地", "url": "https://www.kaigokensaku.mhlw.go.jp/40/index.php?action_kouhyou_detail_004_kani=true&JigyosyoCd=4056180127-00&ServiceCd=220&Type=search", "url2": "www.kenai.or.jp/" }, "geometry": { "type": "Point", "coordinates": [ 130.66756198095095, 33.836195310901964 ] } },
{ "type": "Feature", "properties": { "内容": "地方独立行政法人くらて病院　介護老人保健施設　鞍寿の里【短期入所療養介護（介護老人保健施設）】福岡県鞍手郡鞍手町大字中山2425-8", "url": "https://www.kaigokensaku.mhlw.go.jp/40/index.php?action_kouhyou_detail_004_kani=true&JigyosyoCd=4055180113-00&ServiceCd=220&Type=search", "url2": "http://kurate-hp.com/anju_no_sato/index.html" }, "geometry": { "type": "Point", "coordinates": [ 130.6876737, 33.7852529 ] } },
{ "type": "Feature", "properties": { "内容": "介護老人保健施設さくら園【短期入所療養介護（介護老人保健施設）】福岡県嘉穂郡桂川町大字土居877番地", "url": "https://www.kaigokensaku.mhlw.go.jp/40/index.php?action_kouhyou_detail_004_kani=true&JigyosyoCd=4055280111-00&ServiceCd=220&Type=search", "url2": "https://sakuraen5550.jp" }, "geometry": { "type": "Point", "coordinates": [ 130.6733825, 33.5889717 ] } },
{ "type": "Feature", "properties": { "内容": "介護老人保健施設　城山荘【短期入所療養介護（介護老人保健施設）】福岡県朝倉郡筑前町大久保５０１番地", "url": "https://www.kaigokensaku.mhlw.go.jp/40/index.php?action_kouhyou_detail_004_kani=true&JigyosyoCd=4053180073-00&ServiceCd=220&Type=search", "url2": "http://uraume.jp/" }, "geometry": { "type": "Point", "coordinates": [ 130.613027099999954, 33.4322463 ] } },
{ "type": "Feature", "properties": { "内容": "介護老人保健施設　サンビレッヂ朝日ヶ丘【短期入所療養介護（介護老人保健施設）】福岡県朝倉郡筑前町朝日568番地", "url": "https://www.kaigokensaku.mhlw.go.jp/40/index.php?action_kouhyou_detail_004_kani=true&JigyosyoCd=4053180081-00&ServiceCd=220&Type=search", "url2": "http://www.chourouen.or.jp/" }, "geometry": { "type": "Point", "coordinates": [ 130.569993299999965, 33.4748222 ] } },
{ "type": "Feature", "properties": { "内容": "介護老人保健施設　大木しょうふく苑【短期入所療養介護（介護老人保健施設）】福岡県三潴郡大木町大字上八院1597", "url": "https://www.kaigokensaku.mhlw.go.jp/40/index.php?action_kouhyou_detail_004_kani=true&JigyosyoCd=4053480010-00&ServiceCd=220&Type=search", "url2": null }, "geometry": { "type": "Point", "coordinates": [ 130.439983, 33.2132404 ] } },
{ "type": "Feature", "properties": { "内容": "介護老人保健施設舞風台【短期入所療養介護（介護老人保健施設）】福岡県八女郡広川町大字水原1498番地", "url": "https://www.kaigokensaku.mhlw.go.jp/40/index.php?action_kouhyou_detail_004_kani=true&JigyosyoCd=4053580082-00&ServiceCd=220&Type=search", "url2": "www.yh-bufudai.jp" }, "geometry": { "type": "Point", "coordinates": [ 130.589796299999989, 33.242734 ] } },
{ "type": "Feature", "properties": { "内容": "介護老人保健施設舞風台ユニットケア棟【短期入所療養介護（介護老人保健施設）】福岡県八女郡広川町大字水原1498番地", "url": "https://www.kaigokensaku.mhlw.go.jp/40/index.php?action_kouhyou_detail_004_kani=true&JigyosyoCd=4053580090-00&ServiceCd=220&Type=search", "url2": "http://www.yh-bufudai.jp/" }, "geometry": { "type": "Point", "coordinates": [ 130.589828615205448, 33.242780213403989 ] } },
{ "type": "Feature", "properties": { "内容": "介護老人保健施設　サングリーンそえだ【短期入所療養介護（介護老人保健施設）】福岡県田川郡添田町大字庄1134-1", "url": "https://www.kaigokensaku.mhlw.go.jp/40/index.php?action_kouhyou_detail_004_kani=true&JigyosyoCd=4055380051-00&ServiceCd=220&Type=search", "url2": "http://www.tenjyu-kai.com/" }, "geometry": { "type": "Point", "coordinates": [ 130.853318132540835, 33.578150382452904 ] } },
{ "type": "Feature", "properties": { "内容": "介護老人保健施設レイクヴィラたぎり【短期入所療養介護（介護老人保健施設）】福岡県田川郡糸田町字木実浦870-3介護老人保健施設レイクヴィラたぎり", "url": "https://www.kaigokensaku.mhlw.go.jp/40/index.php?action_kouhyou_detail_004_kani=true&JigyosyoCd=4059580011-00&ServiceCd=220&Type=search", "url2": "http://www.lakevillatagiri.sakura.ne.jp/" }, "geometry": { "type": "Point", "coordinates": [ 130.766803957919308, 33.648922068434324 ] } },
{ "type": "Feature", "properties": { "内容": "介護老人保健施設ユニット型レイクヴィラたぎり【短期入所療養介護（介護老人保健施設）】福岡県田川郡糸田町字木実浦８７０－３介護老人保健施設ユニット型レイクヴィラたぎり", "url": "https://www.kaigokensaku.mhlw.go.jp/40/index.php?action_kouhyou_detail_004_kani=true&JigyosyoCd=4059580029-00&ServiceCd=220&Type=search", "url2": "http://www.lakevillatagiri.sakura.ne.jp/" }, "geometry": { "type": "Point", "coordinates": [ 130.766787864665218, 33.648913137231204 ] } },
{ "type": "Feature", "properties": { "内容": "介護老人保健施設　恵の里【短期入所療養介護（介護老人保健施設）】福岡県田川郡川崎町大字川崎3204番地1", "url": "https://www.kaigokensaku.mhlw.go.jp/40/index.php?action_kouhyou_detail_004_kani=true&JigyosyoCd=4055380077-00&ServiceCd=220&Type=search", "url2": "meguminosato4044@yahoo.co.jp" }, "geometry": { "type": "Point", "coordinates": [ 130.8075349, 33.5817629 ] } },
{ "type": "Feature", "properties": { "内容": "介護老人保健施設　笑寿の森【短期入所療養介護（介護老人保健施設）】田川郡福智町赤池510番地131", "url": "https://www.kaigokensaku.mhlw.go.jp/40/index.php?action_kouhyou_detail_004_kani=true&JigyosyoCd=4055380085-00&ServiceCd=220&Type=search", "url2": "http://www.kyuwakai.or.jp" }, "geometry": { "type": "Point", "coordinates": [ 130.760642400000052, 33.6955396 ] } },
{ "type": "Feature", "properties": { "内容": "介護老人保健施設　慈恵苑【短期入所療養介護（介護老人保健施設）】福岡県田川郡福智町弁城３５５７番地", "url": "https://www.kaigokensaku.mhlw.go.jp/40/index.php?action_kouhyou_detail_004_kani=true&JigyosyoCd=4055380028-00&ServiceCd=220&Type=search", "url2": "http://keiwakai-group.or.jp/jikeien/" }, "geometry": { "type": "Point", "coordinates": [ 130.786100300000044, 33.6927659 ] } },
{ "type": "Feature", "properties": { "内容": "介護老人保健施設　博愛苑【短期入所療養介護（介護老人保健施設）】福岡県京都郡苅田町大字提字唐松2781番地", "url": "https://www.kaigokensaku.mhlw.go.jp/40/index.php?action_kouhyou_detail_004_kani=true&JigyosyoCd=4057380091-00&ServiceCd=220&Type=search", "url2": "http://www.hakuaikai-group.jp/hakuaien/" }, "geometry": { "type": "Point", "coordinates": [ 130.9805103, 33.7759209 ] } },
{ "type": "Feature", "properties": { "内容": "介護老人保健施設　菖蒲【短期入所療養介護（介護老人保健施設）】福岡県京都郡みやこ町勝山箕田317番地", "url": "https://www.kaigokensaku.mhlw.go.jp/40/index.php?action_kouhyou_detail_004_kani=true&JigyosyoCd=4057380109-00&ServiceCd=220&Type=search", "url2": "http://www.youmeikai.jp/" }, "geometry": { "type": "Point", "coordinates": [ 130.906611199999986, 33.6926812 ] } },
{ "type": "Feature", "properties": { "内容": "アデリーヌみやこ【短期入所療養介護（介護老人保健施設）】福岡県京都郡みやこ町豊津２１２８", "url": "https://www.kaigokensaku.mhlw.go.jp/40/index.php?action_kouhyou_detail_004_kani=true&JigyosyoCd=4057380083-00&ServiceCd=220&Type=search", "url2": "http://www5ocn.ne.jp/^a-miyako" }, "geometry": { "type": "Point", "coordinates": [ 130.973583700000063, 33.6638187 ] } },
{ "type": "Feature", "properties": { "内容": "介護老人保健施設　ピア・ハート【短期入所療養介護（介護老人保健施設）】福岡県　築上郡　築上町　大字安武８４４－２", "url": "https://www.kaigokensaku.mhlw.go.jp/40/index.php?action_kouhyou_detail_004_kani=true&JigyosyoCd=4057280093-00&ServiceCd=220&Type=search", "url2": null }, "geometry": { "type": "Point", "coordinates": [ 131.004878600000012, 33.657869 ] } },
{ "type": "Feature", "properties": { "内容": "介護老人保健施設　ピア・ハートⅡ【短期入所療養介護（介護老人保健施設）】福岡県築上郡築上町安武844-2", "url": "https://www.kaigokensaku.mhlw.go.jp/40/index.php?action_kouhyou_detail_004_kani=true&JigyosyoCd=4057280101-00&ServiceCd=220&Type=search", "url2": null }, "geometry": { "type": "Point", "coordinates": [ 131.004878600000012, 33.657869 ] } }
]
}
