{
"type": "FeatureCollection",
"name": "geo_40_定期巡回・随時対応型訪問介護看護",
"crs": { "type": "name", "properties": { "name": "urn:ogc:def:crs:OGC:1.3:CRS84" } },
"features": [
{ "type": "Feature", "properties": { "内容": "健生見回り訪問サービス【定期巡回・随時対応型訪問介護看護】東新町二丁目3番31-102号", "url": "https://www.kaigokensaku.mhlw.go.jp/40/index.php?action_kouhyou_detail_004_kani=true&JigyosyoCd=4090100563-00&ServiceCd=760&Type=search", "url2": null }, "geometry": { "type": "Point", "coordinates": [ 130.925229019165243, 33.891099133358978 ] } },
{ "type": "Feature", "properties": { "内容": "春風巡回サービス【定期巡回・随時対応型訪問介護看護】福岡県北九州市門司区春日町22-1", "url": "https://www.kaigokensaku.mhlw.go.jp/40/index.php?action_kouhyou_detail_004_kani=true&JigyosyoCd=4090100472-00&ServiceCd=760&Type=search", "url2": null }, "geometry": { "type": "Point", "coordinates": [ 130.972735300000068, 33.9295537 ] } },
{ "type": "Feature", "properties": { "内容": "定期巡回ステーション彩生【定期巡回・随時対応型訪問介護看護】福岡県北九州市若松区上原町8-1メディカルケアホーム彩生", "url": "https://www.kaigokensaku.mhlw.go.jp/40/index.php?action_kouhyou_detail_004_kani=true&JigyosyoCd=4090200298-00&ServiceCd=760&Type=search", "url2": "https://wakazono-mch.com/saisei/" }, "geometry": { "type": "Point", "coordinates": [ 130.792529300000012, 33.9140829 ] } },
{ "type": "Feature", "properties": { "内容": "だから安心【定期巡回・随時対応型訪問介護看護】福岡県北九州市若松区東小石町６－３６サービス付き高齢者向け住宅そよ風", "url": "https://www.kaigokensaku.mhlw.go.jp/40/index.php?action_kouhyou_detail_004_kani=true&JigyosyoCd=4090200132-00&ServiceCd=760&Type=search", "url2": null }, "geometry": { "type": "Point", "coordinates": [ 130.7949001, 33.9183021 ] } },
{ "type": "Feature", "properties": { "内容": "ケアネットわかまつ【定期巡回・随時対応型訪問介護看護】福岡県北九州市若松区花野路一丁目3-1ナーシングホームわかまつ", "url": "https://www.kaigokensaku.mhlw.go.jp/40/index.php?action_kouhyou_detail_004_kani=true&JigyosyoCd=4090200215-00&ServiceCd=760&Type=search", "url2": "https://www.iwasaki-group.co.jp/" }, "geometry": { "type": "Point", "coordinates": [ 130.682054535443058, 33.907006527387843 ] } },
{ "type": "Feature", "properties": { "内容": "あやめ巡回ステーション【定期巡回・随時対応型訪問介護看護】福岡県北九州市戸畑区明治町10番18号明治町クリニック4階", "url": "https://www.kaigokensaku.mhlw.go.jp/40/index.php?action_kouhyou_detail_004_kani=true&JigyosyoCd=4090300148-00&ServiceCd=760&Type=search", "url2": "http://www.kyoaikai.com/" }, "geometry": { "type": "Point", "coordinates": [ 130.8234086, 33.8991404 ] } },
{ "type": "Feature", "properties": { "内容": "定期巡回・随時対応型訪問介護看護ナースケア北九州【定期巡回・随時対応型訪問介護看護】福岡県北九州市戸畑区境川２丁目１４－３１サンドリームビル2F", "url": "https://www.kaigokensaku.mhlw.go.jp/40/index.php?action_kouhyou_detail_004_kani=true&JigyosyoCd=4090300213-00&ServiceCd=760&Type=search", "url2": "http://fukuoka-zaitaku.com" }, "geometry": { "type": "Point", "coordinates": [ 130.844833599999987, 33.8936437 ] } },
{ "type": "Feature", "properties": { "内容": "株式会社　モナトリエ・デフォレ【定期巡回・随時対応型訪問介護看護】魚町４丁目３－８", "url": "https://www.kaigokensaku.mhlw.go.jp/40/index.php?action_kouhyou_detail_004_kani=true&JigyosyoCd=4090400419-00&ServiceCd=760&Type=search", "url2": "www.monatelier.jp" }, "geometry": { "type": "Point", "coordinates": [ 130.8803614, 33.8813244 ] } },
{ "type": "Feature", "properties": { "内容": "ケアネットこくら【定期巡回・随時対応型訪問介護看護】下冨野3丁目11番8号", "url": "https://www.kaigokensaku.mhlw.go.jp/40/index.php?action_kouhyou_detail_004_kani=true&JigyosyoCd=4090400682-00&ServiceCd=760&Type=search", "url2": null }, "geometry": { "type": "Point", "coordinates": [ 130.897125365592359, 33.880635996062146 ] } },
{ "type": "Feature", "properties": { "内容": "ケアネットいわさき【定期巡回・随時対応型訪問介護看護】福岡県北九州市小倉北区篠崎2-48-32", "url": "https://www.kaigokensaku.mhlw.go.jp/40/index.php?action_kouhyou_detail_004_kani=true&JigyosyoCd=4090500309-00&ServiceCd=760&Type=search", "url2": null }, "geometry": { "type": "Point", "coordinates": [ 130.871787767757155, 33.861820473255314 ] } },
{ "type": "Feature", "properties": { "内容": "ライフサポートセンター　おおごう【定期巡回・随時対応型訪問介護看護】清水五丁目11-35ねむの郷", "url": "https://www.kaigokensaku.mhlw.go.jp/40/index.php?action_kouhyou_detail_004_kani=true&JigyosyoCd=4090400344-00&ServiceCd=760&Type=search", "url2": "ｈｔｔｐ：//www.ohgokai.or.jp" }, "geometry": { "type": "Point", "coordinates": [ 130.853221918701934, 33.870408492650661 ] } },
{ "type": "Feature", "properties": { "内容": "巡回ステーションけんわ大手町【定期巡回・随時対応型訪問介護看護】福岡県北九州市小倉北区大手町14番22号", "url": "https://www.kaigokensaku.mhlw.go.jp/40/index.php?action_kouhyou_detail_004_kani=true&JigyosyoCd=4090400369-00&ServiceCd=760&Type=search", "url2": "http://kitakyulife.com" }, "geometry": { "type": "Point", "coordinates": [ 130.869847199999981, 33.8748851 ] } },
{ "type": "Feature", "properties": { "内容": "巡回ステーションつむぎ【定期巡回・随時対応型訪問介護看護】福岡県北九州市小倉北区下富野２丁目10－31", "url": "https://www.kaigokensaku.mhlw.go.jp/40/index.php?action_kouhyou_detail_004_kani=true&JigyosyoCd=4090400609-00&ServiceCd=760&Type=search", "url2": "https://www.medicarehouse-tomino.jp" }, "geometry": { "type": "Point", "coordinates": [ 130.898621700000035, 33.8814733 ] } },
{ "type": "Feature", "properties": { "内容": "HASC小倉【定期巡回・随時対応型訪問介護看護】福岡県北九州市小倉北区下到津3丁目5-8", "url": "https://www.kaigokensaku.mhlw.go.jp/40/index.php?action_kouhyou_detail_004_kani=true&JigyosyoCd=4090400740-00&ServiceCd=760&Type=search", "url2": "https://www.hinata-scs.com" }, "geometry": { "type": "Point", "coordinates": [ 130.8544891, 33.8781057 ] } },
{ "type": "Feature", "properties": { "内容": "定期巡回ステーションずっといえ【定期巡回・随時対応型訪問介護看護】福岡県北九州市小倉南区若園2丁目13番24号スエヒロビル201", "url": "https://www.kaigokensaku.mhlw.go.jp/40/index.php?action_kouhyou_detail_004_kani=true&JigyosyoCd=4090500838-00&ServiceCd=760&Type=search", "url2": null }, "geometry": { "type": "Point", "coordinates": [ 130.889604600000013, 33.850717 ] } },
{ "type": "Feature", "properties": { "内容": "定期巡回随時対応型訪問介護看護事業所かなた【定期巡回・随時対応型訪問介護看護】福岡県北九州市八幡東区桃園1丁目５－１メディカルビレッジ桃園", "url": "https://www.kaigokensaku.mhlw.go.jp/40/index.php?action_kouhyou_detail_004_kani=true&JigyosyoCd=4090600133-00&ServiceCd=760&Type=search", "url2": "http://www.haruka-mc..jp/" }, "geometry": { "type": "Point", "coordinates": [ 130.784613199999967, 33.8632102 ] } },
{ "type": "Feature", "properties": { "内容": "ほほえみ24時間在宅ケアセンター【定期巡回・随時対応型訪問介護看護】永犬丸南町2－2－41", "url": "https://www.kaigokensaku.mhlw.go.jp/40/index.php?action_kouhyou_detail_004_kani=true&JigyosyoCd=4090700370-00&ServiceCd=760&Type=search", "url2": "ｈｔｔｐｓ：//www.hhohoemi-gr.com" }, "geometry": { "type": "Point", "coordinates": [ 130.729938400000037, 33.8340233 ] } },
{ "type": "Feature", "properties": { "内容": "ほほえみ２４時間在宅ケアセンター【定期巡回・随時対応型訪問介護看護】北九州市八幡西区永犬丸南町２丁目２番４１号", "url": "https://www.kaigokensaku.mhlw.go.jp/40/index.php?action_kouhyou_detail_004_kani=true&JigyosyoCd=4090701022-00&ServiceCd=760&Type=search", "url2": "https://www.hohoemi-gr.com/" }, "geometry": { "type": "Point", "coordinates": [ 130.729897, 33.8340433 ] } },
{ "type": "Feature", "properties": { "内容": "医療法人慈恵睦会　むつみ定期巡回サービス【定期巡回・随時対応型訪問介護看護】北九州市八幡西区３丁目２番30号", "url": "https://www.kaigokensaku.mhlw.go.jp/40/index.php?action_kouhyou_detail_004_kani=true&JigyosyoCd=4090700693-00&ServiceCd=760&Type=search", "url2": "mutsumi.or.jp" }, "geometry": { "type": "Point", "coordinates": [ 130.719590299999936, 33.7824208 ] } },
{ "type": "Feature", "properties": { "内容": "定期巡回サービス土屋北九州【定期巡回・随時対応型訪問介護看護】木屋瀬東１丁目6-2サパン長谷川B棟101", "url": "https://www.kaigokensaku.mhlw.go.jp/40/index.php?action_kouhyou_detail_004_kani=true&JigyosyoCd=4090701139-00&ServiceCd=760&Type=search", "url2": "https://tcy.co.jp/" }, "geometry": { "type": "Point", "coordinates": [ 130.7290248, 33.7806775 ] } },
{ "type": "Feature", "properties": { "内容": "けあこーるせんたー　ここっちゃ【定期巡回・随時対応型訪問介護看護】福岡県北九州市八幡西区中の原3-1-10", "url": "https://www.kaigokensaku.mhlw.go.jp/40/index.php?action_kouhyou_detail_004_kani=true&JigyosyoCd=4090701113-00&ServiceCd=760&Type=search", "url2": null }, "geometry": { "type": "Point", "coordinates": [ 130.751724045816786, 33.833342825770046 ] } },
{ "type": "Feature", "properties": { "内容": "定期巡回ステーション　ひねもすの和【定期巡回・随時対応型訪問介護看護】福岡県北九州市八幡西区茶屋の原２丁目６－６", "url": "https://www.kaigokensaku.mhlw.go.jp/40/index.php?action_kouhyou_detail_004_kani=true&JigyosyoCd=4090700735-00&ServiceCd=760&Type=search", "url2": "minori2009.com" }, "geometry": { "type": "Point", "coordinates": [ 130.740241974868809, 33.79219673151686 ] } },
{ "type": "Feature", "properties": { "内容": "グリーンコープ定期巡回センターおひらき【定期巡回・随時対応型訪問介護看護】福岡県北九州市八幡西区御開三丁目40-47", "url": "https://www.kaigokensaku.mhlw.go.jp/40/index.php?action_kouhyou_detail_004_kani=true&JigyosyoCd=4090700669-00&ServiceCd=760&Type=search", "url2": "http://www.hukushi-greencoop.or.jp/" }, "geometry": { "type": "Point", "coordinates": [ 130.737671800000044, 33.890481 ] } },
{ "type": "Feature", "properties": { "内容": "テポーレ巡回サービス【定期巡回・随時対応型訪問介護看護】福岡県福岡市東区千早2丁目3-28", "url": "https://www.kaigokensaku.mhlw.go.jp/40/index.php?action_kouhyou_detail_004_kani=true&JigyosyoCd=4090800675-00&ServiceCd=760&Type=search", "url2": null }, "geometry": { "type": "Point", "coordinates": [ 130.432480199999958, 33.645235899999989 ] } },
{ "type": "Feature", "properties": { "内容": "定期巡回サービス　ファミリア【定期巡回・随時対応型訪問介護看護】香椎駅東3-12-51ステラ香椎101", "url": "https://www.kaigokensaku.mhlw.go.jp/40/index.php?action_kouhyou_detail_004_kani=true&JigyosyoCd=4090800741-00&ServiceCd=760&Type=search", "url2": "https://familia-teiki.co.jp/" }, "geometry": { "type": "Point", "coordinates": [ 130.4492466, 33.6637911 ] } },
{ "type": "Feature", "properties": { "内容": "定期巡回げんき【定期巡回・随時対応型訪問介護看護】西戸崎6丁目-17有料老人ホームげんき内", "url": "https://www.kaigokensaku.mhlw.go.jp/40/index.php?action_kouhyou_detail_004_kani=true&JigyosyoCd=4090800774-00&ServiceCd=760&Type=search", "url2": null }, "geometry": { "type": "Point", "coordinates": [ 130.348610687805177, 33.652858665805994 ] } },
{ "type": "Feature", "properties": { "内容": "定巡宮前【定期巡回・随時対応型訪問介護看護】福岡県福岡市東区馬出2丁目29番１０ソルヴェール馬出101", "url": "https://www.kaigokensaku.mhlw.go.jp/40/index.php?action_kouhyou_detail_004_kani=true&JigyosyoCd=4090800840-00&ServiceCd=760&Type=search", "url2": "http//www.ober.co.jp" }, "geometry": { "type": "Point", "coordinates": [ 130.418699800000013, 33.6137467 ] } },
{ "type": "Feature", "properties": { "内容": "巡回サービス　創生会　海の中道【定期巡回・随時対応型訪問介護看護】福岡市東区奈多1丁目2-2-2階グッドタイムホームⅠ　海の中道", "url": "https://www.kaigokensaku.mhlw.go.jp/40/index.php?action_kouhyou_detail_004_kani=true&JigyosyoCd=4090800386-00&ServiceCd=760&Type=search", "url2": "http://www.souseikai.or.jp/" }, "geometry": { "type": "Point", "coordinates": [ 130.418965699999916, 33.690096199999985 ] } },
{ "type": "Feature", "properties": { "内容": "定巡名島町【定期巡回・随時対応型訪問介護看護】福岡県福岡市東区名島2丁目35番21号", "url": "https://www.kaigokensaku.mhlw.go.jp/40/index.php?action_kouhyou_detail_004_kani=true&JigyosyoCd=4090800618-00&ServiceCd=760&Type=search", "url2": "https://www.ober.co.jp/" }, "geometry": { "type": "Point", "coordinates": [ 130.4292934, 33.6431567 ] } },
{ "type": "Feature", "properties": { "内容": "テポーレ巡回サービス原田【定期巡回・随時対応型訪問介護看護】福岡県福岡市東区原田4丁目16-1", "url": "https://www.kaigokensaku.mhlw.go.jp/40/index.php?action_kouhyou_detail_004_kani=true&JigyosyoCd=4090800766-00&ServiceCd=760&Type=search", "url2": "http://www.tepore.jp/" }, "geometry": { "type": "Point", "coordinates": [ 130.443634800000012, 33.6240474 ] } },
{ "type": "Feature", "properties": { "内容": "ふくおか福祉サービス協会　定巡東部【定期巡回・随時対応型訪問介護看護】福岡県福岡市博多区東光２丁目8-17古門ビル", "url": "https://www.kaigokensaku.mhlw.go.jp/40/index.php?action_kouhyou_detail_004_kani=true&JigyosyoCd=4090900459-00&ServiceCd=760&Type=search", "url2": "http://www.fukuwel.or.jp" }, "geometry": { "type": "Point", "coordinates": [ 130.426977599999987, 33.5946782 ] } },
{ "type": "Feature", "properties": { "内容": "巡回介護ひまわり【定期巡回・随時対応型訪問介護看護】福岡市博多区千代5－18－7－3階ＦＨＫビル3階", "url": "https://www.kaigokensaku.mhlw.go.jp/40/index.php?action_kouhyou_detail_004_kani=true&JigyosyoCd=4090900152-00&ServiceCd=760&Type=search", "url2": "http://www.npo-hima.net/hs_himawari.html" }, "geometry": { "type": "Point", "coordinates": [ 130.411529900000033, 33.6082323 ] } },
{ "type": "Feature", "properties": { "内容": "さくら巡回サービス【定期巡回・随時対応型訪問介護看護】福岡県福岡市博多区麦野4-33-24サンホームさくら", "url": "https://www.kaigokensaku.mhlw.go.jp/40/index.php?action_kouhyou_detail_004_kani=true&JigyosyoCd=4090900335-00&ServiceCd=760&Type=search", "url2": "http://www.houshikai.info/" }, "geometry": { "type": "Point", "coordinates": [ 130.460746615344306, 33.548277742109569 ] } },
{ "type": "Feature", "properties": { "内容": "ケアネットワークひゅうが博多【定期巡回・随時対応型訪問介護看護】福岡県福岡博多区月隈6丁目22-20フットワーク空港南303号", "url": "https://www.kaigokensaku.mhlw.go.jp/40/index.php?action_kouhyou_detail_004_kani=true&JigyosyoCd=4090900392-00&ServiceCd=760&Type=search", "url2": null }, "geometry": { "type": "Point", "coordinates": [ 130.4695753, 33.5693724 ] } },
{ "type": "Feature", "properties": { "内容": "定期巡回サービス土屋　福岡【定期巡回・随時対応型訪問介護看護】福岡県福岡市博多区吉塚本町2-28ラピス博多駅東2F", "url": "https://www.kaigokensaku.mhlw.go.jp/40/index.php?action_kouhyou_detail_004_kani=true&JigyosyoCd=4090900418-00&ServiceCd=760&Type=search", "url2": "https://teikijunkai.net/" }, "geometry": { "type": "Point", "coordinates": [ 130.425156435582011, 33.60498700728008 ] } },
{ "type": "Feature", "properties": { "内容": "定期巡回・随時対応型訪問介護看護南福岡【定期巡回・随時対応型訪問介護看護】元町2-1-6アンリ南福岡", "url": "https://www.kaigokensaku.mhlw.go.jp/40/index.php?action_kouhyou_detail_004_kani=true&JigyosyoCd=4090900210-00&ServiceCd=760&Type=search", "url2": "http://care-net.co.jp/" }, "geometry": { "type": "Point", "coordinates": [ 130.462911800000029, 33.5424947 ] } },
{ "type": "Feature", "properties": { "内容": "SOMPOケア博多住吉定期巡回【定期巡回・随時対応型訪問介護看護】住吉4-5-1ラヴィーレレジデンス博多住吉", "url": "https://www.kaigokensaku.mhlw.go.jp/40/index.php?action_kouhyou_detail_004_kani=true&JigyosyoCd=4090900475-00&ServiceCd=760&Type=search", "url2": "https://www.sompocare.com/service/home/satsuki/H000484/" }, "geometry": { "type": "Point", "coordinates": [ 130.4147557, 33.5844835 ] } },
{ "type": "Feature", "properties": { "内容": "インマイライフあらと　定期巡回センター【定期巡回・随時対応型訪問介護看護】福岡県福岡市中央区荒戸三丁目3-13インマイライフあらと", "url": "https://www.kaigokensaku.mhlw.go.jp/40/index.php?action_kouhyou_detail_004_kani=true&JigyosyoCd=4091000267-00&ServiceCd=760&Type=search", "url2": "https://shimakai.jp/" }, "geometry": { "type": "Point", "coordinates": [ 130.374127100000038, 33.5921148 ] } },
{ "type": "Feature", "properties": { "内容": "巡回サービス　グッドタイム薬院【定期巡回・随時対応型訪問介護看護】福岡県福岡市中央区薬院2丁目11番15号", "url": "https://www.kaigokensaku.mhlw.go.jp/40/index.php?action_kouhyou_detail_004_kani=true&JigyosyoCd=4091000192-00&ServiceCd=760&Type=search", "url2": null }, "geometry": { "type": "Point", "coordinates": [ 130.3929717, 33.581666 ] } },
{ "type": "Feature", "properties": { "内容": "ささえあい太陽　巡回サービス穂希【定期巡回・随時対応型訪問介護看護】福岡県福岡市南区的場2-37-2ささえあい太陽まとば", "url": "https://www.kaigokensaku.mhlw.go.jp/40/index.php?action_kouhyou_detail_004_kani=true&JigyosyoCd=4091100604-00&ServiceCd=760&Type=search", "url2": "https://yu-sei.or.jp/" }, "geometry": { "type": "Point", "coordinates": [ 130.4340842, 33.5401215 ] } },
{ "type": "Feature", "properties": { "内容": "定巡大橋【定期巡回・随時対応型訪問介護看護】福岡県福岡市南区大橋1丁目19番18-105号ロワールマンション大橋105号", "url": "https://www.kaigokensaku.mhlw.go.jp/40/index.php?action_kouhyou_detail_004_kani=true&JigyosyoCd=4091100687-00&ServiceCd=760&Type=search", "url2": null }, "geometry": { "type": "Point", "coordinates": [ 130.42537892922212, 33.557888220240152 ] } },
{ "type": "Feature", "properties": { "内容": "ケアネットワークいやし【定期巡回・随時対応型訪問介護看護】福岡市南区三宅1丁目25-13", "url": "https://www.kaigokensaku.mhlw.go.jp/40/index.php?action_kouhyou_detail_004_kani=true&JigyosyoCd=4091100133-00&ServiceCd=760&Type=search", "url2": "www.d--m.jp/page4.html" }, "geometry": { "type": "Point", "coordinates": [ 130.423859399999969, 33.5499177 ] } },
{ "type": "Feature", "properties": { "内容": "ヘルパーネットえがおで寺塚【定期巡回・随時対応型訪問介護看護】福岡県福岡市南区寺塚2丁目8-15金子アベニュー300棟1階1号", "url": "https://www.kaigokensaku.mhlw.go.jp/40/index.php?action_kouhyou_detail_004_kani=true&JigyosyoCd=4091100158-00&ServiceCd=760&Type=search", "url2": "https://www.egaode-n.com/patrol/" }, "geometry": { "type": "Point", "coordinates": [ 130.403044608598265, 33.558142259784454 ] } },
{ "type": "Feature", "properties": { "内容": "巡回サービス創生会　西の丘【定期巡回・随時対応型訪問介護看護】西の丘2-1-1グットタイムホーム西の丘内", "url": "https://www.kaigokensaku.mhlw.go.jp/40/index.php?action_kouhyou_detail_004_kani=true&JigyosyoCd=4091200214-00&ServiceCd=760&Type=search", "url2": "http://www.souseikai.or.jp/" }, "geometry": { "type": "Point", "coordinates": [ 130.296907695106484, 33.568572176901206 ] } },
{ "type": "Feature", "properties": { "内容": "ベースキャンプ楽居ときつ【定期巡回・随時対応型訪問介護看護】福岡県福岡市西区内浜２丁目６番７号", "url": "https://www.kaigokensaku.mhlw.go.jp/40/index.php?action_kouhyou_detail_004_kani=true&JigyosyoCd=4091200388-00&ServiceCd=760&Type=search", "url2": null }, "geometry": { "type": "Point", "coordinates": [ 130.3184645, 33.583751400000011 ] } },
{ "type": "Feature", "properties": { "内容": "かがやき巡回ステーション【定期巡回・随時対応型訪問介護看護】福岡県福岡市西区今宿町583", "url": "https://www.kaigokensaku.mhlw.go.jp/40/index.php?action_kouhyou_detail_004_kani=true&JigyosyoCd=4091200396-00&ServiceCd=760&Type=search", "url2": "http://www.kisyoukai.jp/kagayaki/" }, "geometry": { "type": "Point", "coordinates": [ 130.267021699999987, 33.5719609 ] } },
{ "type": "Feature", "properties": { "内容": "ケアネットしもやまと【定期巡回・随時対応型訪問介護看護】福岡市西区生の松原2丁目5-1コーポシャルム302号", "url": "https://www.kaigokensaku.mhlw.go.jp/40/index.php?action_kouhyou_detail_004_kani=true&JigyosyoCd=4091200420-00&ServiceCd=760&Type=search", "url2": null }, "geometry": { "type": "Point", "coordinates": [ 130.304318200000012, 33.5778453 ] } },
{ "type": "Feature", "properties": { "内容": "定期巡回ステーション　テラシス桜花【定期巡回・随時対応型訪問介護看護】福岡県福岡市西区愛宕2丁目19-6", "url": "https://www.kaigokensaku.mhlw.go.jp/40/index.php?action_kouhyou_detail_004_kani=true&JigyosyoCd=4091200560-00&ServiceCd=760&Type=search", "url2": "https://terrasis-ohka.jp/" }, "geometry": { "type": "Point", "coordinates": [ 130.3324383, 33.5858091 ] } },
{ "type": "Feature", "properties": { "内容": "定期巡回サービス　グッドファイブ福岡【定期巡回・随時対応型訪問介護看護】福岡県福岡市西区九大新町1-2アイレーン・サプライ1F", "url": "https://www.kaigokensaku.mhlw.go.jp/40/index.php?action_kouhyou_detail_004_kani=true&JigyosyoCd=4091200438-00&ServiceCd=760&Type=search", "url2": null }, "geometry": { "type": "Point", "coordinates": [ 130.227790110805159, 33.594999443219926 ] } },
{ "type": "Feature", "properties": { "内容": "サンカルナ福岡城南　定期巡回・随時対応型訪問介護看護事業所【定期巡回・随時対応型訪問介護看護】福岡県福岡市城南区茶山一丁目6番1号サンカルナ福岡城南", "url": "https://www.kaigokensaku.mhlw.go.jp/40/index.php?action_kouhyou_detail_004_kani=true&JigyosyoCd=4091300261-00&ServiceCd=760&Type=search", "url2": null }, "geometry": { "type": "Point", "coordinates": [ 130.364404499999978, 33.5651848 ] } },
{ "type": "Feature", "properties": { "内容": "ウエストライフ　巡回ケアステーション【定期巡回・随時対応型訪問介護看護】福岡県福岡市城南区南片江六丁目１２番１号", "url": "https://www.kaigokensaku.mhlw.go.jp/40/index.php?action_kouhyou_detail_004_kani=true&JigyosyoCd=4091300295-00&ServiceCd=760&Type=search", "url2": null }, "geometry": { "type": "Point", "coordinates": [ 130.371077174249081, 33.544029310499539 ] } },
{ "type": "Feature", "properties": { "内容": "医療法人社団江頭会さくら病院　24時間ヘルパーステーションさくら【定期巡回・随時対応型訪問介護看護】福岡県福岡市城南区長尾5丁目8番10号", "url": "https://www.kaigokensaku.mhlw.go.jp/40/index.php?action_kouhyou_detail_004_kani=true&JigyosyoCd=4091300352-00&ServiceCd=760&Type=search", "url2": null }, "geometry": { "type": "Point", "coordinates": [ 130.3807232, 33.5529087 ] } },
{ "type": "Feature", "properties": { "内容": "SOMPOケア福岡別府定期巡回【定期巡回・随時対応型訪問介護看護】福岡市城南区鳥飼6丁目18-31ＳＯＭＰＯケアラヴィーレレジデンス福岡別府", "url": "https://www.kaigokensaku.mhlw.go.jp/40/index.php?action_kouhyou_detail_004_kani=true&JigyosyoCd=4091300394-00&ServiceCd=760&Type=search", "url2": "https://www.sompocare.com/service/zaitaku/kaigo/Z000981" }, "geometry": { "type": "Point", "coordinates": [ 130.368657899999988, 33.5783328 ] } },
{ "type": "Feature", "properties": { "内容": "エフコープ介護サービス福岡西(定巡）【定期巡回・随時対応型訪問介護看護】福岡県福岡市早良区次郎丸4丁目10-50", "url": "https://www.kaigokensaku.mhlw.go.jp/40/index.php?action_kouhyou_detail_004_kani=true&JigyosyoCd=4091400392-00&ServiceCd=760&Type=search", "url2": "http://www.fcoop.or.jp/" }, "geometry": { "type": "Point", "coordinates": [ 130.327596800000038, 33.5476972 ] } },
{ "type": "Feature", "properties": { "内容": "定期巡回・随時対応型訪問介護看護ケアネットワークいやし早良【定期巡回・随時対応型訪問介護看護】福岡県福岡市早良区重留6-6-10メディケア癒やし弐番館", "url": "https://www.kaigokensaku.mhlw.go.jp/40/index.php?action_kouhyou_detail_004_kani=true&JigyosyoCd=4091400194-00&ServiceCd=760&Type=search", "url2": "https://www.dandm.co.jp" }, "geometry": { "type": "Point", "coordinates": [ 130.339059825794948, 33.530467430640577 ] } },
{ "type": "Feature", "properties": { "内容": "定期巡回サービスFUKUOKA　Cruto【定期巡回・随時対応型訪問介護看護】福岡県福岡市早良区重留6-6-10メディケア癒し弐番館", "url": "https://www.kaigokensaku.mhlw.go.jp/40/index.php?action_kouhyou_detail_004_kani=true&JigyosyoCd=4091400616-00&ServiceCd=760&Type=search", "url2": null }, "geometry": { "type": "Point", "coordinates": [ 130.339036599999986, 33.530424100000019 ] } },
{ "type": "Feature", "properties": { "内容": "定期巡回サービス　アムール【定期巡回・随時対応型訪問介護看護】福岡県大牟田市上白川町1丁目246番地メゾン・ド・アムール", "url": "https://www.kaigokensaku.mhlw.go.jp/40/index.php?action_kouhyou_detail_004_kani=true&JigyosyoCd=4091500761-00&ServiceCd=760&Type=search", "url2": null }, "geometry": { "type": "Point", "coordinates": [ 130.4623043, 33.0479704 ] } },
{ "type": "Feature", "properties": { "内容": "ヘルパーステーションこもれび【定期巡回・随時対応型訪問介護看護】福岡県大牟田市中町１丁目5-1", "url": "https://www.kaigokensaku.mhlw.go.jp/40/index.php?action_kouhyou_detail_004_kani=true&JigyosyoCd=4091500548-00&ServiceCd=760&Type=search", "url2": "info＠s-soreiyu.com" }, "geometry": { "type": "Point", "coordinates": [ 130.443746199999964, 33.0401889 ] } },
{ "type": "Feature", "properties": { "内容": "みづまの杜定期巡回訪問介護看護ステーション【定期巡回・随時対応型訪問介護看護】福岡県久留米市三潴町高三潴1303-1有料老人ホームみづまの杜", "url": "https://www.kaigokensaku.mhlw.go.jp/40/index.php?action_kouhyou_detail_004_kani=true&JigyosyoCd=4091601429-00&ServiceCd=760&Type=search", "url2": "http://zensikai.jp/miduma/" }, "geometry": { "type": "Point", "coordinates": [ 130.452826499999986, 33.2621414 ] } },
{ "type": "Feature", "properties": { "内容": "ケアネットワークひゅうが久留米【定期巡回・随時対応型訪問介護看護】福岡県久留米市津福本町600-7プライマリケアホームひゅうが久留米聖マリア病院前駅", "url": "https://www.kaigokensaku.mhlw.go.jp/40/index.php?action_kouhyou_detail_004_kani=true&JigyosyoCd=4091601833-00&ServiceCd=760&Type=search", "url2": "https://hyuga-ncb.care" }, "geometry": { "type": "Point", "coordinates": [ 130.507528799999989, 33.2973675 ] } },
{ "type": "Feature", "properties": { "内容": "みどりのおか【定期巡回・随時対応型訪問介護看護】安武町安武本610番地", "url": "https://www.kaigokensaku.mhlw.go.jp/40/index.php?action_kouhyou_detail_004_kani=true&JigyosyoCd=4091601916-00&ServiceCd=760&Type=search", "url2": null }, "geometry": { "type": "Point", "coordinates": [ 130.4847265, 33.2943454 ] } },
{ "type": "Feature", "properties": { "内容": "こがラウンドケアみづまの杜【定期巡回・随時対応型訪問介護看護】福岡県久留米市三潴町高三潴1303番地1", "url": "https://www.kaigokensaku.mhlw.go.jp/40/index.php?action_kouhyou_detail_004_kani=true&JigyosyoCd=4091601882-00&ServiceCd=760&Type=search", "url2": null }, "geometry": { "type": "Point", "coordinates": [ 130.4528215, 33.2621657 ] } },
{ "type": "Feature", "properties": { "内容": "メディケアサービス　いつき【定期巡回・随時対応型訪問介護看護】福岡県久留米市梅満町260番地1", "url": "https://www.kaigokensaku.mhlw.go.jp/40/index.php?action_kouhyou_detail_004_kani=true&JigyosyoCd=4091601312-00&ServiceCd=760&Type=search", "url2": "http://www.kurumedi.com" }, "geometry": { "type": "Point", "coordinates": [ 130.4916849, 33.3116071 ] } },
{ "type": "Feature", "properties": { "内容": "ヘルパーステーション「きらら」【定期巡回・随時対応型訪問介護看護】久留米市北野町八重亀391番地１グループホームくましろ１階", "url": "https://www.kaigokensaku.mhlw.go.jp/40/index.php?action_kouhyou_detail_004_kani=true&JigyosyoCd=4091600728-00&ServiceCd=760&Type=search", "url2": "http://kumashiro-hospital.or.jp" }, "geometry": { "type": "Point", "coordinates": [ 130.625611349212733, 33.35420181458754 ] } },
{ "type": "Feature", "properties": { "内容": "聖マリアヘルパーステーション【定期巡回・随時対応型訪問介護看護】福岡県久留米市津福本町422聖マリア病院　聖母病棟１階", "url": "https://www.kaigokensaku.mhlw.go.jp/40/index.php?action_kouhyou_detail_004_kani=true&JigyosyoCd=4091600819-00&ServiceCd=760&Type=search", "url2": "http://www.st-mary-med.or.jp" }, "geometry": { "type": "Point", "coordinates": [ 130.507227037820485, 33.304532361235644 ] } },
{ "type": "Feature", "properties": { "内容": "社会医療法人天神会　こがラウンドケア野伏間【定期巡回・随時対応型訪問介護看護】福岡県久留米市野伏間１丁目９番６号", "url": "https://www.kaigokensaku.mhlw.go.jp/40/index.php?action_kouhyou_detail_004_kani=true&JigyosyoCd=4091601031-00&ServiceCd=760&Type=search", "url2": "http://www.tenjinkai.or.jp" }, "geometry": { "type": "Point", "coordinates": [ 130.511720500000024, 33.285052 ] } },
{ "type": "Feature", "properties": { "内容": "ラウンドケアサービスこが【定期巡回・随時対応型訪問介護看護】久留米市宮ノ陣4丁目30番10号", "url": "https://www.kaigokensaku.mhlw.go.jp/40/index.php?action_kouhyou_detail_004_kani=true&JigyosyoCd=4091600918-00&ServiceCd=760&Type=search", "url2": "http://www.tenjinkai.or.jp" }, "geometry": { "type": "Point", "coordinates": [ 130.539632100000063, 33.333491500000015 ] } },
{ "type": "Feature", "properties": { "内容": "こがラウンドケア大石町【定期巡回・随時対応型訪問介護看護】福岡県久留米市大石町23－5", "url": "https://www.kaigokensaku.mhlw.go.jp/40/index.php?action_kouhyou_detail_004_kani=true&JigyosyoCd=4091601338-00&ServiceCd=760&Type=search", "url2": null }, "geometry": { "type": "Point", "coordinates": [ 130.498357700000042, 33.3146645 ] } },
{ "type": "Feature", "properties": { "内容": "定期巡回・随時対応型訪問介護看護　エバーガーデン久留米市中央町【定期巡回・随時対応型訪問介護看護】福岡県久留米市中央町16番地33有料老人ホーム　エバーガーデン久留米中央町", "url": "https://www.kaigokensaku.mhlw.go.jp/40/index.php?action_kouhyou_detail_004_kani=true&JigyosyoCd=4091601379-00&ServiceCd=760&Type=search", "url2": "https://evergarden-kurume.jp/" }, "geometry": { "type": "Point", "coordinates": [ 130.504805169311567, 33.318648069356762 ] } },
{ "type": "Feature", "properties": { "内容": "ぐるっと　たんがく【定期巡回・随時対応型訪問介護看護】福岡県久留米市上津1丁目23-10", "url": "https://www.kaigokensaku.mhlw.go.jp/40/index.php?action_kouhyou_detail_004_kani=true&JigyosyoCd=4091601734-00&ServiceCd=760&Type=search", "url2": "tangaku.com" }, "geometry": { "type": "Point", "coordinates": [ 130.5307173, 33.2871108 ] } },
{ "type": "Feature", "properties": { "内容": "ケアコールセンター江戸くま【定期巡回・随時対応型訪問介護看護】福岡県久留米市津福今町458-3", "url": "https://www.kaigokensaku.mhlw.go.jp/40/index.php?action_kouhyou_detail_004_kani=true&JigyosyoCd=4091601510-00&ServiceCd=760&Type=search", "url2": null }, "geometry": { "type": "Point", "coordinates": [ 130.499937564683165, 33.292886027997049 ] } },
{ "type": "Feature", "properties": { "内容": "定期巡回・随時対応型訪問介護看護コロボックル【定期巡回・随時対応型訪問介護看護】福岡県久留米市荒木町白口2324-3古賀第2ビル1階", "url": "https://www.kaigokensaku.mhlw.go.jp/40/index.php?action_kouhyou_detail_004_kani=true&JigyosyoCd=4091601528-00&ServiceCd=760&Type=search", "url2": "https://kiccho.org/" }, "geometry": { "type": "Point", "coordinates": [ 130.4992834, 33.2752769 ] } },
{ "type": "Feature", "properties": { "内容": "定期巡回・随時対応型サービス　あおぞら【定期巡回・随時対応型訪問介護看護】福岡県直方市植木５０９番地", "url": "https://www.kaigokensaku.mhlw.go.jp/40/index.php?action_kouhyou_detail_004_kani=true&JigyosyoCd=4091700098-00&ServiceCd=760&Type=search", "url2": "www.nogata-medical.com" }, "geometry": { "type": "Point", "coordinates": [ 130.713579500000037, 33.7732935 ] } },
{ "type": "Feature", "properties": { "内容": "アップルハート飯塚24時間在宅ケアステーション【定期巡回・随時対応型訪問介護看護】福岡県飯塚市芳雄町６番２号アップルハートリビング飯塚2号館内", "url": "https://www.kaigokensaku.mhlw.go.jp/40/index.php?action_kouhyou_detail_004_kani=true&JigyosyoCd=4091800294-00&ServiceCd=760&Type=search", "url2": "http://www.aso-group.co.jp/ams/" }, "geometry": { "type": "Point", "coordinates": [ 130.692582083467101, 33.640837763555631 ] } },
{ "type": "Feature", "properties": { "内容": "暖家の丘巡回サービス【定期巡回・随時対応型訪問介護看護】福岡県田川市大字糒８２４－２０サンフェロー暖家の丘", "url": "https://www.kaigokensaku.mhlw.go.jp/40/index.php?action_kouhyou_detail_004_kani=true&JigyosyoCd=4091900060-00&ServiceCd=760&Type=search", "url2": "http://dankenooka.net/" }, "geometry": { "type": "Point", "coordinates": [ 130.805467177909804, 33.657528148794277 ] } },
{ "type": "Feature", "properties": { "内容": "生き活きケアステーション【定期巡回・随時対応型訪問介護看護】福岡県柳川市三橋町吉開745番地1", "url": "https://www.kaigokensaku.mhlw.go.jp/40/index.php?action_kouhyou_detail_004_kani=true&JigyosyoCd=4092000159-00&ServiceCd=760&Type=search", "url2": "https://yanagawa-kaigo.com/shintaku-kaigo-honsya" }, "geometry": { "type": "Point", "coordinates": [ 130.449031630451856, 33.17863116493006 ] } },
{ "type": "Feature", "properties": { "内容": "毎日介護定期巡回随時対応型訪問介護看護【定期巡回・随時対応型訪問介護看護】福岡県八女市本町553-2", "url": "https://www.kaigokensaku.mhlw.go.jp/40/index.php?action_kouhyou_detail_004_kani=true&JigyosyoCd=4092300161-00&ServiceCd=760&Type=search", "url2": "http://yametsuhime.com" }, "geometry": { "type": "Point", "coordinates": [ 130.555087500000013, 33.211364 ] } },
{ "type": "Feature", "properties": { "内容": "定期巡回随時対応型訪問介護看護　ちっこりーの【定期巡回・随時対応型訪問介護看護】福岡県筑後市蔵数521-7松福園八番館101号", "url": "https://www.kaigokensaku.mhlw.go.jp/40/index.php?action_kouhyou_detail_004_kani=true&JigyosyoCd=4092400169-00&ServiceCd=760&Type=search", "url2": "kiccho.org" }, "geometry": { "type": "Point", "coordinates": [ 130.5071405, 33.2394095 ] } },
{ "type": "Feature", "properties": { "内容": "訪問介看護ステーション木輪【定期巡回・随時対応型訪問介護看護】福岡県大川市大字向島1407番地2階", "url": "https://www.kaigokensaku.mhlw.go.jp/40/index.php?action_kouhyou_detail_004_kani=true&JigyosyoCd=4092500141-00&ServiceCd=760&Type=search", "url2": null }, "geometry": { "type": "Point", "coordinates": [ 130.374979322896365, 33.20928213308413 ] } },
{ "type": "Feature", "properties": { "内容": "ナースケアセンターゆくはし【定期巡回・随時対応型訪問介護看護】福岡県行橋市東徳永167番地13", "url": "https://www.kaigokensaku.mhlw.go.jp/40/index.php?action_kouhyou_detail_004_kani=true&JigyosyoCd=4092600214-00&ServiceCd=760&Type=search", "url2": "zuihoukai@.mx36.tiki.ne.jp" }, "geometry": { "type": "Point", "coordinates": [ 131.007670499999989, 33.6861073 ] } },
{ "type": "Feature", "properties": { "内容": "地域巡回ケアステーションりふる【定期巡回・随時対応型訪問介護看護】道場寺1589-1", "url": "https://www.kaigokensaku.mhlw.go.jp/40/index.php?action_kouhyou_detail_004_kani=true&JigyosyoCd=4092600206-00&ServiceCd=760&Type=search", "url2": "https://re-full.com" }, "geometry": { "type": "Point", "coordinates": [ 131.0075326, 33.697597800000011 ] } },
{ "type": "Feature", "properties": { "内容": "定期巡回ステーション　コピーヌ【定期巡回・随時対応型訪問介護看護】福岡県中間市中鶴１丁目２４ー１", "url": "https://www.kaigokensaku.mhlw.go.jp/40/index.php?action_kouhyou_detail_004_kani=true&JigyosyoCd=4092800178-00&ServiceCd=760&Type=search", "url2": "https://www.crane-n.jp/home-care" }, "geometry": { "type": "Point", "coordinates": [ 130.7038293, 33.8288522 ] } },
{ "type": "Feature", "properties": { "内容": "定期巡回こよいの里筑紫野【定期巡回・随時対応型訪問介護看護】筑紫野市針摺中央2丁目15-5松尾ビル104号", "url": "https://www.kaigokensaku.mhlw.go.jp/40/index.php?action_kouhyou_detail_004_kani=true&JigyosyoCd=4093000216-00&ServiceCd=760&Type=search", "url2": "https://pmind-koyoi.com/" }, "geometry": { "type": "Point", "coordinates": [ 130.534310277909839, 33.484030308648848 ] } },
{ "type": "Feature", "properties": { "内容": "ケアネットワークひゅうが【定期巡回・随時対応型訪問介護看護】福岡県春日市ちくし台5丁目132番1", "url": "https://www.kaigokensaku.mhlw.go.jp/40/index.php?action_kouhyou_detail_004_kani=true&JigyosyoCd=4093100206-00&ServiceCd=760&Type=search", "url2": "https://www.hyuga-primary.care" }, "geometry": { "type": "Point", "coordinates": [ 130.465033474343869, 33.520572760786031 ] } },
{ "type": "Feature", "properties": { "内容": "24時間看護介護サービス・煌（きらめき）【定期巡回・随時対応型訪問介護看護】福岡県春日市春日1丁目40番地", "url": "https://www.kaigokensaku.mhlw.go.jp/40/index.php?action_kouhyou_detail_004_kani=true&JigyosyoCd=4093100156-00&ServiceCd=760&Type=search", "url2": null }, "geometry": { "type": "Point", "coordinates": [ 130.469104244180301, 33.524938107760875 ] } },
{ "type": "Feature", "properties": { "内容": "医療法人徳洲会　福岡徳洲会定期巡回ケアステーションぴーす【定期巡回・随時対応型訪問介護看護】福岡県春日市桜ヶ丘４丁目２３番地", "url": "https://www.kaigokensaku.mhlw.go.jp/40/index.php?action_kouhyou_detail_004_kani=true&JigyosyoCd=4093100099-00&ServiceCd=760&Type=search", "url2": null }, "geometry": { "type": "Point", "coordinates": [ 130.448082971163899, 33.544056505544695 ] } },
{ "type": "Feature", "properties": { "内容": "ケアネットおおのじょう【定期巡回・随時対応型訪問介護看護】福岡県大野城市御笠川１丁目3-6　オフィスパレア御笠川Ⅻ　2階(4号室)ナーシングホームおおのじょう", "url": "https://www.kaigokensaku.mhlw.go.jp/40/index.php?action_kouhyou_detail_004_kani=true&JigyosyoCd=4093200238-00&ServiceCd=760&Type=search", "url2": null }, "geometry": { "type": "Point", "coordinates": [ 130.476878455819701, 33.55206747539912 ] } },
{ "type": "Feature", "properties": { "内容": "定期巡回　こよいの里【定期巡回・随時対応型訪問介護看護】大野城市白木原3丁目2-6-102102", "url": "https://www.kaigokensaku.mhlw.go.jp/40/index.php?action_kouhyou_detail_004_kani=true&JigyosyoCd=4093200261-00&ServiceCd=760&Type=search", "url2": "https://pmind-koyoi.com/" }, "geometry": { "type": "Point", "coordinates": [ 130.4816844, 33.5305615 ] } },
{ "type": "Feature", "properties": { "内容": "ケアネットてんまんぐう【定期巡回・随時対応型訪問介護看護】福岡県太宰府市向佐野4丁目10-1", "url": "https://www.kaigokensaku.mhlw.go.jp/40/index.php?action_kouhyou_detail_004_kani=true&JigyosyoCd=4093400127-00&ServiceCd=760&Type=search", "url2": null }, "geometry": { "type": "Point", "coordinates": [ 130.4937927, 33.509607 ] } },
{ "type": "Feature", "properties": { "内容": "豊資会定期巡回訪問介護ステーション【定期巡回・随時対応型訪問介護看護】福岡県古賀市花見南2丁目11-1ルーエハイム", "url": "https://www.kaigokensaku.mhlw.go.jp/40/index.php?action_kouhyou_detail_004_kani=true&JigyosyoCd=4093600049-00&ServiceCd=760&Type=search", "url2": "http://www.houshikai.or.jp/" }, "geometry": { "type": "Point", "coordinates": [ 130.468308353967245, 33.742146949607523 ] } },
{ "type": "Feature", "properties": { "内容": "24時間訪問サービス　しらゆり【定期巡回・随時対応型訪問介護看護】宮司浜2丁目35-11", "url": "https://www.kaigokensaku.mhlw.go.jp/40/index.php?action_kouhyou_detail_004_kani=true&JigyosyoCd=4094500081-00&ServiceCd=760&Type=search", "url2": "http://kaigo-sirayuri.co.jp/" }, "geometry": { "type": "Point", "coordinates": [ 130.473555, 33.777209 ] } },
{ "type": "Feature", "properties": { "内容": "ひじり会24時間ケアセンターにじの家【定期巡回・随時対応型訪問介護看護】福岡県うきは市吉井町八和田876－1", "url": "https://www.kaigokensaku.mhlw.go.jp/40/index.php?action_kouhyou_detail_004_kani=true&JigyosyoCd=4097300075-00&ServiceCd=760&Type=search", "url2": "http://hijirikai.com/" }, "geometry": { "type": "Point", "coordinates": [ 130.7432867, 33.355165600000014 ] } },
{ "type": "Feature", "properties": { "内容": "嘉麻赤十字24時間在宅ケアステーション【定期巡回・随時対応型訪問介護看護】上山田1237", "url": "https://www.kaigokensaku.mhlw.go.jp/40/index.php?action_kouhyou_detail_004_kani=true&JigyosyoCd=4092100082-00&ServiceCd=760&Type=search", "url2": "http://www.kama-jrc.jp/" }, "geometry": { "type": "Point", "coordinates": [ 130.761861899999985, 33.5617975 ] } },
{ "type": "Feature", "properties": { "内容": "医療法人社団　医王会　巡回サポートけんせい　笑ライフ【定期巡回・随時対応型訪問介護看護】福岡県朝倉市甘木151番地4", "url": "https://www.kaigokensaku.mhlw.go.jp/40/index.php?action_kouhyou_detail_004_kani=true&JigyosyoCd=4092200106-00&ServiceCd=760&Type=search", "url2": "http://www.a-kensei.jp" }, "geometry": { "type": "Point", "coordinates": [ 130.662625910450743, 33.414934580534563 ] } },
{ "type": "Feature", "properties": { "内容": "ライフサポート　すいせん【定期巡回・随時対応型訪問介護看護】福岡県みやま市　高田町濃施480番地２", "url": "https://www.kaigokensaku.mhlw.go.jp/40/index.php?action_kouhyou_detail_004_kani=true&JigyosyoCd=4098700158-00&ServiceCd=760&Type=search", "url2": null }, "geometry": { "type": "Point", "coordinates": [ 130.456805, 33.1011916 ] } },
{ "type": "Feature", "properties": { "内容": "定期巡回型訪問サービス「やまびこ」【定期巡回・随時対応型訪問介護看護】福岡県みやま市山川町尾野1553番地2", "url": "https://www.kaigokensaku.mhlw.go.jp/40/index.php?action_kouhyou_detail_004_kani=true&JigyosyoCd=4098700166-00&ServiceCd=760&Type=search", "url2": "https://www.yamabiko-care.com/" }, "geometry": { "type": "Point", "coordinates": [ 130.510277300000013, 33.124278300000014 ] } },
{ "type": "Feature", "properties": { "内容": "ヘルパーステーション　それいゆ【定期巡回・随時対応型訪問介護看護】福岡県糸島市前原東一丁目5－17", "url": "https://www.kaigokensaku.mhlw.go.jp/40/index.php?action_kouhyou_detail_004_kani=true&JigyosyoCd=4093500108-00&ServiceCd=760&Type=search", "url2": null }, "geometry": { "type": "Point", "coordinates": [ 130.206059399999958, 33.5596871 ] } },
{ "type": "Feature", "properties": { "内容": "定期巡回ステーション　グランドG1【定期巡回・随時対応型訪問介護看護】福岡県那珂川市道善1丁目121番地", "url": "https://www.kaigokensaku.mhlw.go.jp/40/index.php?action_kouhyou_detail_004_kani=true&JigyosyoCd=4093700138-00&ServiceCd=760&Type=search", "url2": null }, "geometry": { "type": "Point", "coordinates": [ 130.4234978, 33.5118951 ] } },
{ "type": "Feature", "properties": { "内容": "あすなろヘルパーステーション【定期巡回・随時対応型訪問介護看護】福岡県糟屋郡須恵町大字旅石68-261住宅型憂慮老人ホームコンフォート須恵　　1Ｆ", "url": "https://www.kaigokensaku.mhlw.go.jp/40/index.php?action_kouhyou_detail_004_kani=true&JigyosyoCd=4094100056-00&ServiceCd=760&Type=search", "url2": null }, "geometry": { "type": "Point", "coordinates": [ 130.496893199999988, 33.585004099999985 ] } },
{ "type": "Feature", "properties": { "内容": "定期巡回サービス土屋粕屋【定期巡回・随時対応型訪問介護看護】福岡県糟屋郡粕屋町内橋西3-12-1カレンシーハイツ西村203号", "url": "https://www.kaigokensaku.mhlw.go.jp/40/index.php?action_kouhyou_detail_004_kani=true&JigyosyoCd=4094400068-00&ServiceCd=760&Type=search", "url2": "https://teikijunkai.net/" }, "geometry": { "type": "Point", "coordinates": [ 130.460226299999988, 33.6230562 ] } },
{ "type": "Feature", "properties": { "内容": "24時間ケアセンターひめの【定期巡回・随時対応型訪問介護看護】福岡県八女郡広川町大字新代2316八女発心会", "url": "https://www.kaigokensaku.mhlw.go.jp/40/index.php?action_kouhyou_detail_004_kani=true&JigyosyoCd=4098400031-00&ServiceCd=760&Type=search", "url2": null }, "geometry": { "type": "Point", "coordinates": [ 130.552928515344206, 33.237126121804181 ] } }
]
}
