{
"type": "FeatureCollection",
"name": "geo_40_高校",
"crs": { "type": "name", "properties": { "name": "urn:ogc:def:crs:EPSG::6668" } },
"features": [
{ "type": "Feature", "properties": { "P29_001": "40101", "P29_002": "D140210000017", "P29_003": "16004", "P29_004": "福岡県立門司大翔館高等学校", "P29_005": "福岡県北九州市門司区藤松2-7-1", "P29_006": "2", "P29_007": "0", "P29_008": "00", "P29_009": null }, "geometry": { "type": "Point", "coordinates": [ 130.92595915333564, 33.885065328179223 ] } },
{ "type": "Feature", "properties": { "P29_001": "40105", "P29_002": "D140210000053", "P29_003": "16004", "P29_004": "福岡県立戸畑高等学校", "P29_005": "福岡県北九州市戸畑区夜宮3-1-1", "P29_006": "2", "P29_007": "0", "P29_008": "00", "P29_009": null }, "geometry": { "type": "Point", "coordinates": [ 130.83393147447768, 33.885176968138929 ] } },
{ "type": "Feature", "properties": { "P29_001": "40105", "P29_002": "D140210000062", "P29_003": "16004", "P29_004": "福岡県立ひびき高等学校", "P29_005": "福岡県北九州市戸畑区天籟寺1-2-1", "P29_006": "2", "P29_007": "0", "P29_008": "00", "P29_009": null }, "geometry": { "type": "Point", "coordinates": [ 130.832240763110406, 33.890125652235533 ] } },
{ "type": "Feature", "properties": { "P29_001": "40105", "P29_002": "D140210000080", "P29_003": "16004", "P29_004": "北九州市立高等学校", "P29_005": "福岡県北九州市戸畑区浅生1-10-1", "P29_006": "3", "P29_007": "0", "P29_008": "00", "P29_009": null }, "geometry": { "type": "Point", "coordinates": [ 130.827544424780768, 33.89117698721369 ] } },
{ "type": "Feature", "properties": { "P29_001": "40106", "P29_002": "D140210000099", "P29_003": "16004", "P29_004": "福岡県立小倉高等学校", "P29_005": "福岡県北九州市小倉北区愛宕2-8-1", "P29_006": "2", "P29_007": "0", "P29_008": "00", "P29_009": null }, "geometry": { "type": "Point", "coordinates": [ 130.863183775894043, 33.886731221053189 ] } },
{ "type": "Feature", "properties": { "P29_001": "40106", "P29_002": "D140210000106", "P29_003": "16004", "P29_004": "福岡県立小倉工業高等学校", "P29_005": "福岡県北九州市小倉北区白萩町6-1", "P29_006": "2", "P29_007": "0", "P29_008": "00", "P29_009": null }, "geometry": { "type": "Point", "coordinates": [ 130.855275237023989, 33.883516742559621 ] } },
{ "type": "Feature", "properties": { "P29_001": "40106", "P29_002": "D140210000115", "P29_003": "16004", "P29_004": "福岡県立小倉西高等学校", "P29_005": "福岡県北九州市小倉北区下到津5-7-1", "P29_006": "2", "P29_007": "0", "P29_008": "00", "P29_009": null }, "geometry": { "type": "Point", "coordinates": [ 130.856677469032604, 33.875043391719018 ] } },
{ "type": "Feature", "properties": { "P29_001": "40107", "P29_002": "D140210000124", "P29_003": "16004", "P29_004": "福岡県立小倉南高等学校", "P29_005": "福岡県北九州市小倉南区富士見1-9-1", "P29_006": "2", "P29_007": "0", "P29_008": "00", "P29_009": null }, "geometry": { "type": "Point", "coordinates": [ 130.882234155398834, 33.857163274286755 ] } },
{ "type": "Feature", "properties": { "P29_001": "40107", "P29_002": "D140210000133", "P29_003": "16004", "P29_004": "福岡県立小倉商業高等学校", "P29_005": "福岡県北九州市小倉南区富士見3-5-1", "P29_006": "2", "P29_007": "0", "P29_008": "00", "P29_009": null }, "geometry": { "type": "Point", "coordinates": [ 130.8787537218723, 33.860468190406984 ] } },
{ "type": "Feature", "properties": { "P29_001": "40107", "P29_002": "D140210000142", "P29_003": "16004", "P29_004": "福岡県立北九州高等学校", "P29_005": "福岡県北九州市小倉南区若園5-1-1", "P29_006": "2", "P29_007": "0", "P29_008": "00", "P29_009": null }, "geometry": { "type": "Point", "coordinates": [ 130.882872317741203, 33.847087909891769 ] } },
{ "type": "Feature", "properties": { "P29_001": "40107", "P29_002": "D140210000151", "P29_003": "16004", "P29_004": "福岡県立小倉東高等学校", "P29_005": "福岡県北九州市小倉南区田原5-2-1", "P29_006": "2", "P29_007": "0", "P29_008": "00", "P29_009": null }, "geometry": { "type": "Point", "coordinates": [ 130.931091503695029, 33.821556789279903 ] } },
{ "type": "Feature", "properties": { "P29_001": "40108", "P29_002": "D140210000160", "P29_003": "16004", "P29_004": "福岡県立八幡高等学校", "P29_005": "福岡県北九州市八幡東区清田3-1-1", "P29_006": "2", "P29_007": "0", "P29_008": "00", "P29_009": null }, "geometry": { "type": "Point", "coordinates": [ 130.84043196999275, 33.857950511945759 ] } },
{ "type": "Feature", "properties": { "P29_001": "40109", "P29_002": "D140210000179", "P29_003": "16004", "P29_004": "福岡県立八幡中央高等学校", "P29_005": "福岡県北九州市八幡西区元城町1-1", "P29_006": "2", "P29_007": "0", "P29_008": "00", "P29_009": null }, "geometry": { "type": "Point", "coordinates": [ 130.78531328782779, 33.855296250578284 ] } },
{ "type": "Feature", "properties": { "P29_001": "40109", "P29_002": "D140210000188", "P29_003": "16004", "P29_004": "福岡県立八幡工業高等学校", "P29_005": "福岡県北九州市八幡西区別所町1-1", "P29_006": "2", "P29_007": "0", "P29_008": "00", "P29_009": null }, "geometry": { "type": "Point", "coordinates": [ 130.760143983293716, 33.845937793537509 ] } },
{ "type": "Feature", "properties": { "P29_001": "40109", "P29_002": "D140210000197", "P29_003": "16004", "P29_004": "福岡県立八幡南高等学校", "P29_005": "福岡県北九州市八幡西区的場町6-1", "P29_006": "2", "P29_007": "0", "P29_008": "00", "P29_009": null }, "geometry": { "type": "Point", "coordinates": [ 130.744311967584935, 33.840684124777681 ] } },
{ "type": "Feature", "properties": { "P29_001": "40109", "P29_002": "D140210000204", "P29_003": "16004", "P29_004": "福岡県立東筑高等学校", "P29_005": "福岡県北九州市八幡西区東筑1-1-1", "P29_006": "2", "P29_007": "0", "P29_008": "00", "P29_009": null }, "geometry": { "type": "Point", "coordinates": [ 130.715293122530056, 33.859448237703042 ] } },
{ "type": "Feature", "properties": { "P29_001": "40109", "P29_002": "D140210000213", "P29_003": "16004", "P29_004": "福岡県立折尾高等学校", "P29_005": "福岡県北九州市八幡西区大膳2-23-1", "P29_006": "2", "P29_007": "0", "P29_008": "00", "P29_009": null }, "geometry": { "type": "Point", "coordinates": [ 130.707814743047095, 33.853182999054837 ] } },
{ "type": "Feature", "properties": { "P29_001": "40109", "P29_002": "D140210000222", "P29_003": "16004", "P29_004": "福岡県立北筑高等学校", "P29_005": "福岡県北九州市八幡西区北筑1-1-1", "P29_006": "2", "P29_007": "0", "P29_008": "00", "P29_009": null }, "geometry": { "type": "Point", "coordinates": [ 130.734443828183231, 33.848711452997442 ] } },
{ "type": "Feature", "properties": { "P29_001": "40131", "P29_002": "D140213000011", "P29_003": "16004", "P29_004": "福岡県立香椎高等学校", "P29_005": "福岡県福岡市東区香椎2-9-1", "P29_006": "2", "P29_007": "0", "P29_008": "00", "P29_009": null }, "geometry": { "type": "Point", "coordinates": [ 130.446977538692551, 33.657617138477413 ] } },
{ "type": "Feature", "properties": { "P29_001": "40131", "P29_002": "D140213000020", "P29_003": "16004", "P29_004": "福岡県立香椎工業高等学校", "P29_005": "福岡県福岡市東区香椎駅東2-23-1", "P29_006": "2", "P29_007": "0", "P29_008": "00", "P29_009": null }, "geometry": { "type": "Point", "coordinates": [ 130.448021050970738, 33.661618499347696 ] } },
{ "type": "Feature", "properties": { "P29_001": "40132", "P29_002": "D140213000048", "P29_003": "16004", "P29_004": "福岡県立福岡高等学校", "P29_005": "福岡県福岡市博多区堅粕1-29-1", "P29_006": "2", "P29_007": "0", "P29_008": "00", "P29_009": null }, "geometry": { "type": "Point", "coordinates": [ 130.418100308297653, 33.599046591969213 ] } },
{ "type": "Feature", "properties": { "P29_001": "40132", "P29_002": "D140213000057", "P29_003": "16004", "P29_004": "福岡県立博多青松高等学校", "P29_005": "福岡県福岡市博多区千代1-2-21", "P29_006": "2", "P29_007": "0", "P29_008": "00", "P29_009": null }, "geometry": { "type": "Point", "coordinates": [ 130.419238673205996, 33.600440000263994 ] } },
{ "type": "Feature", "properties": { "P29_001": "40133", "P29_002": "D140213000066", "P29_003": "16004", "P29_004": "福岡県立福岡中央高等学校", "P29_005": "福岡県福岡市中央区平尾3-20-57", "P29_006": "2", "P29_007": "0", "P29_008": "00", "P29_009": null }, "geometry": { "type": "Point", "coordinates": [ 130.397695007759268, 33.5762895550629 ] } },
{ "type": "Feature", "properties": { "P29_001": "40134", "P29_002": "D140213000075", "P29_003": "16004", "P29_004": "福岡県立筑紫丘高等学校", "P29_005": "福岡県福岡市南区野間2-13-1", "P29_006": "2", "P29_007": "0", "P29_008": "00", "P29_009": null }, "geometry": { "type": "Point", "coordinates": [ 130.419274971100293, 33.560503432317169 ] } },
{ "type": "Feature", "properties": { "P29_001": "40134", "P29_002": "D140213000093", "P29_003": "16004", "P29_004": "福岡市立福翔高等学校", "P29_005": "福岡県福岡市南区野多目5-31-1", "P29_006": "3", "P29_007": "0", "P29_008": "00", "P29_009": null }, "geometry": { "type": "Point", "coordinates": [ 130.415686666873455, 33.539887582710804 ] } },
{ "type": "Feature", "properties": { "P29_001": "40135", "P29_002": "D140213000100", "P29_003": "16004", "P29_004": "福岡県立筑前高等学校", "P29_005": "福岡県福岡市西区千里111-1", "P29_006": "2", "P29_007": "0", "P29_008": "00", "P29_009": null }, "geometry": { "type": "Point", "coordinates": [ 130.246789354873897, 33.560913187716608 ] } },
{ "type": "Feature", "properties": { "P29_001": "40135", "P29_002": "D140213000119", "P29_003": "16004", "P29_004": "福岡県立玄洋高等学校", "P29_005": "福岡県福岡市西区田尻東2-2490", "P29_006": "2", "P29_007": "0", "P29_008": "00", "P29_009": null }, "geometry": { "type": "Point", "coordinates": [ 130.252973619210849, 33.588387998137478 ] } },
{ "type": "Feature", "properties": { "P29_001": "40135", "P29_002": "D140213000137", "P29_003": "16004", "P29_004": "福岡市立福岡西陵高等学校", "P29_005": "福岡県福岡市西区大字拾六町字広石", "P29_006": "3", "P29_007": "0", "P29_008": "00", "P29_009": null }, "geometry": { "type": "Point", "coordinates": [ 130.296869723726957, 33.562744072381115 ] } },
{ "type": "Feature", "properties": { "P29_001": "40136", "P29_002": "D140213000146", "P29_003": "16004", "P29_004": "福岡県立城南高等学校", "P29_005": "福岡県福岡市城南区茶山6-21-1", "P29_006": "2", "P29_007": "0", "P29_008": "00", "P29_009": null }, "geometry": { "type": "Point", "coordinates": [ 130.360672044741307, 33.564913086485475 ] } },
{ "type": "Feature", "properties": { "P29_001": "40202", "P29_002": "D140220200014", "P29_003": "16004", "P29_004": "福岡県立三池高等学校", "P29_005": "福岡県大牟田市大字草木245", "P29_006": "2", "P29_007": "0", "P29_008": "00", "P29_009": null }, "geometry": { "type": "Point", "coordinates": [ 130.462468545066315, 33.052420084358516 ] } },
{ "type": "Feature", "properties": { "P29_001": "40202", "P29_002": "D140220200023", "P29_003": "16004", "P29_004": "福岡県立三池工業高等学校", "P29_005": "福岡県大牟田市上官町4-77", "P29_006": "2", "P29_007": "0", "P29_008": "00", "P29_009": null }, "geometry": { "type": "Point", "coordinates": [ 130.453724157042444, 33.019661515952066 ] } },
{ "type": "Feature", "properties": { "P29_001": "40202", "P29_002": "D140220200041", "P29_003": "16004", "P29_004": "福岡県立ありあけ新世高等学校", "P29_005": "福岡県大牟田市大字吉野1389-1", "P29_006": "2", "P29_007": "0", "P29_008": "00", "P29_009": null }, "geometry": { "type": "Point", "coordinates": [ 130.46768412932775, 33.073348221338769 ] } },
{ "type": "Feature", "properties": { "P29_001": "40203", "P29_002": "D140220300013", "P29_003": "16004", "P29_004": "福岡県立久留米筑水高等学校", "P29_005": "福岡県久留米市山川町1493", "P29_006": "2", "P29_007": "0", "P29_008": "00", "P29_009": null }, "geometry": { "type": "Point", "coordinates": [ 130.57092646939364, 33.313397762062785 ] } },
{ "type": "Feature", "properties": { "P29_001": "40203", "P29_002": "D140220300022", "P29_003": "16004", "P29_004": "福岡県立明善高等学校", "P29_005": "福岡県久留米市城南町9-1", "P29_006": "2", "P29_007": "0", "P29_008": "00", "P29_009": null }, "geometry": { "type": "Point", "coordinates": [ 130.505335677610162, 33.321739994332958 ] } },
{ "type": "Feature", "properties": { "P29_001": "40203", "P29_002": "D140220300031", "P29_003": "16004", "P29_004": "福岡県立久留米高等学校", "P29_005": "福岡県久留米市西町鞍打482", "P29_006": "2", "P29_007": "0", "P29_008": "00", "P29_009": null }, "geometry": { "type": "Point", "coordinates": [ 130.51476008620088, 33.299988991448139 ] } },
{ "type": "Feature", "properties": { "P29_001": "40203", "P29_002": "D140220300040", "P29_003": "16004", "P29_004": "福岡県立三潴高等学校", "P29_005": "福岡県久留米市城島町城島59-1", "P29_006": "2", "P29_007": "0", "P29_008": "00", "P29_009": null }, "geometry": { "type": "Point", "coordinates": [ 130.430851337409877, 33.254744930838378 ] } },
{ "type": "Feature", "properties": { "P29_001": "40203", "P29_002": "D140220300059", "P29_003": "16004", "P29_004": "福岡県立浮羽工業高等学校", "P29_005": "福岡県久留米市田主丸町田主丸395-2", "P29_006": "2", "P29_007": "0", "P29_008": "00", "P29_009": null }, "geometry": { "type": "Point", "coordinates": [ 130.696638821579057, 33.343370161249602 ] } },
{ "type": "Feature", "properties": { "P29_001": "40203", "P29_002": "D140220300086", "P29_003": "16004", "P29_004": "福岡県公立三井中央高等学校", "P29_005": "福岡県久留米市北野町中3050-1", "P29_006": "3", "P29_007": "0", "P29_008": "00", "P29_009": null }, "geometry": { "type": "Point", "coordinates": [ 130.589055508615843, 33.34773623890834 ] } },
{ "type": "Feature", "properties": { "P29_001": "40204", "P29_002": "D140220400030", "P29_003": "16004", "P29_004": "福岡県立筑豊高等学校", "P29_005": "福岡県直方市大字頓野4019-2", "P29_006": "2", "P29_007": "0", "P29_008": "00", "P29_009": null }, "geometry": { "type": "Point", "coordinates": [ 130.744928578234948, 33.753757425452605 ] } },
{ "type": "Feature", "properties": { "P29_001": "40205", "P29_002": "D140220500020", "P29_003": "16004", "P29_004": "福岡県立嘉穂東高等学校", "P29_005": "福岡県飯塚市立岩1730-5", "P29_006": "2", "P29_007": "0", "P29_008": "00", "P29_009": null }, "geometry": { "type": "Point", "coordinates": [ 130.690546966826901, 33.650859525126442 ] } },
{ "type": "Feature", "properties": { "P29_001": "40206", "P29_002": "D140220600029", "P29_003": "16004", "P29_004": "福岡県立西田川高等学校", "P29_005": "福岡県田川市上本町7-11", "P29_006": "2", "P29_007": "0", "P29_008": "00", "P29_009": null }, "geometry": { "type": "Point", "coordinates": [ 130.799812703210279, 33.625286566886828 ] } },
{ "type": "Feature", "properties": { "P29_001": "40206", "P29_002": "D140220600038", "P29_003": "16004", "P29_004": "福岡県立田川科学技術高等学校", "P29_005": "福岡県田川市糒1900", "P29_006": "2", "P29_007": "0", "P29_008": "00", "P29_009": null }, "geometry": { "type": "Point", "coordinates": [ 130.798479522395041, 33.652652826596736 ] } },
{ "type": "Feature", "properties": { "P29_001": "40207", "P29_002": "D140220700019", "P29_003": "16004", "P29_004": "福岡県立伝習館高等学校", "P29_005": "福岡県柳川市本町142", "P29_006": "2", "P29_007": "0", "P29_008": "00", "P29_009": null }, "geometry": { "type": "Point", "coordinates": [ 130.406125659200598, 33.165763009415819 ] } },
{ "type": "Feature", "properties": { "P29_001": "40210", "P29_002": "D140221000014", "P29_003": "16004", "P29_004": "福岡県立福島高等学校", "P29_005": "福岡県八女市吉田1581-2", "P29_006": "2", "P29_007": "0", "P29_008": "00", "P29_009": null }, "geometry": { "type": "Point", "coordinates": [ 130.559159082998207, 33.232047519998609 ] } },
{ "type": "Feature", "properties": { "P29_001": "40211", "P29_002": "D140221100013", "P29_003": "16004", "P29_004": "福岡県立八女高等学校", "P29_005": "福岡県筑後市和泉251", "P29_006": "2", "P29_007": "0", "P29_008": "00", "P29_009": null }, "geometry": { "type": "Point", "coordinates": [ 130.500924478201142, 33.205481183090541 ] } },
{ "type": "Feature", "properties": { "P29_001": "40212", "P29_002": "D140221200012", "P29_003": "16004", "P29_004": "福岡県立大川樟風高等学校", "P29_005": "福岡県大川市大字向島1382", "P29_006": "2", "P29_007": "0", "P29_008": "00", "P29_009": null }, "geometry": { "type": "Point", "coordinates": [ 130.377279412001542, 33.210627927622284 ] } },
{ "type": "Feature", "properties": { "P29_001": "40213", "P29_002": "D140221300011", "P29_003": "16004", "P29_004": "福岡県立京都高等学校", "P29_005": "福岡県行橋市南大橋4-5-1", "P29_006": "2", "P29_007": "0", "P29_008": "00", "P29_009": null }, "geometry": { "type": "Point", "coordinates": [ 130.977659579297011, 33.721146185997078 ] } },
{ "type": "Feature", "properties": { "P29_001": "40214", "P29_002": "D140221400010", "P29_003": "16004", "P29_004": "福岡県立青豊高等学校", "P29_005": "福岡県豊前市青豊3-1", "P29_006": "2", "P29_007": "0", "P29_008": "00", "P29_009": null }, "geometry": { "type": "Point", "coordinates": [ 131.131490197632985, 33.615143216358732 ] } },
{ "type": "Feature", "properties": { "P29_001": "40216", "P29_002": "D140221600018", "P29_003": "16004", "P29_004": "福岡県立三井高等学校", "P29_005": "福岡県小郡市松崎650", "P29_006": "2", "P29_007": "0", "P29_008": "00", "P29_009": null }, "geometry": { "type": "Point", "coordinates": [ 130.58089839047642, 33.39618979084409 ] } },
{ "type": "Feature", "properties": { "P29_001": "40216", "P29_002": "D140221600027", "P29_003": "16004", "P29_004": "福岡県立小郡高等学校", "P29_005": "福岡県小郡市三沢5128-1", "P29_006": "2", "P29_007": "0", "P29_008": "00", "P29_009": null }, "geometry": { "type": "Point", "coordinates": [ 130.561279438214171, 33.434300517028326 ] } },
{ "type": "Feature", "properties": { "P29_001": "40217", "P29_002": "D140221700026", "P29_003": "16004", "P29_004": "福岡県立武蔵台高等学校", "P29_005": "福岡県筑紫野市天拝坂5-2-1", "P29_006": "2", "P29_007": "0", "P29_008": "00", "P29_009": null }, "geometry": { "type": "Point", "coordinates": [ 130.500574191909209, 33.496570740309053 ] } },
{ "type": "Feature", "properties": { "P29_001": "40218", "P29_002": "D140221800016", "P29_003": "16004", "P29_004": "福岡県立春日高等学校", "P29_005": "福岡県春日市春日公園5-17", "P29_006": "2", "P29_007": "0", "P29_008": "00", "P29_009": null }, "geometry": { "type": "Point", "coordinates": [ 130.477382282181225, 33.525424107813571 ] } },
{ "type": "Feature", "properties": { "P29_001": "40219", "P29_002": "D140221900015", "P29_003": "16004", "P29_004": "福岡県立筑紫中央高等学校", "P29_005": "福岡県大野城市中央2-12-1", "P29_006": "2", "P29_007": "0", "P29_008": "00", "P29_009": null }, "geometry": { "type": "Point", "coordinates": [ 130.486302145612598, 33.524394989455907 ] } },
{ "type": "Feature", "properties": { "P29_001": "40220", "P29_002": "D140222000012", "P29_003": "16004", "P29_004": "福岡県立宗像高等学校", "P29_005": "福岡県宗像市東郷6-7-1", "P29_006": "2", "P29_007": "0", "P29_008": "00", "P29_009": null }, "geometry": { "type": "Point", "coordinates": [ 130.541204252102744, 33.801906015960029 ] } },
{ "type": "Feature", "properties": { "P29_001": "40223", "P29_002": "D140222300019", "P29_003": "16004", "P29_004": "福岡県立玄界高等学校", "P29_005": "福岡県古賀市舞の里3-6-1", "P29_006": "2", "P29_007": "0", "P29_008": "00", "P29_009": null }, "geometry": { "type": "Point", "coordinates": [ 130.482759595082371, 33.744150119765557 ] } },
{ "type": "Feature", "properties": { "P29_001": "40224", "P29_002": "D140222400018", "P29_003": "16004", "P29_004": "福岡県立水産高等学校", "P29_005": "福岡県福津市津屋崎4-46-14", "P29_006": "2", "P29_007": "0", "P29_008": "00", "P29_009": null }, "geometry": { "type": "Point", "coordinates": [ 130.458688047829128, 33.78731458039514 ] } },
{ "type": "Feature", "properties": { "P29_001": "40224", "P29_002": "D140222400027", "P29_003": "16004", "P29_004": "福岡県立光陵高等学校", "P29_005": "福岡県福津市光陽台5", "P29_006": "2", "P29_007": "0", "P29_008": "00", "P29_009": null }, "geometry": { "type": "Point", "coordinates": [ 130.500504073783816, 33.773219005939033 ] } },
{ "type": "Feature", "properties": { "P29_001": "40225", "P29_002": "D140222500017", "P29_003": "16004", "P29_004": "福岡県立浮羽究真館高等学校", "P29_005": "福岡県うきは市吉井町大字生葉658", "P29_006": "2", "P29_007": "0", "P29_008": "00", "P29_009": null }, "geometry": { "type": "Point", "coordinates": [ 130.732673145375657, 33.341780661156456 ] } },
{ "type": "Feature", "properties": { "P29_001": "40227", "P29_002": "D140222700015", "P29_003": "16004", "P29_004": "福岡県立稲築志耕館高等学校", "P29_005": "福岡県嘉麻市岩崎1318-1", "P29_006": "2", "P29_007": "0", "P29_008": "00", "P29_009": null }, "geometry": { "type": "Point", "coordinates": [ 130.712168699732842, 33.597905128054173 ] } },
{ "type": "Feature", "properties": { "P29_001": "40227", "P29_002": "D140222700024", "P29_003": "16004", "P29_004": "福岡県立嘉穂総合高等学校嘉麻市立大隈城山校", "P29_005": "福岡県嘉麻市大隈町725", "P29_006": "3", "P29_007": "0", "P29_008": "00", "P29_009": null }, "geometry": { "type": "Point", "coordinates": [ 130.743738119013045, 33.550313434370835 ] } },
{ "type": "Feature", "properties": { "P29_001": "40228", "P29_002": "D140222800014", "P29_003": "16004", "P29_004": "福岡県立朝倉高等学校", "P29_005": "福岡県朝倉市甘木876", "P29_006": "2", "P29_007": "0", "P29_008": "00", "P29_009": null }, "geometry": { "type": "Point", "coordinates": [ 130.661283995204315, 33.422917609687786 ] } },
{ "type": "Feature", "properties": { "P29_001": "40228", "P29_002": "D140222800023", "P29_003": "16004", "P29_004": "福岡県立朝倉東高等学校", "P29_005": "福岡県朝倉市甘木116-2", "P29_006": "2", "P29_007": "0", "P29_008": "00", "P29_009": null }, "geometry": { "type": "Point", "coordinates": [ 130.662001695917866, 33.417469407812767 ] } },
{ "type": "Feature", "properties": { "P29_001": "40228", "P29_002": "D140222800032", "P29_003": "16004", "P29_004": "福岡県立朝倉光陽高等学校", "P29_005": "福岡県朝倉市杷木古賀1765", "P29_006": "2", "P29_007": "0", "P29_008": "00", "P29_009": null }, "geometry": { "type": "Point", "coordinates": [ 130.805074722733679, 33.3623562948626 ] } },
{ "type": "Feature", "properties": { "P29_001": "40229", "P29_002": "D140222900013", "P29_003": "16004", "P29_004": "福岡県立山門高等学校", "P29_005": "福岡県みやま市瀬高町上庄1730-1", "P29_006": "2", "P29_007": "0", "P29_008": "00", "P29_009": null }, "geometry": { "type": "Point", "coordinates": [ 130.467382420458591, 33.160761939542759 ] } },
{ "type": "Feature", "properties": { "P29_001": "40230", "P29_002": "D140223000010", "P29_003": "16004", "P29_004": "福岡県立糸島高等学校", "P29_005": "福岡県糸島市前原南2-21-1", "P29_006": "2", "P29_007": "0", "P29_008": "00", "P29_009": null }, "geometry": { "type": "Point", "coordinates": [ 130.210336168660604, 33.557058051530653 ] } },
{ "type": "Feature", "properties": { "P29_001": "40230", "P29_002": "D140223000029", "P29_003": "16004", "P29_004": "福岡県立糸島農業高等学校", "P29_005": "福岡県糸島市前原西3-2-1", "P29_006": "2", "P29_007": "0", "P29_008": "00", "P29_009": null }, "geometry": { "type": "Point", "coordinates": [ 130.192724045807012, 33.56015526393881 ] } },
{ "type": "Feature", "properties": { "P29_001": "40341", "P29_002": "D140234100016", "P29_003": "16004", "P29_004": "福岡県立宇美商業高等学校", "P29_005": "福岡県糟屋郡宇美町大字井野52-1", "P29_006": "2", "P29_007": "0", "P29_008": "00", "P29_009": null }, "geometry": { "type": "Point", "coordinates": [ 130.502755745231696, 33.567941653771811 ] } },
{ "type": "Feature", "properties": { "P29_001": "40344", "P29_002": "D140234400013", "P29_003": "16004", "P29_004": "福岡県立須恵高等学校", "P29_005": "福岡県糟屋郡須恵町大字旅石72-3", "P29_006": "2", "P29_007": "0", "P29_008": "00", "P29_009": null }, "geometry": { "type": "Point", "coordinates": [ 130.500905603590809, 33.581751983599787 ] } },
{ "type": "Feature", "properties": { "P29_001": "40345", "P29_002": "D140234500012", "P29_003": "16004", "P29_004": "福岡県立新宮高等学校", "P29_005": "福岡県糟屋郡新宮町緑ケ浜1-12-1", "P29_006": "2", "P29_007": "0", "P29_008": "00", "P29_009": null }, "geometry": { "type": "Point", "coordinates": [ 130.445077554736827, 33.716013576138394 ] } },
{ "type": "Feature", "properties": { "P29_001": "40349", "P29_002": "D140234900018", "P29_003": "16004", "P29_004": "福岡県立福岡魁誠高等学校", "P29_005": "福岡県糟屋郡粕屋町長者原東5-5-1", "P29_006": "2", "P29_007": "0", "P29_008": "00", "P29_009": null }, "geometry": { "type": "Point", "coordinates": [ 130.482197566828404, 33.619045899707245 ] } },
{ "type": "Feature", "properties": { "P29_001": "40384", "P29_002": "D140238400014", "P29_003": "16004", "P29_004": "福岡県立遠賀高等学校", "P29_005": "福岡県遠賀郡遠賀町大字上別府2110", "P29_006": "2", "P29_007": "0", "P29_008": "00", "P29_009": null }, "geometry": { "type": "Point", "coordinates": [ 130.648993066815677, 33.837094251762814 ] } },
{ "type": "Feature", "properties": { "P29_001": "40421", "P29_002": "D140242100019", "P29_003": "16004", "P29_004": "福岡県立嘉穂総合高等学校", "P29_005": "福岡県嘉穂郡桂川町大字土師1117-1", "P29_006": "2", "P29_007": "0", "P29_008": "00", "P29_009": null }, "geometry": { "type": "Point", "coordinates": [ 130.687738794326464, 33.580315898565495 ] } },
{ "type": "Feature", "properties": { "P29_001": "40601", "P29_002": "D140260100011", "P29_003": "16004", "P29_004": "福岡県立田川高等学校", "P29_005": "福岡県田川郡香春町中津原2055-1", "P29_006": "2", "P29_007": "0", "P29_008": "00", "P29_009": null }, "geometry": { "type": "Point", "coordinates": [ 130.837287278525451, 33.651433342445301 ] } },
{ "type": "Feature", "properties": { "P29_001": "40647", "P29_002": "D140264700017", "P29_003": "16004", "P29_004": "福岡県立築上西高等学校", "P29_005": "福岡県築上郡築上町大字椎田764", "P29_006": "2", "P29_007": "0", "P29_008": "00", "P29_009": null }, "geometry": { "type": "Point", "coordinates": [ 131.05551466315211, 33.65288676026686 ] } },
{ "type": "Feature", "properties": { "P29_001": "40101", "P29_002": "D140310000015", "P29_003": "16004", "P29_004": "豊國学園高等学校", "P29_005": "福岡県北九州市門司区柳町4-5-1", "P29_006": "4", "P29_007": "0", "P29_008": "00", "P29_009": null }, "geometry": { "type": "Point", "coordinates": [ 130.94227415259661, 33.900996805318556 ] } },
{ "type": "Feature", "properties": { "P29_001": "40103", "P29_002": "D140310000033", "P29_003": "16004", "P29_004": "高稜高等学校", "P29_005": "福岡県北九州市若松区二島1-3-60", "P29_006": "4", "P29_007": "0", "P29_008": "00", "P29_009": null }, "geometry": { "type": "Point", "coordinates": [ 130.745591950462853, 33.891213535385404 ] } },
{ "type": "Feature", "properties": { "P29_001": "40105", "P29_002": "D140310000042", "P29_003": "16004", "P29_004": "明治学園高等学校", "P29_005": "福岡県北九州市戸畑区仙水町5-1", "P29_006": "4", "P29_007": "0", "P29_008": "00", "P29_009": null }, "geometry": { "type": "Point", "coordinates": [ 130.840205688404524, 33.888781243019999 ] } },
{ "type": "Feature", "properties": { "P29_001": "40106", "P29_002": "D140310000079", "P29_003": "16004", "P29_004": "東筑紫学園高等学校", "P29_005": "福岡県北九州市小倉北区清水4-10-1", "P29_006": "4", "P29_007": "0", "P29_008": "00", "P29_009": null }, "geometry": { "type": "Point", "coordinates": [ 130.858443496033289, 33.871210892742148 ] } },
{ "type": "Feature", "properties": { "P29_001": "40106", "P29_002": "D140310000088", "P29_003": "16004", "P29_004": "真颯館高等学校", "P29_005": "福岡県北九州市小倉北区中井口5-1", "P29_006": "4", "P29_007": "0", "P29_008": "00", "P29_009": null }, "geometry": { "type": "Point", "coordinates": [ 130.852427761905943, 33.896947694415012 ] } },
{ "type": "Feature", "properties": { "P29_001": "40106", "P29_002": "D140310000097", "P29_003": "16004", "P29_004": "慶成高等学校", "P29_005": "福岡県北九州市小倉北区皿山町15-1", "P29_006": "4", "P29_007": "0", "P29_008": "00", "P29_009": null }, "geometry": { "type": "Point", "coordinates": [ 130.857252367503861, 33.867865638751475 ] } },
{ "type": "Feature", "properties": { "P29_001": "40107", "P29_002": "D140310000104", "P29_003": "16004", "P29_004": "常磐高等学校", "P29_005": "福岡県北九州市小倉南区大字志井1937", "P29_006": "4", "P29_007": "0", "P29_008": "00", "P29_009": null }, "geometry": { "type": "Point", "coordinates": [ 130.879619963063448, 33.814589392562326 ] } },
{ "type": "Feature", "properties": { "P29_001": "40108", "P29_002": "D140310000113", "P29_003": "16004", "P29_004": "九州国際大学付属高等学校", "P29_005": "福岡県北九州市八幡東区枝光5-9-1", "P29_006": "4", "P29_007": "0", "P29_008": "00", "P29_009": null }, "geometry": { "type": "Point", "coordinates": [ 130.819943848804371, 33.881405826087423 ] } },
{ "type": "Feature", "properties": { "P29_001": "40109", "P29_002": "D140310000122", "P29_003": "16004", "P29_004": "折尾愛真高等学校", "P29_005": "福岡県北九州市八幡西区堀川町12-10", "P29_006": "4", "P29_007": "0", "P29_008": "00", "P29_009": null }, "geometry": { "type": "Point", "coordinates": [ 130.710741120489473, 33.86060296919154 ] } },
{ "type": "Feature", "properties": { "P29_001": "40109", "P29_002": "D140310000131", "P29_003": "16004", "P29_004": "星琳高等学校", "P29_005": "福岡県北九州市八幡西区青山3-3-1", "P29_006": "4", "P29_007": "0", "P29_008": "00", "P29_009": null }, "geometry": { "type": "Point", "coordinates": [ 130.753184307747347, 33.85756216303627 ] } },
{ "type": "Feature", "properties": { "P29_001": "40109", "P29_002": "D140310000159", "P29_003": "16004", "P29_004": "仰星学園高等学校", "P29_005": "福岡県北九州市八幡西区平尾町1-1", "P29_006": "4", "P29_007": "0", "P29_008": "00", "P29_009": null }, "geometry": { "type": "Point", "coordinates": [ 130.778250081110741, 33.859634642058275 ] } },
{ "type": "Feature", "properties": { "P29_001": "40131", "P29_002": "D140313000019", "P29_003": "16004", "P29_004": "博多高等学校", "P29_005": "福岡県福岡市東区水谷1-21-1", "P29_006": "4", "P29_007": "0", "P29_008": "00", "P29_009": null }, "geometry": { "type": "Point", "coordinates": [ 130.443384395179322, 33.648600679877234 ] } },
{ "type": "Feature", "properties": { "P29_001": "40131", "P29_002": "D140313000028", "P29_003": "16004", "P29_004": "博多女子高等学校", "P29_005": "福岡県福岡市東区馬出1-14-18", "P29_006": "4", "P29_007": "0", "P29_008": "00", "P29_009": null }, "geometry": { "type": "Point", "coordinates": [ 130.420946856615444, 33.61016108711771 ] } },
{ "type": "Feature", "properties": { "P29_001": "40131", "P29_002": "D140313000037", "P29_003": "16004", "P29_004": "立花高等学校", "P29_005": "福岡県福岡市東区和白丘2-24-43", "P29_006": "4", "P29_007": "0", "P29_008": "00", "P29_009": null }, "geometry": { "type": "Point", "coordinates": [ 130.432155108130104, 33.695873827878266 ] } },
{ "type": "Feature", "properties": { "P29_001": "40131", "P29_002": "D140313000046", "P29_003": "16004", "P29_004": "福岡工業大学附属城東高等学校", "P29_005": "福岡県福岡市東区和白東3-30-1", "P29_006": "4", "P29_007": "0", "P29_008": "00", "P29_009": null }, "geometry": { "type": "Point", "coordinates": [ 130.441821321442944, 33.696213570999667 ] } },
{ "type": "Feature", "properties": { "P29_001": "40131", "P29_002": "D140313000055", "P29_003": "16004", "P29_004": "九州産業大学付属九州高等学校", "P29_005": "福岡県福岡市東区香椎駅東2-22-1", "P29_006": "4", "P29_007": "0", "P29_008": "00", "P29_009": null }, "geometry": { "type": "Point", "coordinates": [ 130.446536550881007, 33.662622638587855 ] } },
{ "type": "Feature", "properties": { "P29_001": "40132", "P29_002": "D140313000064", "P29_003": "16004", "P29_004": "精華女子高等学校", "P29_005": "福岡県福岡市博多区住吉4-19-1", "P29_006": "4", "P29_007": "0", "P29_008": "00", "P29_009": null }, "geometry": { "type": "Point", "coordinates": [ 130.413363551169596, 33.582420889880957 ] } },
{ "type": "Feature", "properties": { "P29_001": "40132", "P29_002": "D140313000073", "P29_003": "16004", "P29_004": "東福岡高等学校", "P29_005": "福岡県福岡市博多区東比恵2-24-1", "P29_006": "4", "P29_007": "0", "P29_008": "00", "P29_009": null }, "geometry": { "type": "Point", "coordinates": [ 130.431257287907073, 33.593837896714255 ] } },
{ "type": "Feature", "properties": { "P29_001": "40132", "P29_002": "D140313000082", "P29_003": "16004", "P29_004": "沖学園高等学校", "P29_005": "福岡県福岡市博多区竹下2-1-33", "P29_006": "4", "P29_007": "0", "P29_008": "00", "P29_009": null }, "geometry": { "type": "Point", "coordinates": [ 130.430266181869797, 33.574200337968854 ] } },
{ "type": "Feature", "properties": { "P29_001": "40133", "P29_002": "D140313000091", "P29_003": "16004", "P29_004": "上智福岡高等学校", "P29_005": "福岡県福岡市中央区輝国1-10-10", "P29_006": "4", "P29_007": "0", "P29_008": "00", "P29_009": null }, "geometry": { "type": "Point", "coordinates": [ 130.38575708990507, 33.57165631502928 ] } },
{ "type": "Feature", "properties": { "P29_001": "40133", "P29_002": "D140313000108", "P29_003": "16004", "P29_004": "筑紫女学園高等学校", "P29_005": "福岡県福岡市中央区警固2-8-1", "P29_006": "4", "P29_007": "0", "P29_008": "00", "P29_009": null }, "geometry": { "type": "Point", "coordinates": [ 130.38888947266372, 33.581947101844499 ] } },
{ "type": "Feature", "properties": { "P29_001": "40133", "P29_002": "D140313000117", "P29_003": "16004", "P29_004": "福岡大学附属若葉高等学校", "P29_005": "福岡県福岡市中央区荒戸3-4-62", "P29_006": "4", "P29_007": "0", "P29_008": "00", "P29_009": null }, "geometry": { "type": "Point", "coordinates": [ 130.374491376248216, 33.593758556137573 ] } },
{ "type": "Feature", "properties": { "P29_001": "40133", "P29_002": "D140313000135", "P29_003": "16004", "P29_004": "福岡大学付属大濠高等学校", "P29_005": "福岡県福岡市中央区六本松1-12-1", "P29_006": "4", "P29_007": "0", "P29_008": "00", "P29_009": null }, "geometry": { "type": "Point", "coordinates": [ 130.377542896391731, 33.581590772062555 ] } },
{ "type": "Feature", "properties": { "P29_001": "40133", "P29_002": "D140313000144", "P29_003": "16004", "P29_004": "つくば開成福岡高等学校", "P29_005": "福岡県福岡市中央区天神5-3-1", "P29_006": "4", "P29_007": "0", "P29_008": "00", "P29_009": null }, "geometry": { "type": "Point", "coordinates": [ 130.397677026502379, 33.596156869313205 ] } },
{ "type": "Feature", "properties": { "P29_001": "40134", "P29_002": "D140313000153", "P29_003": "16004", "P29_004": "福岡女学院高等学校", "P29_005": "福岡県福岡市南区曰佐3-42-1", "P29_006": "4", "P29_007": "0", "P29_008": "00", "P29_009": null }, "geometry": { "type": "Point", "coordinates": [ 130.441763994854824, 33.534319828176507 ] } },
{ "type": "Feature", "properties": { "P29_001": "40134", "P29_002": "D140313000162", "P29_003": "16004", "P29_004": "福岡第一高等学校", "P29_005": "福岡県福岡市南区玉川町22-1", "P29_006": "4", "P29_007": "0", "P29_008": "00", "P29_009": null }, "geometry": { "type": "Point", "coordinates": [ 130.417406876088137, 33.565561083462335 ] } },
{ "type": "Feature", "properties": { "P29_001": "40134", "P29_002": "D140313000171", "P29_003": "16004", "P29_004": "純真高等学校", "P29_005": "福岡県福岡市南区筑紫丘1-1-1", "P29_006": "4", "P29_007": "0", "P29_008": "00", "P29_009": null }, "geometry": { "type": "Point", "coordinates": [ 130.419796836363133, 33.558557884563328 ] } },
{ "type": "Feature", "properties": { "P29_001": "40134", "P29_002": "D140313000199", "P29_003": "16004", "P29_004": "福岡海星女子学院高等学校", "P29_005": "福岡県福岡市南区老司5-29-3", "P29_006": "4", "P29_007": "0", "P29_008": "00", "P29_009": null }, "geometry": { "type": "Point", "coordinates": [ 130.415333818741431, 33.526256518813625 ] } },
{ "type": "Feature", "properties": { "P29_001": "40135", "P29_002": "D140313000206", "P29_003": "16004", "P29_004": "福岡舞鶴高等学校", "P29_005": "福岡県福岡市西区北原2-17-42", "P29_006": "4", "P29_007": "0", "P29_008": "00", "P29_009": null }, "geometry": { "type": "Point", "coordinates": [ 130.258041851102803, 33.58294852683283 ] } },
{ "type": "Feature", "properties": { "P29_001": "40136", "P29_002": "D140313000224", "P29_003": "16004", "P29_004": "中村学園女子高等学校", "P29_005": "福岡県福岡市城南区鳥飼7-10-38", "P29_006": "4", "P29_007": "0", "P29_008": "00", "P29_009": null }, "geometry": { "type": "Point", "coordinates": [ 130.364152310912772, 33.576137150217122 ] } },
{ "type": "Feature", "properties": { "P29_001": "40137", "P29_002": "D140313000233", "P29_003": "16004", "P29_004": "西南学院高等学校", "P29_005": "福岡県福岡市早良区百道浜1-1-1", "P29_006": "4", "P29_007": "0", "P29_008": "00", "P29_009": null }, "geometry": { "type": "Point", "coordinates": [ 130.358324578213484, 33.589425572249574 ] } },
{ "type": "Feature", "properties": { "P29_001": "40202", "P29_002": "D140320200012", "P29_003": "16004", "P29_004": "大牟田高等学校", "P29_005": "福岡県大牟田市大字草木字羽山852", "P29_006": "4", "P29_007": "0", "P29_008": "00", "P29_009": null }, "geometry": { "type": "Point", "coordinates": [ 130.467572523347854, 33.053171984038734 ] } },
{ "type": "Feature", "properties": { "P29_001": "40202", "P29_002": "D140320200030", "P29_003": "16004", "P29_004": "明光学園高等学校", "P29_005": "福岡県大牟田市倉永170", "P29_006": "4", "P29_007": "0", "P29_008": "00", "P29_009": null }, "geometry": { "type": "Point", "coordinates": [ 130.465220643482297, 33.074231354881682 ] } },
{ "type": "Feature", "properties": { "P29_001": "40203", "P29_002": "D140320300011", "P29_003": "16004", "P29_004": "久留米学園高等学校", "P29_005": "福岡県久留米市東町272-4", "P29_006": "4", "P29_007": "0", "P29_008": "00", "P29_009": null }, "geometry": { "type": "Point", "coordinates": [ 130.521111769814325, 33.309160382762521 ] } },
{ "type": "Feature", "properties": { "P29_001": "40203", "P29_002": "D140320300039", "P29_003": "16004", "P29_004": "久留米信愛高等学校", "P29_005": "福岡県久留米市御井町2278-1", "P29_006": "4", "P29_007": "0", "P29_008": "00", "P29_009": null }, "geometry": { "type": "Point", "coordinates": [ 130.550561495310774, 33.29721157061401 ] } },
{ "type": "Feature", "properties": { "P29_001": "40204", "P29_002": "D140320400010", "P29_003": "16004", "P29_004": "学校法人大和学園大和青藍高等学校", "P29_005": "福岡県直方市日吉町10-12", "P29_006": "4", "P29_007": "0", "P29_008": "00", "P29_009": null }, "geometry": { "type": "Point", "coordinates": [ 130.728168979955228, 33.751759797178487 ] } },
{ "type": "Feature", "properties": { "P29_001": "40207", "P29_002": "D140320700017", "P29_003": "16004", "P29_004": "柳川高等学校", "P29_005": "福岡県柳川市本城町125", "P29_006": "4", "P29_007": "0", "P29_008": "00", "P29_009": null }, "geometry": { "type": "Point", "coordinates": [ 130.402865133885427, 33.160501980156447 ] } },
{ "type": "Feature", "properties": { "P29_001": "40207", "P29_002": "D140320700026", "P29_003": "16004", "P29_004": "杉森高等学校", "P29_005": "福岡県柳川市奥州町3", "P29_006": "4", "P29_007": "0", "P29_008": "00", "P29_009": null }, "geometry": { "type": "Point", "coordinates": [ 130.407317987871807, 33.15764571169619 ] } },
{ "type": "Feature", "properties": { "P29_001": "40210", "P29_002": "D140321000021", "P29_003": "16004", "P29_004": "西日本短期大学附属高等学校", "P29_005": "福岡県八女市大字亀甲61", "P29_006": "4", "P29_007": "0", "P29_008": "00", "P29_009": null }, "geometry": { "type": "Point", "coordinates": [ 130.534356067608059, 33.217873384124317 ] } },
{ "type": "Feature", "properties": { "P29_001": "40215", "P29_002": "D140321500017", "P29_003": "16004", "P29_004": "希望が丘高等学校", "P29_005": "福岡県中間市土手の内3-19-1", "P29_006": "4", "P29_007": "0", "P29_008": "00", "P29_009": null }, "geometry": { "type": "Point", "coordinates": [ 130.715130088143582, 33.808123695976967 ] } },
{ "type": "Feature", "properties": { "P29_001": "40217", "P29_002": "D140321700015", "P29_003": "16004", "P29_004": "九州産業大学付属九州産業高等学校", "P29_005": "福岡県筑紫野市紫2-5-1", "P29_006": "4", "P29_007": "0", "P29_008": "00", "P29_009": null }, "geometry": { "type": "Point", "coordinates": [ 130.525584797768147, 33.496641081936978 ] } },
{ "type": "Feature", "properties": { "P29_001": "40231", "P29_002": "D140323100017", "P29_003": "16004", "P29_004": "福岡女子商業高等学校", "P29_005": "福岡県那珂川市片縄北1-4-1", "P29_006": "4", "P29_007": "0", "P29_008": "00", "P29_009": null }, "geometry": { "type": "Point", "coordinates": [ 130.416428933386754, 33.519369614718791 ] } },
{ "type": "Feature", "properties": { "P29_001": "40605", "P29_002": "D140360500015", "P29_003": "16004", "P29_004": "川崎特区明蓬館高等学校", "P29_005": "福岡県田川郡川崎町大字安眞木1373", "P29_006": "4", "P29_007": "0", "P29_008": "00", "P29_009": null }, "geometry": { "type": "Point", "coordinates": [ 130.823064384784715, 33.548839692011988 ] } },
{ "type": "Feature", "properties": { "P29_001": "40101", "P29_002": "D140210000026", "P29_003": "16004", "P29_004": "福岡県立門司学園高等学校", "P29_005": "福岡県北九州市門司区猿喰1462-2", "P29_006": "2", "P29_007": "0", "P29_008": "00", "P29_009": null }, "geometry": { "type": "Point", "coordinates": [ 130.984776967729857, 33.895492625759616 ] } },
{ "type": "Feature", "properties": { "P29_001": "40103", "P29_002": "D140210000035", "P29_003": "16004", "P29_004": "福岡県立若松高等学校", "P29_005": "福岡県北九州市若松区上原町15-13", "P29_006": "2", "P29_007": "0", "P29_008": "00", "P29_009": null }, "geometry": { "type": "Point", "coordinates": [ 130.792691016532672, 33.913207736514849 ] } },
{ "type": "Feature", "properties": { "P29_001": "40103", "P29_002": "D140210000044", "P29_003": "16004", "P29_004": "福岡県立若松商業高等学校", "P29_005": "福岡県北九州市若松区片山3-2-1", "P29_006": "2", "P29_007": "0", "P29_008": "00", "P29_009": null }, "geometry": { "type": "Point", "coordinates": [ 130.746038377970336, 33.899043939045775 ] } },
{ "type": "Feature", "properties": { "P29_001": "40105", "P29_002": "D140210000071", "P29_003": "16004", "P29_004": "福岡県立戸畑工業高等学校", "P29_005": "福岡県北九州市戸畑区丸町3-10-1", "P29_006": "2", "P29_007": "0", "P29_008": "00", "P29_009": null }, "geometry": { "type": "Point", "coordinates": [ 130.817740109971737, 33.888905013749131 ] } },
{ "type": "Feature", "properties": { "P29_001": "40131", "P29_002": "D140213000039", "P29_003": "16004", "P29_004": "福岡県立香住丘高等学校", "P29_005": "福岡県福岡市東区香住ケ丘1-26-1", "P29_006": "2", "P29_007": "0", "P29_008": "00", "P29_009": null }, "geometry": { "type": "Point", "coordinates": [ 130.436240366520565, 33.669177817146625 ] } },
{ "type": "Feature", "properties": { "P29_001": "40134", "P29_002": "D140213000084", "P29_003": "16004", "P29_004": "福岡県立柏陵高等学校", "P29_005": "福岡県福岡市南区柏原4-47-1", "P29_006": "2", "P29_007": "0", "P29_008": "00", "P29_009": null }, "geometry": { "type": "Point", "coordinates": [ 130.394116908774606, 33.521524702210527 ] } },
{ "type": "Feature", "properties": { "P29_001": "40135", "P29_002": "D140213000128", "P29_003": "16004", "P29_004": "福岡市立福岡女子高等学校", "P29_005": "福岡県福岡市西区愛宕浜3-2-2", "P29_006": "3", "P29_007": "0", "P29_008": "00", "P29_009": null }, "geometry": { "type": "Point", "coordinates": [ 130.32945572152866, 33.596751695019549 ] } },
{ "type": "Feature", "properties": { "P29_001": "40136", "P29_002": "D140213000155", "P29_003": "16004", "P29_004": "福岡市立博多工業高等学校", "P29_005": "福岡県福岡市城南区東油山4-20-1", "P29_006": "3", "P29_007": "0", "P29_008": "00", "P29_009": null }, "geometry": { "type": "Point", "coordinates": [ 130.375644531603086, 33.532242949258325 ] } },
{ "type": "Feature", "properties": { "P29_001": "40137", "P29_002": "D140213000164", "P29_003": "16004", "P29_004": "福岡県立修猷館高等学校", "P29_005": "福岡県福岡市早良区西新6-1-10", "P29_006": "2", "P29_007": "0", "P29_008": "00", "P29_009": null }, "geometry": { "type": "Point", "coordinates": [ 130.356018782904215, 33.584064855379324 ] } },
{ "type": "Feature", "properties": { "P29_001": "40137", "P29_002": "D140213000173", "P29_003": "16004", "P29_004": "福岡県立福岡工業高等学校", "P29_005": "福岡県福岡市早良区荒江2-19-1", "P29_006": "2", "P29_007": "0", "P29_008": "00", "P29_009": null }, "geometry": { "type": "Point", "coordinates": [ 130.354893823838921, 33.573186535655395 ] } },
{ "type": "Feature", "properties": { "P29_001": "40137", "P29_002": "D140213000182", "P29_003": "16004", "P29_004": "福岡県立福岡講倫館高等学校", "P29_005": "福岡県福岡市早良区有田3-9-1", "P29_006": "2", "P29_007": "0", "P29_008": "00", "P29_009": null }, "geometry": { "type": "Point", "coordinates": [ 130.333694729593276, 33.558525926346249 ] } },
{ "type": "Feature", "properties": { "P29_001": "40137", "P29_002": "D140213000191", "P29_003": "16004", "P29_004": "福岡県立早良高等学校", "P29_005": "福岡県福岡市早良区大字小笠木403", "P29_006": "2", "P29_007": "0", "P29_008": "00", "P29_009": null }, "geometry": { "type": "Point", "coordinates": [ 130.364840673218737, 33.489569171288601 ] } },
{ "type": "Feature", "properties": { "P29_001": "40202", "P29_002": "D140220200032", "P29_003": "16004", "P29_004": "福岡県立大牟田北高等学校", "P29_005": "福岡県大牟田市吉野555", "P29_006": "2", "P29_007": "0", "P29_008": "00", "P29_009": null }, "geometry": { "type": "Point", "coordinates": [ 130.471705466621557, 33.076404160666037 ] } },
{ "type": "Feature", "properties": { "P29_001": "40203", "P29_002": "D140220300068", "P29_003": "16004", "P29_004": "久留米市立南筑高等学校", "P29_005": "福岡県久留米市御井町1360-5", "P29_006": "3", "P29_007": "0", "P29_008": "00", "P29_009": null }, "geometry": { "type": "Point", "coordinates": [ 130.550039501106085, 33.309883223649656 ] } },
{ "type": "Feature", "properties": { "P29_001": "40203", "P29_002": "D140220300077", "P29_003": "16004", "P29_004": "久留米市立久留米商業高等学校", "P29_005": "福岡県久留米市南1-1-1", "P29_006": "3", "P29_007": "0", "P29_008": "00", "P29_009": null }, "geometry": { "type": "Point", "coordinates": [ 130.514639863842888, 33.293362437276713 ] } },
{ "type": "Feature", "properties": { "P29_001": "40204", "P29_002": "D140220400012", "P29_003": "16004", "P29_004": "福岡県立鞍手高等学校", "P29_005": "福岡県直方市大字山部810-7", "P29_006": "2", "P29_007": "0", "P29_008": "00", "P29_009": null }, "geometry": { "type": "Point", "coordinates": [ 130.717514901082154, 33.746616860349718 ] } },
{ "type": "Feature", "properties": { "P29_001": "40204", "P29_002": "D140220400021", "P29_003": "16004", "P29_004": "福岡県立直方高等学校", "P29_005": "福岡県直方市大字頓野3459-2", "P29_006": "2", "P29_007": "0", "P29_008": "00", "P29_009": null }, "geometry": { "type": "Point", "coordinates": [ 130.74147899474977, 33.745887899069309 ] } },
{ "type": "Feature", "properties": { "P29_001": "40205", "P29_002": "D140220500011", "P29_003": "16004", "P29_004": "福岡県立嘉穂高等学校", "P29_005": "福岡県飯塚市潤野8-12", "P29_006": "2", "P29_007": "0", "P29_008": "00", "P29_009": null }, "geometry": { "type": "Point", "coordinates": [ 130.663746663352157, 33.631911868727073 ] } },
{ "type": "Feature", "properties": { "P29_001": "40206", "P29_002": "D140220600010", "P29_003": "16004", "P29_004": "福岡県立東鷹高等学校", "P29_005": "福岡県田川市伊田2362-3", "P29_006": "2", "P29_007": "0", "P29_008": "00", "P29_009": null }, "geometry": { "type": "Point", "coordinates": [ 130.819686846685556, 33.631273111001555 ] } },
{ "type": "Feature", "properties": { "P29_001": "40210", "P29_002": "D140221000023", "P29_003": "16004", "P29_004": "福岡県立八女農業高等学校", "P29_005": "福岡県八女市大字本町2-160", "P29_006": "2", "P29_007": "0", "P29_008": "00", "P29_009": null }, "geometry": { "type": "Point", "coordinates": [ 130.558623232839125, 33.20618167955584 ] } },
{ "type": "Feature", "properties": { "P29_001": "40211", "P29_002": "D140221100022", "P29_003": "16004", "P29_004": "福岡県立八女工業高等学校", "P29_005": "福岡県筑後市羽犬塚301-4", "P29_006": "2", "P29_007": "0", "P29_008": "00", "P29_009": null }, "geometry": { "type": "Point", "coordinates": [ 130.497514386073334, 33.215586079712494 ] } },
{ "type": "Feature", "properties": { "P29_001": "40213", "P29_002": "D140221300020", "P29_003": "16004", "P29_004": "福岡県立行橋高等学校", "P29_005": "福岡県行橋市泉中央1-17-1", "P29_006": "2", "P29_007": "0", "P29_008": "00", "P29_009": null }, "geometry": { "type": "Point", "coordinates": [ 130.978770236539532, 33.714620928654874 ] } },
{ "type": "Feature", "properties": { "P29_001": "40215", "P29_002": "D140221500019", "P29_003": "16004", "P29_004": "福岡県立中間高等学校", "P29_005": "福岡県中間市朝霧5-1-1", "P29_006": "2", "P29_007": "0", "P29_008": "00", "P29_009": null }, "geometry": { "type": "Point", "coordinates": [ 130.733163207119759, 33.813573459897931 ] } },
{ "type": "Feature", "properties": { "P29_001": "40217", "P29_002": "D140221700017", "P29_003": "16004", "P29_004": "福岡県立筑紫高等学校", "P29_005": "福岡県筑紫野市針摺東2-4-1", "P29_006": "2", "P29_007": "0", "P29_008": "00", "P29_009": null }, "geometry": { "type": "Point", "coordinates": [ 130.54074299750144, 33.489168861243165 ] } },
{ "type": "Feature", "properties": { "P29_001": "40221", "P29_002": "D140222100011", "P29_003": "16004", "P29_004": "福岡県立福岡農業高等学校", "P29_005": "福岡県太宰府市大佐野250", "P29_006": "2", "P29_007": "0", "P29_008": "00", "P29_009": null }, "geometry": { "type": "Point", "coordinates": [ 130.49583788168863, 33.498956606057682 ] } },
{ "type": "Feature", "properties": { "P29_001": "40221", "P29_002": "D140222100020", "P29_003": "16004", "P29_004": "福岡県立太宰府高等学校", "P29_005": "福岡県太宰府市高雄3-4114", "P29_006": "2", "P29_007": "0", "P29_008": "00", "P29_009": null }, "geometry": { "type": "Point", "coordinates": [ 130.543966012406628, 33.503772035261541 ] } },
{ "type": "Feature", "properties": { "P29_001": "40223", "P29_002": "D140222300028", "P29_003": "16004", "P29_004": "福岡県公立古賀竟成館高等学校", "P29_005": "福岡県古賀市中央2-12-1", "P29_006": "3", "P29_007": "0", "P29_008": "00", "P29_009": null }, "geometry": { "type": "Point", "coordinates": [ 130.472267629637287, 33.733413673433446 ] } },
{ "type": "Feature", "properties": { "P29_001": "40226", "P29_002": "D140222600016", "P29_003": "16004", "P29_004": "福岡県立鞍手竜徳高等学校", "P29_005": "福岡県宮若市龍徳161", "P29_006": "2", "P29_007": "0", "P29_008": "00", "P29_009": null }, "geometry": { "type": "Point", "coordinates": [ 130.703718618650441, 33.736510741979473 ] } },
{ "type": "Feature", "properties": { "P29_001": "40621", "P29_002": "D140262100017", "P29_003": "16004", "P29_004": "福岡県立苅田工業高等学校", "P29_005": "福岡県京都郡苅田町集2569", "P29_006": "2", "P29_007": "0", "P29_008": "00", "P29_009": null }, "geometry": { "type": "Point", "coordinates": [ 130.967778915835453, 33.767435902253396 ] } },
{ "type": "Feature", "properties": { "P29_001": "40625", "P29_002": "D140262500013", "P29_003": "16004", "P29_004": "福岡県立育徳館高等学校", "P29_005": "福岡県京都郡みやこ町豊津973", "P29_006": "2", "P29_007": "0", "P29_008": "00", "P29_009": null }, "geometry": { "type": "Point", "coordinates": [ 130.975600663418248, 33.67141852427838 ] } },
{ "type": "Feature", "properties": { "P29_001": "40101", "P29_002": "D140310000024", "P29_003": "16004", "P29_004": "敬愛高等学校", "P29_005": "福岡県北九州市門司区別院6-1", "P29_006": "4", "P29_007": "0", "P29_008": "00", "P29_009": null }, "geometry": { "type": "Point", "coordinates": [ 130.934788235865284, 33.894571808504551 ] } },
{ "type": "Feature", "properties": { "P29_001": "40106", "P29_002": "D140310000051", "P29_003": "16004", "P29_004": "西南女学院高等学校", "P29_005": "福岡県北九州市小倉北区上到津1-10-1", "P29_006": "4", "P29_007": "0", "P29_008": "00", "P29_009": null }, "geometry": { "type": "Point", "coordinates": [ 130.852309409981473, 33.879818620726695 ] } },
{ "type": "Feature", "properties": { "P29_001": "40106", "P29_002": "D140310000060", "P29_003": "16004", "P29_004": "美萩野女子高等学校", "P29_005": "福岡県北九州市小倉北区片野新町1-3-1", "P29_006": "4", "P29_007": "0", "P29_008": "00", "P29_009": null }, "geometry": { "type": "Point", "coordinates": [ 130.885049505955351, 33.864612274484685 ] } },
{ "type": "Feature", "properties": { "P29_001": "40109", "P29_002": "D140310000140", "P29_003": "16004", "P29_004": "自由ケ丘高等学校", "P29_005": "福岡県北九州市八幡西区自由ケ丘1-3", "P29_006": "4", "P29_007": "0", "P29_008": "00", "P29_009": null }, "geometry": { "type": "Point", "coordinates": [ 130.705302837964751, 33.86640688181285 ] } },
{ "type": "Feature", "properties": { "P29_001": "40133", "P29_002": "D140313000126", "P29_003": "16004", "P29_004": "福岡雙葉高等学校", "P29_005": "福岡県福岡市中央区御所ヶ谷7-1", "P29_006": "4", "P29_007": "0", "P29_008": "00", "P29_009": null }, "geometry": { "type": "Point", "coordinates": [ 130.391513362423012, 33.575074749950971 ] } },
{ "type": "Feature", "properties": { "P29_001": "40134", "P29_002": "D140313000180", "P29_003": "16004", "P29_004": "第一薬科大学付属高等学校", "P29_005": "福岡県福岡市南区玉川町22-1", "P29_006": "4", "P29_007": "0", "P29_008": "00", "P29_009": null }, "geometry": { "type": "Point", "coordinates": [ 130.419375542791585, 33.56423810894109 ] } },
{ "type": "Feature", "properties": { "P29_001": "40135", "P29_002": "D140313000215", "P29_003": "16004", "P29_004": "中村学園三陽高等学校", "P29_005": "福岡県福岡市西区今宿青木1042-33", "P29_006": "4", "P29_007": "0", "P29_008": "00", "P29_009": null }, "geometry": { "type": "Point", "coordinates": [ 130.289365284394393, 33.566026233473934 ] } },
{ "type": "Feature", "properties": { "P29_001": "40132", "P29_002": "D140313000242", "P29_003": "16004", "P29_004": "福岡芸術高等学校", "P29_005": "福岡県福岡市博多区博多駅前3-11-10", "P29_006": "4", "P29_007": "0", "P29_008": "00", "P29_009": null }, "geometry": { "type": "Point", "coordinates": [ 130.414690096233244, 33.586807936930413 ] } },
{ "type": "Feature", "properties": { "P29_001": "40202", "P29_002": "D140320200021", "P29_003": "16004", "P29_004": "誠修高等学校", "P29_005": "福岡県大牟田市大字田隈956", "P29_006": "4", "P29_007": "0", "P29_008": "00", "P29_009": null }, "geometry": { "type": "Point", "coordinates": [ 130.467544876149873, 33.059995852254509 ] } },
{ "type": "Feature", "properties": { "P29_001": "40203", "P29_002": "D140320300020", "P29_003": "16004", "P29_004": "久留米大学附設高等学校", "P29_005": "福岡県久留米市野中町20-2", "P29_006": "4", "P29_007": "0", "P29_008": "00", "P29_009": null }, "geometry": { "type": "Point", "coordinates": [ 130.544450511411185, 33.304591537198874 ] } },
{ "type": "Feature", "properties": { "P29_001": "40203", "P29_002": "D140320300048", "P29_003": "16004", "P29_004": "祐誠高等学校", "P29_005": "福岡県久留米市上津町2192", "P29_006": "4", "P29_007": "0", "P29_008": "00", "P29_009": null }, "geometry": { "type": "Point", "coordinates": [ 130.540528384316787, 33.274761725843554 ] } },
{ "type": "Feature", "properties": { "P29_001": "40205", "P29_002": "D140320500019", "P29_003": "16004", "P29_004": "近畿大学附属福岡高等学校", "P29_005": "福岡県飯塚市柏の森11-6", "P29_006": "4", "P29_007": "0", "P29_008": "00", "P29_009": null }, "geometry": { "type": "Point", "coordinates": [ 130.715864493364421, 33.64331267553807 ] } },
{ "type": "Feature", "properties": { "P29_001": "40205", "P29_002": "D140320500028", "P29_003": "16004", "P29_004": "飯塚高等学校", "P29_005": "福岡県飯塚市立岩1224", "P29_006": "4", "P29_007": "0", "P29_008": "00", "P29_009": null }, "geometry": { "type": "Point", "coordinates": [ 130.699017563026217, 33.649564301001391 ] } },
{ "type": "Feature", "properties": { "P29_001": "40206", "P29_002": "D140320600018", "P29_003": "16004", "P29_004": "福智高等学校", "P29_005": "福岡県田川市大字伊田3934", "P29_006": "4", "P29_007": "0", "P29_008": "00", "P29_009": null }, "geometry": { "type": "Point", "coordinates": [ 130.81854468101659, 33.652523063437066 ] } },
{ "type": "Feature", "properties": { "P29_001": "40210", "P29_002": "D140321000012", "P29_003": "16004", "P29_004": "八女学院高等学校", "P29_005": "福岡県八女市本村425", "P29_006": "4", "P29_007": "0", "P29_008": "00", "P29_009": null }, "geometry": { "type": "Point", "coordinates": [ 130.556019890671479, 33.213470527818892 ] } },
{ "type": "Feature", "properties": { "P29_001": "40217", "P29_002": "D140321700024", "P29_003": "16004", "P29_004": "福岡常葉高等学校", "P29_005": "福岡県筑紫野市筑紫901", "P29_006": "4", "P29_007": "0", "P29_008": "00", "P29_009": null }, "geometry": { "type": "Point", "coordinates": [ 130.543840187757041, 33.459082880223967 ] } },
{ "type": "Feature", "properties": { "P29_001": "40220", "P29_002": "D140322000010", "P29_003": "16004", "P29_004": "東海大学付属福岡高等学校", "P29_005": "福岡県宗像市田久1-9-2", "P29_006": "4", "P29_007": "0", "P29_008": "00", "P29_009": null }, "geometry": { "type": "Point", "coordinates": [ 130.567067049175421, 33.800862572236476 ] } },
{ "type": "Feature", "properties": { "P29_001": "40221", "P29_002": "D140322100019", "P29_003": "16004", "P29_004": "筑陽学園高等学校", "P29_005": "福岡県太宰府市朱雀5-6-1", "P29_006": "4", "P29_007": "0", "P29_008": "00", "P29_009": null }, "geometry": { "type": "Point", "coordinates": [ 130.51678377549436, 33.510435742699492 ] } },
{ "type": "Feature", "properties": { "P29_001": "40221", "P29_002": "D140322100028", "P29_003": "16004", "P29_004": "筑紫台高等学校", "P29_005": "福岡県太宰府市連歌屋1-1-1", "P29_006": "4", "P29_007": "0", "P29_008": "00", "P29_009": null }, "geometry": { "type": "Point", "coordinates": [ 130.526908647826275, 33.520752939430537 ] } }
]
}
