{
"type": "FeatureCollection",
"name": "geo_40_4",
"crs": { "type": "name", "properties": { "name": "urn:ogc:def:crs:OGC:1.3:CRS84" } },
"features": [
{ "type": "Feature", "properties": { "ID": 4040008400015, "正式名称": "一般社団法人ははとこ　助産院　町のさんばさん", "機関区分": 4, "都道府県コード": 40, "市区町村コード": 109, "所在地": "福岡県北九州市八幡西区千代４丁目９ー８", "緯度": 33.809577, "経度": 130.741622, "url": "https://www.iryou.teikyouseido.mhlw.go.jp/znk-web/juminkanja/S2430/initialize?prefCd=40&kikanCd=0008400015&kikanKbn=4", "url2": "www.machinosanbasan.com", "内容": "一般社団法人ははとこ　助産院　町のさんばさん【4:助産院】福岡県北九州市八幡西区千代４丁目９ー８" }, "geometry": { "type": "Point", "coordinates": [ 130.741622, 33.809577 ] } },
{ "type": "Feature", "properties": { "ID": 4040008400016, "正式名称": "脇田母乳育児相談室", "機関区分": 4, "都道府県コード": 40, "市区町村コード": 109, "所在地": "福岡県北九州市八幡西区萩原２ー１０ー３ー１０４", "緯度": 33.860099, "経度": 130.74887, "url": "https://www.iryou.teikyouseido.mhlw.go.jp/znk-web/juminkanja/S2430/initialize?prefCd=40&kikanCd=0008400016&kikanKbn=4", "url2": null, "内容": "脇田母乳育児相談室【4:助産院】福岡県北九州市八幡西区萩原２ー１０ー３ー１０４" }, "geometry": { "type": "Point", "coordinates": [ 130.74887, 33.860099 ] } },
{ "type": "Feature", "properties": { "ID": 4040008400017, "正式名称": "助産院　サン・ムラタ", "機関区分": 4, "都道府県コード": 40, "市区町村コード": 109, "所在地": "福岡県北九州市八幡西区穴生１ー１１ー１５", "緯度": 33.859655, "経度": 130.745092, "url": "https://www.iryou.teikyouseido.mhlw.go.jp/znk-web/juminkanja/S2430/initialize?prefCd=40&kikanCd=0008400017&kikanKbn=4", "url2": null, "内容": "助産院　サン・ムラタ【4:助産院】福岡県北九州市八幡西区穴生１ー１１ー１５" }, "geometry": { "type": "Point", "coordinates": [ 130.745092, 33.859655 ] } },
{ "type": "Feature", "properties": { "ID": 4040008400019, "正式名称": "碧助産所", "機関区分": 4, "都道府県コード": 40, "市区町村コード": 108, "所在地": "福岡県北九州市八幡東区前田３－１１－２０－１００６", "緯度": 33.868183, "経度": 130.786199, "url": "https://www.iryou.teikyouseido.mhlw.go.jp/znk-web/juminkanja/S2430/initialize?prefCd=40&kikanCd=0008400019&kikanKbn=4", "url2": null, "内容": "碧助産所【4:助産院】福岡県北九州市八幡東区前田３－１１－２０－１００６" }, "geometry": { "type": "Point", "coordinates": [ 130.786199, 33.868183 ] } },
{ "type": "Feature", "properties": { "ID": 4040008400023, "正式名称": "しぶや助産院", "機関区分": 4, "都道府県コード": 40, "市区町村コード": 383, "所在地": "福岡県遠賀郡岡垣町旭台３丁目１１－５", "緯度": 33.857764, "経度": 130.619354, "url": "https://www.iryou.teikyouseido.mhlw.go.jp/znk-web/juminkanja/S2430/initialize?prefCd=40&kikanCd=0008400023&kikanKbn=4", "url2": "shibuya1103.jp", "内容": "しぶや助産院【4:助産院】福岡県遠賀郡岡垣町旭台３丁目１１－５" }, "geometry": { "type": "Point", "coordinates": [ 130.619354, 33.857764 ] } },
{ "type": "Feature", "properties": { "ID": 4040008400025, "正式名称": "おおば母乳育児相談室", "機関区分": 4, "都道府県コード": 40, "市区町村コード": 131, "所在地": "福岡県福岡市東区香住ヶ丘１ー２３ー９", "緯度": 33.668893, "経度": 130.436987, "url": "https://www.iryou.teikyouseido.mhlw.go.jp/znk-web/juminkanja/S2430/initialize?prefCd=40&kikanCd=0008400025&kikanKbn=4", "url2": null, "内容": "おおば母乳育児相談室【4:助産院】福岡県福岡市東区香住ヶ丘１ー２３ー９" }, "geometry": { "type": "Point", "coordinates": [ 130.436987, 33.668893 ] } },
{ "type": "Feature", "properties": { "ID": 4040008400026, "正式名称": "きはら母乳育児相談室", "機関区分": 4, "都道府県コード": 40, "市区町村コード": 131, "所在地": "福岡県福岡市東区若宮３ー７ー３５", "緯度": 33.637689, "経度": 130.450221, "url": "https://www.iryou.teikyouseido.mhlw.go.jp/znk-web/juminkanja/S2430/initialize?prefCd=40&kikanCd=0008400026&kikanKbn=4", "url2": "https://kiharaoketani.jp/", "内容": "きはら母乳育児相談室【4:助産院】福岡県福岡市東区若宮３ー７ー３５" }, "geometry": { "type": "Point", "coordinates": [ 130.450221, 33.637689 ] } },
{ "type": "Feature", "properties": { "ID": 4040008400028, "正式名称": "平田母乳育児コンサルタント", "機関区分": 4, "都道府県コード": 40, "市区町村コード": 133, "所在地": "福岡県福岡市中央区大手門１－２－２３－１７０５号", "緯度": 33.588013, "経度": 130.392493, "url": "https://www.iryou.teikyouseido.mhlw.go.jp/znk-web/juminkanja/S2430/initialize?prefCd=40&kikanCd=0008400028&kikanKbn=4", "url2": "www.oppai-situke110.ecnet.jp", "内容": "平田母乳育児コンサルタント【4:助産院】福岡県福岡市中央区大手門１－２－２３－１７０５号" }, "geometry": { "type": "Point", "coordinates": [ 130.392493, 33.588013 ] } },
{ "type": "Feature", "properties": { "ID": 4040008400031, "正式名称": "アロマベビーケア", "機関区分": 4, "都道府県コード": 40, "市区町村コード": 134, "所在地": "福岡県福岡市南区平和２－２－２５－５０２", "緯度": 33.569487, "経度": 130.398271, "url": "https://www.iryou.teikyouseido.mhlw.go.jp/znk-web/juminkanja/S2430/initialize?prefCd=40&kikanCd=0008400031&kikanKbn=4", "url2": "aroma-baby-care.jimdofree.com/", "内容": "アロマベビーケア【4:助産院】福岡県福岡市南区平和２－２－２５－５０２" }, "geometry": { "type": "Point", "coordinates": [ 130.398271, 33.569487 ] } },
{ "type": "Feature", "properties": { "ID": 4040008400050, "正式名称": "母乳育児ケア　ＭＡＭＡＲＫ", "機関区分": 4, "都道府県コード": 40, "市区町村コード": 204, "所在地": "福岡県直方市感田２２１３－１９", "緯度": 33.768221, "経度": 130.730152, "url": "https://www.iryou.teikyouseido.mhlw.go.jp/znk-web/juminkanja/S2430/initialize?prefCd=40&kikanCd=0008400050&kikanKbn=4", "url2": null, "内容": "母乳育児ケア　ＭＡＭＡＲＫ【4:助産院】福岡県直方市感田２２１３－１９" }, "geometry": { "type": "Point", "coordinates": [ 130.730152, 33.768221 ] } },
{ "type": "Feature", "properties": { "ID": 4040008400052, "正式名称": "助産院フラウエンハウス加來", "機関区分": 4, "都道府県コード": 40, "市区町村コード": 206, "所在地": "福岡県田川市弓削田", "緯度": 33.632853, "経度": 130.771597, "url": "https://www.iryou.teikyouseido.mhlw.go.jp/znk-web/juminkanja/S2430/initialize?prefCd=40&kikanCd=0008400052&kikanKbn=4", "url2": null, "内容": "助産院フラウエンハウス加來【4:助産院】福岡県田川市弓削田" }, "geometry": { "type": "Point", "coordinates": [ 130.771597, 33.632853 ] } },
{ "type": "Feature", "properties": { "ID": 4040008400058, "正式名称": "まさき助産所", "機関区分": 4, "都道府県コード": 40, "市区町村コード": 203, "所在地": "福岡県久留米市江戸屋敷", "緯度": 33.287327, "経度": 130.51699, "url": "https://www.iryou.teikyouseido.mhlw.go.jp/znk-web/juminkanja/S2430/initialize?prefCd=40&kikanCd=0008400058&kikanKbn=4", "url2": null, "内容": "まさき助産所【4:助産院】福岡県久留米市江戸屋敷" }, "geometry": { "type": "Point", "coordinates": [ 130.51699, 33.287327 ] } },
{ "type": "Feature", "properties": { "ID": 4040008400059, "正式名称": "助産所　健やか母乳育児相談室", "機関区分": 4, "都道府県コード": 40, "市区町村コード": 203, "所在地": "福岡県久留米市野中町４３７番地２１", "緯度": 33.309381, "経度": 130.536765, "url": "https://www.iryou.teikyouseido.mhlw.go.jp/znk-web/juminkanja/S2430/initialize?prefCd=40&kikanCd=0008400059&kikanKbn=4", "url2": null, "内容": "助産所　健やか母乳育児相談室【4:助産院】福岡県久留米市野中町４３７番地２１" }, "geometry": { "type": "Point", "coordinates": [ 130.536765, 33.309381 ] } },
{ "type": "Feature", "properties": { "ID": 4040008400060, "正式名称": "吉崎助産院", "機関区分": 4, "都道府県コード": 40, "市区町村コード": 203, "所在地": "福岡県久留米市城島町西青木５７６ー１", "緯度": 33.239358, "経度": 130.387919, "url": "https://www.iryou.teikyouseido.mhlw.go.jp/znk-web/juminkanja/S2430/initialize?prefCd=40&kikanCd=0008400060&kikanKbn=4", "url2": null, "内容": "吉崎助産院【4:助産院】福岡県久留米市城島町西青木５７６ー１" }, "geometry": { "type": "Point", "coordinates": [ 130.387919, 33.239358 ] } },
{ "type": "Feature", "properties": { "ID": 4040008400063, "正式名称": "あい助産院", "機関区分": 4, "都道府県コード": 40, "市区町村コード": 202, "所在地": "福岡県大牟田市天領町１丁目３９番地", "緯度": 33.017884, "経度": 130.433727, "url": "https://www.iryou.teikyouseido.mhlw.go.jp/znk-web/juminkanja/S2430/initialize?prefCd=40&kikanCd=0008400063&kikanKbn=4", "url2": null, "内容": "あい助産院【4:助産院】福岡県大牟田市天領町１丁目３９番地" }, "geometry": { "type": "Point", "coordinates": [ 130.433727, 33.017884 ] } },
{ "type": "Feature", "properties": { "ID": 4040008400070, "正式名称": "アマテラス助産院", "機関区分": 4, "都道府県コード": 40, "市区町村コード": 230, "所在地": "福岡県糸島市高祖", "緯度": 33.542801, "経度": 130.255089, "url": "https://www.iryou.teikyouseido.mhlw.go.jp/znk-web/juminkanja/S2430/initialize?prefCd=40&kikanCd=0008400070&kikanKbn=4", "url2": null, "内容": "アマテラス助産院【4:助産院】福岡県糸島市高祖" }, "geometry": { "type": "Point", "coordinates": [ 130.255089, 33.542801 ] } },
{ "type": "Feature", "properties": { "ID": 4040008400071, "正式名称": "母乳育児相談室　温もりのほっと助産院", "機関区分": 4, "都道府県コード": 40, "市区町村コード": 207, "所在地": "福岡県柳川市大浜町５１６番地の２", "緯度": 33.12751, "経度": 130.391811, "url": "https://www.iryou.teikyouseido.mhlw.go.jp/znk-web/juminkanja/S2430/initialize?prefCd=40&kikanCd=0008400071&kikanKbn=4", "url2": null, "内容": "母乳育児相談室　温もりのほっと助産院【4:助産院】福岡県柳川市大浜町５１６番地の２" }, "geometry": { "type": "Point", "coordinates": [ 130.391811, 33.12751 ] } },
{ "type": "Feature", "properties": { "ID": 4040008400072, "正式名称": "めぐみ助産院", "機関区分": 4, "都道府県コード": 40, "市区町村コード": 207, "所在地": "福岡県柳川市弥四郎町２２２ー３", "緯度": 33.152174, "経度": 130.399143, "url": "https://www.iryou.teikyouseido.mhlw.go.jp/znk-web/juminkanja/S2430/initialize?prefCd=40&kikanCd=0008400072&kikanKbn=4", "url2": "https://www.megumi-josanin.com/", "内容": "めぐみ助産院【4:助産院】福岡県柳川市弥四郎町２２２ー３" }, "geometry": { "type": "Point", "coordinates": [ 130.399143, 33.152174 ] } },
{ "type": "Feature", "properties": { "ID": 4040008400081, "正式名称": "マタニティ・サポート佳", "機関区分": 4, "都道府県コード": 40, "市区町村コード": 109, "所在地": "福岡県北九州市八幡西区浅川学園台１ー４ー５", "緯度": 33.882457, "経度": 130.704484, "url": "https://www.iryou.teikyouseido.mhlw.go.jp/znk-web/juminkanja/S2430/initialize?prefCd=40&kikanCd=0008400081&kikanKbn=4", "url2": "https://maternitys-k.com", "内容": "マタニティ・サポート佳【4:助産院】福岡県北九州市八幡西区浅川学園台１ー４ー５" }, "geometry": { "type": "Point", "coordinates": [ 130.704484, 33.882457 ] } },
{ "type": "Feature", "properties": { "ID": 4040008400084, "正式名称": "九州バースセンター　姥が懐", "機関区分": 4, "都道府県コード": 40, "市区町村コード": 381, "所在地": "福岡県遠賀郡芦屋町山鹿８５２ー７７", "緯度": 33.914287, "経度": 130.666096, "url": "https://www.iryou.teikyouseido.mhlw.go.jp/znk-web/juminkanja/S2430/initialize?prefCd=40&kikanCd=0008400084&kikanKbn=4", "url2": "https://www.kyushu-bc.or.jp", "内容": "九州バースセンター　姥が懐【4:助産院】福岡県遠賀郡芦屋町山鹿８５２ー７７" }, "geometry": { "type": "Point", "coordinates": [ 130.666096, 33.914287 ] } },
{ "type": "Feature", "properties": { "ID": 4040008400087, "正式名称": "桶谷式ももいろ母乳育児相談室", "機関区分": 4, "都道府県コード": 40, "市区町村コード": 205, "所在地": "福岡県飯塚市潤野８２０ー１", "緯度": 33.632008, "経度": 130.657407, "url": "https://www.iryou.teikyouseido.mhlw.go.jp/znk-web/juminkanja/S2430/initialize?prefCd=40&kikanCd=0008400087&kikanKbn=4", "url2": "https://momoiro-josanin.com", "内容": "桶谷式ももいろ母乳育児相談室【4:助産院】福岡県飯塚市潤野８２０ー１" }, "geometry": { "type": "Point", "coordinates": [ 130.657407, 33.632008 ] } },
{ "type": "Feature", "properties": { "ID": 4040008400090, "正式名称": "小島助産所", "機関区分": 4, "都道府県コード": 40, "市区町村コード": 230, "所在地": "福岡県糸島市井原１２６６", "緯度": 33.531155, "経度": 130.242925, "url": "https://www.iryou.teikyouseido.mhlw.go.jp/znk-web/juminkanja/S2430/initialize?prefCd=40&kikanCd=0008400090&kikanKbn=4", "url2": null, "内容": "小島助産所【4:助産院】福岡県糸島市井原１２６６" }, "geometry": { "type": "Point", "coordinates": [ 130.242925, 33.531155 ] } },
{ "type": "Feature", "properties": { "ID": 4040008400092, "正式名称": "Ｓａｌｏｎ　Ｍａｍ＆Ｂａｂｙ　ぽっかぽか", "機関区分": 4, "都道府県コード": 40, "市区町村コード": 107, "所在地": "福岡県北九州市小倉南区山手１ー１０ー３", "緯度": 33.828467, "経度": 130.876415, "url": "https://www.iryou.teikyouseido.mhlw.go.jp/znk-web/juminkanja/S2430/initialize?prefCd=40&kikanCd=0008400092&kikanKbn=4", "url2": null, "内容": "Ｓａｌｏｎ　Ｍａｍ＆Ｂａｂｙ　ぽっかぽか【4:助産院】福岡県北九州市小倉南区山手１ー１０ー３" }, "geometry": { "type": "Point", "coordinates": [ 130.876415, 33.828467 ] } },
{ "type": "Feature", "properties": { "ID": 4040008400095, "正式名称": "おがた助産院", "機関区分": 4, "都道府県コード": 40, "市区町村コード": 216, "所在地": "福岡県小郡市小板井３９１ー５", "緯度": 33.393455, "経度": 130.553456, "url": "https://www.iryou.teikyouseido.mhlw.go.jp/znk-web/juminkanja/S2430/initialize?prefCd=40&kikanCd=0008400095&kikanKbn=4", "url2": null, "内容": "おがた助産院【4:助産院】福岡県小郡市小板井３９１ー５" }, "geometry": { "type": "Point", "coordinates": [ 130.553456, 33.393455 ] } },
{ "type": "Feature", "properties": { "ID": 4040008400097, "正式名称": "葉っぱ助産院", "機関区分": 4, "都道府県コード": 40, "市区町村コード": 106, "所在地": "福岡県北九州市小倉北区三郎丸", "緯度": 33.865574, "経度": 130.886218, "url": "https://www.iryou.teikyouseido.mhlw.go.jp/znk-web/juminkanja/S2430/initialize?prefCd=40&kikanCd=0008400097&kikanKbn=4", "url2": "www.happajosanin.com/", "内容": "葉っぱ助産院【4:助産院】福岡県北九州市小倉北区三郎丸" }, "geometry": { "type": "Point", "coordinates": [ 130.886218, 33.865574 ] } },
{ "type": "Feature", "properties": { "ID": 4040008400107, "正式名称": "母と子の相談室ルチル助産院", "機関区分": 4, "都道府県コード": 40, "市区町村コード": 220, "所在地": "福岡県宗像市日の里３－１６－１０", "緯度": 33.798315, "経度": 130.543764, "url": "https://www.iryou.teikyouseido.mhlw.go.jp/znk-web/juminkanja/S2430/initialize?prefCd=40&kikanCd=0008400107&kikanKbn=4", "url2": "https://rutile-josanin.sakura.ne.jp/", "内容": "母と子の相談室ルチル助産院【4:助産院】福岡県宗像市日の里３－１６－１０" }, "geometry": { "type": "Point", "coordinates": [ 130.543764, 33.798315 ] } },
{ "type": "Feature", "properties": { "ID": 4040008400116, "正式名称": "助産院こっぽら～っと・はしもと", "機関区分": 4, "都道府県コード": 40, "市区町村コード": 203, "所在地": "福岡県久留米市国分町１７８", "緯度": 33.292022, "経度": 130.541043, "url": "https://www.iryou.teikyouseido.mhlw.go.jp/znk-web/juminkanja/S2430/initialize?prefCd=40&kikanCd=0008400116&kikanKbn=4", "url2": null, "内容": "助産院こっぽら～っと・はしもと【4:助産院】福岡県久留米市国分町１７８" }, "geometry": { "type": "Point", "coordinates": [ 130.541043, 33.292022 ] } },
{ "type": "Feature", "properties": { "ID": 4040008400118, "正式名称": "青葉台母乳ケアハウス", "機関区分": 4, "都道府県コード": 40, "市区町村コード": 103, "所在地": "福岡県北九州市若松区青葉台東１ー１ー２　青葉台メディカルスクエア６Ｆ", "緯度": 33.90101, "経度": 130.689874, "url": "https://www.iryou.teikyouseido.mhlw.go.jp/znk-web/juminkanja/S2430/initialize?prefCd=40&kikanCd=0008400118&kikanKbn=4", "url2": "www.aobadai-bch.com/", "内容": "青葉台母乳ケアハウス【4:助産院】福岡県北九州市若松区青葉台東１ー１ー２　青葉台メディカルスクエア６Ｆ" }, "geometry": { "type": "Point", "coordinates": [ 130.689874, 33.90101 ] } },
{ "type": "Feature", "properties": { "ID": 4040008400119, "正式名称": "母乳ケア　子育てサポート　助産院　ＨＵＧＨＵＧ", "機関区分": 4, "都道府県コード": 40, "市区町村コード": 136, "所在地": "福岡県福岡市城南区長尾２－６－１１－１Ｆ", "緯度": 33.557599, "経度": 130.385161, "url": "https://www.iryou.teikyouseido.mhlw.go.jp/znk-web/juminkanja/S2430/initialize?prefCd=40&kikanCd=0008400119&kikanKbn=4", "url2": "hughug8989.com", "内容": "母乳ケア　子育てサポート　助産院　ＨＵＧＨＵＧ【4:助産院】福岡県福岡市城南区長尾２－６－１１－１Ｆ" }, "geometry": { "type": "Point", "coordinates": [ 130.385161, 33.557599 ] } },
{ "type": "Feature", "properties": { "ID": 4040008400123, "正式名称": "助産院室見川", "機関区分": 4, "都道府県コード": 40, "市区町村コード": 137, "所在地": "福岡県福岡市早良区南庄６丁目１４番１６号", "緯度": 33.577374, "経度": 130.335748, "url": "https://www.iryou.teikyouseido.mhlw.go.jp/znk-web/juminkanja/S2430/initialize?prefCd=40&kikanCd=0008400123&kikanKbn=4", "url2": null, "内容": "助産院室見川【4:助産院】福岡県福岡市早良区南庄６丁目１４番１６号" }, "geometry": { "type": "Point", "coordinates": [ 130.335748, 33.577374 ] } },
{ "type": "Feature", "properties": { "ID": 4040008400128, "正式名称": "いとしま助産院　ｈａｒｕ", "機関区分": 4, "都道府県コード": 40, "市区町村コード": 230, "所在地": "福岡県糸島市瑞梅寺", "緯度": 33.514685, "経度": 130.240397, "url": "https://www.iryou.teikyouseido.mhlw.go.jp/znk-web/juminkanja/S2430/initialize?prefCd=40&kikanCd=0008400128&kikanKbn=4", "url2": null, "内容": "いとしま助産院　ｈａｒｕ【4:助産院】福岡県糸島市瑞梅寺" }, "geometry": { "type": "Point", "coordinates": [ 130.240397, 33.514685 ] } },
{ "type": "Feature", "properties": { "ID": 4040009070003, "正式名称": "一般社団法人北九州助産センター　お産の家　よつ葉", "機関区分": 4, "都道府県コード": 40, "市区町村コード": 108, "所在地": "福岡県北九州市八幡東区枝光本町８－１３", "緯度": 33.864794, "経度": 130.800448, "url": "https://www.iryou.teikyouseido.mhlw.go.jp/znk-web/juminkanja/S2430/initialize?prefCd=40&kikanCd=0009070003&kikanKbn=4", "url2": "www.yotsuba-baby.jp", "内容": "一般社団法人北九州助産センター　お産の家　よつ葉【4:助産院】福岡県北九州市八幡東区枝光本町８－１３" }, "geometry": { "type": "Point", "coordinates": [ 130.800448, 33.864794 ] } },
{ "type": "Feature", "properties": { "ID": 4040009070006, "正式名称": "Ｍａｔｅｒｎｉｔｙ　ｈｏｍｅ　ハコ音色", "機関区分": 4, "都道府県コード": 40, "市区町村コード": 137, "所在地": "福岡県福岡市早良区野芥", "緯度": 33.538462, "経度": 130.340832, "url": "https://www.iryou.teikyouseido.mhlw.go.jp/znk-web/juminkanja/S2430/initialize?prefCd=40&kikanCd=0009070006&kikanKbn=4", "url2": null, "内容": "Ｍａｔｅｒｎｉｔｙ　ｈｏｍｅ　ハコ音色【4:助産院】福岡県福岡市早良区野芥" }, "geometry": { "type": "Point", "coordinates": [ 130.340832, 33.538462 ] } },
{ "type": "Feature", "properties": { "ID": 4040009070008, "正式名称": "田中助産院", "機関区分": 4, "都道府県コード": 40, "市区町村コード": 203, "所在地": "福岡県久留米市青峰２丁目２４－２１", "緯度": 33.281551, "経度": 130.562652, "url": "https://www.iryou.teikyouseido.mhlw.go.jp/znk-web/juminkanja/S2430/initialize?prefCd=40&kikanCd=0009070008&kikanKbn=4", "url2": null, "内容": "田中助産院【4:助産院】福岡県久留米市青峰２丁目２４－２１" }, "geometry": { "type": "Point", "coordinates": [ 130.562652, 33.281551 ] } },
{ "type": "Feature", "properties": { "ID": 4040009070009, "正式名称": "助産院・桶谷式母乳育児相談室　ピクシーハート", "機関区分": 4, "都道府県コード": 40, "市区町村コード": 205, "所在地": "福岡県飯塚市堀池１５７－１　カーサフェリーチェＡ１０２", "緯度": 33.629264, "経度": 130.683215, "url": "https://www.iryou.teikyouseido.mhlw.go.jp/znk-web/juminkanja/S2430/initialize?prefCd=40&kikanCd=0009070009&kikanKbn=4", "url2": "pixieheart.jp", "内容": "助産院・桶谷式母乳育児相談室　ピクシーハート【4:助産院】福岡県飯塚市堀池１５７－１　カーサフェリーチェＡ１０２" }, "geometry": { "type": "Point", "coordinates": [ 130.683215, 33.629264 ] } },
{ "type": "Feature", "properties": { "ID": 4040009070019, "正式名称": "親子サポートほほえみ", "機関区分": 4, "都道府県コード": 40, "市区町村コード": 107, "所在地": "福岡県北九州市小倉南区津田新町", "緯度": 33.833717, "経度": 130.929354, "url": "https://www.iryou.teikyouseido.mhlw.go.jp/znk-web/juminkanja/S2430/initialize?prefCd=40&kikanCd=0009070019&kikanKbn=4", "url2": null, "内容": "親子サポートほほえみ【4:助産院】福岡県北九州市小倉南区津田新町" }, "geometry": { "type": "Point", "coordinates": [ 130.929354, 33.833717 ] } },
{ "type": "Feature", "properties": { "ID": 4040009070022, "正式名称": "母と子のおうち　はる助産院", "機関区分": 4, "都道府県コード": 40, "市区町村コード": 348, "所在地": "福岡県糟屋郡久山町久原９３３ー１－２", "緯度": 33.64698, "経度": 130.507925, "url": "https://www.iryou.teikyouseido.mhlw.go.jp/znk-web/juminkanja/S2430/initialize?prefCd=40&kikanCd=0009070022&kikanKbn=4", "url2": "harujyosanin.com", "内容": "母と子のおうち　はる助産院【4:助産院】福岡県糟屋郡久山町久原９３３ー１－２" }, "geometry": { "type": "Point", "coordinates": [ 130.507925, 33.64698 ] } },
{ "type": "Feature", "properties": { "ID": 4040009070028, "正式名称": "産前産後ケアハウスきずな", "機関区分": 4, "都道府県コード": 40, "市区町村コード": 228, "所在地": "福岡県朝倉市来春３２８番地の１", "緯度": 33.414427, "経度": 130.661612, "url": "https://www.iryou.teikyouseido.mhlw.go.jp/znk-web/juminkanja/S2430/initialize?prefCd=40&kikanCd=0009070028&kikanKbn=4", "url2": null, "内容": "産前産後ケアハウスきずな【4:助産院】福岡県朝倉市来春３２８番地の１" }, "geometry": { "type": "Point", "coordinates": [ 130.661612, 33.414427 ] } },
{ "type": "Feature", "properties": { "ID": 4040009070030, "正式名称": "出張産前産後ケアーほんわか助産院", "機関区分": 4, "都道府県コード": 40, "市区町村コード": 107, "所在地": "福岡県北九州市小倉南区葛原本町五丁目十の二", "緯度": 33.845299, "経度": 130.928576, "url": "https://www.iryou.teikyouseido.mhlw.go.jp/znk-web/juminkanja/S2430/initialize?prefCd=40&kikanCd=0009070030&kikanKbn=4", "url2": null, "内容": "出張産前産後ケアーほんわか助産院【4:助産院】福岡県北九州市小倉南区葛原本町五丁目十の二" }, "geometry": { "type": "Point", "coordinates": [ 130.928576, 33.845299 ] } },
{ "type": "Feature", "properties": { "ID": 4040009070031, "正式名称": "ゆき助産院", "機関区分": 4, "都道府県コード": 40, "市区町村コード": 107, "所在地": "福岡県北九州市小倉南区若園", "緯度": 33.847948, "経度": 130.887746, "url": "https://www.iryou.teikyouseido.mhlw.go.jp/znk-web/juminkanja/S2430/initialize?prefCd=40&kikanCd=0009070031&kikanKbn=4", "url2": null, "内容": "ゆき助産院【4:助産院】福岡県北九州市小倉南区若園" }, "geometry": { "type": "Point", "coordinates": [ 130.887746, 33.847948 ] } },
{ "type": "Feature", "properties": { "ID": 4040009070034, "正式名称": "ねね助産院", "機関区分": 4, "都道府県コード": 40, "市区町村コード": 230, "所在地": "福岡県糸島市二丈深江８丁目２８－１", "緯度": 33.513794, "経度": 130.14174, "url": "https://www.iryou.teikyouseido.mhlw.go.jp/znk-web/juminkanja/S2430/initialize?prefCd=40&kikanCd=0009070034&kikanKbn=4", "url2": "nenejosanin.amebaownd.com", "内容": "ねね助産院【4:助産院】福岡県糸島市二丈深江８丁目２８－１" }, "geometry": { "type": "Point", "coordinates": [ 130.14174, 33.513794 ] } },
{ "type": "Feature", "properties": { "ID": 4040009070036, "正式名称": "産前産後ケア　ももはな助産院", "機関区分": 4, "都道府県コード": 40, "市区町村コード": 220, "所在地": "福岡県宗像市泉ケ丘１－１６－１３", "緯度": 33.819517, "経度": 130.573081, "url": "https://www.iryou.teikyouseido.mhlw.go.jp/znk-web/juminkanja/S2430/initialize?prefCd=40&kikanCd=0009070036&kikanKbn=4", "url2": null, "内容": "産前産後ケア　ももはな助産院【4:助産院】福岡県宗像市泉ケ丘１－１６－１３" }, "geometry": { "type": "Point", "coordinates": [ 130.573081, 33.819517 ] } },
{ "type": "Feature", "properties": { "ID": 4040009070037, "正式名称": "産前産後ケアステーション　にこり", "機関区分": 4, "都道府県コード": 40, "市区町村コード": 109, "所在地": "福岡県北九州市八幡西区大浦１丁目４番６号", "緯度": 33.871967, "経度": 130.715941, "url": "https://www.iryou.teikyouseido.mhlw.go.jp/znk-web/juminkanja/S2430/initialize?prefCd=40&kikanCd=0009070037&kikanKbn=4", "url2": "https://nicori.org", "内容": "産前産後ケアステーション　にこり【4:助産院】福岡県北九州市八幡西区大浦１丁目４番６号" }, "geometry": { "type": "Point", "coordinates": [ 130.715941, 33.871967 ] } },
{ "type": "Feature", "properties": { "ID": 4040009070040, "正式名称": "い都の助産院　母乳育児相談室マンナ", "機関区分": 4, "都道府県コード": 40, "市区町村コード": 135, "所在地": "福岡県福岡市西区今宿東", "緯度": 33.57354, "経度": 130.274448, "url": "https://www.iryou.teikyouseido.mhlw.go.jp/znk-web/juminkanja/S2430/initialize?prefCd=40&kikanCd=0009070040&kikanKbn=4", "url2": "www.manna-baby.jp/", "内容": "い都の助産院　母乳育児相談室マンナ【4:助産院】福岡県福岡市西区今宿東" }, "geometry": { "type": "Point", "coordinates": [ 130.274448, 33.57354 ] } },
{ "type": "Feature", "properties": { "ID": 4040009070048, "正式名称": "陽かり助産院", "機関区分": 4, "都道府県コード": 40, "市区町村コード": 342, "所在地": "福岡県糟屋郡篠栗町若杉３８１ー６４", "緯度": 33.616901, "経度": 130.523286, "url": "https://www.iryou.teikyouseido.mhlw.go.jp/znk-web/juminkanja/S2430/initialize?prefCd=40&kikanCd=0009070048&kikanKbn=4", "url2": null, "内容": "陽かり助産院【4:助産院】福岡県糟屋郡篠栗町若杉３８１ー６４" }, "geometry": { "type": "Point", "coordinates": [ 130.523286, 33.616901 ] } },
{ "type": "Feature", "properties": { "ID": 4040009070050, "正式名称": "よかいえ", "機関区分": 4, "都道府県コード": 40, "市区町村コード": 203, "所在地": "福岡県久留米市三潴町高三潴１３９２－３", "緯度": 33.261857, "経度": 130.450802, "url": "https://www.iryou.teikyouseido.mhlw.go.jp/znk-web/juminkanja/S2430/initialize?prefCd=40&kikanCd=0009070050&kikanKbn=4", "url2": null, "内容": "よかいえ【4:助産院】福岡県久留米市三潴町高三潴１３９２－３" }, "geometry": { "type": "Point", "coordinates": [ 130.450802, 33.261857 ] } },
{ "type": "Feature", "properties": { "ID": 4040009070051, "正式名称": "きつき助産院", "機関区分": 4, "都道府県コード": 40, "市区町村コード": 210, "所在地": "福岡県八女市本村４２７－７", "緯度": 33.215642, "経度": 130.55846, "url": "https://www.iryou.teikyouseido.mhlw.go.jp/znk-web/juminkanja/S2430/initialize?prefCd=40&kikanCd=0009070051&kikanKbn=4", "url2": "kitsuki-josanin.jp", "内容": "きつき助産院【4:助産院】福岡県八女市本村４２７－７" }, "geometry": { "type": "Point", "coordinates": [ 130.55846, 33.215642 ] } },
{ "type": "Feature", "properties": { "ID": 4049400000023, "正式名称": "ベビーフェリス井手", "機関区分": 4, "都道府県コード": 40, "市区町村コード": 217, "所在地": "福岡県筑紫野市針摺西２丁目４ー５ー５０１", "緯度": 33.483014, "経度": 130.530839, "url": "https://www.iryou.teikyouseido.mhlw.go.jp/znk-web/juminkanja/S2430/initialize?prefCd=40&kikanCd=9400000023&kikanKbn=4", "url2": null, "内容": "ベビーフェリス井手【4:助産院】福岡県筑紫野市針摺西２丁目４ー５ー５０１" }, "geometry": { "type": "Point", "coordinates": [ 130.530839, 33.483014 ] } },
{ "type": "Feature", "properties": { "ID": 4049400000025, "正式名称": "なごみ助産院", "機関区分": 4, "都道府県コード": 40, "市区町村コード": 219, "所在地": "福岡県大野城市筒井４丁目１１ー１ー１０１", "緯度": 33.543022, "経度": 130.480544, "url": "https://www.iryou.teikyouseido.mhlw.go.jp/znk-web/juminkanja/S2430/initialize?prefCd=40&kikanCd=9400000025&kikanKbn=4", "url2": "https://nagomi1131.jindofree.com", "内容": "なごみ助産院【4:助産院】福岡県大野城市筒井４丁目１１ー１ー１０１" }, "geometry": { "type": "Point", "coordinates": [ 130.480544, 33.543022 ] } },
{ "type": "Feature", "properties": { "ID": 4049400000026, "正式名称": "にこり助産院", "機関区分": 4, "都道府県コード": 40, "市区町村コード": 107, "所在地": "福岡県北九州市小倉南区横代北町四丁目２番２７号", "緯度": 33.833496, "経度": 130.893707, "url": "https://www.iryou.teikyouseido.mhlw.go.jp/znk-web/juminkanja/S2430/initialize?prefCd=40&kikanCd=9400000026&kikanKbn=4", "url2": "https://nicori.org", "内容": "にこり助産院【4:助産院】福岡県北九州市小倉南区横代北町四丁目２番２７号" }, "geometry": { "type": "Point", "coordinates": [ 130.893707, 33.833496 ] } },
{ "type": "Feature", "properties": { "ID": 4049400000030, "正式名称": "ｃｒａｄｌｅ　ｈｏｕｓｅ（クレイドルハウス）", "機関区分": 4, "都道府県コード": 40, "市区町村コード": 136, "所在地": "福岡県福岡市城南区松山二丁目４０番８号", "緯度": 33.55519, "経度": 130.365341, "url": "https://www.iryou.teikyouseido.mhlw.go.jp/znk-web/juminkanja/S2430/initialize?prefCd=40&kikanCd=9400000030&kikanKbn=4", "url2": "https://fukuoka-hoiku.com/pages/41/", "内容": "ｃｒａｄｌｅ　ｈｏｕｓｅ（クレイドルハウス）【4:助産院】福岡県福岡市城南区松山二丁目４０番８号" }, "geometry": { "type": "Point", "coordinates": [ 130.365341, 33.55519 ] } },
{ "type": "Feature", "properties": { "ID": 4049400000040, "正式名称": "きらり助産院", "機関区分": 4, "都道府県コード": 40, "市区町村コード": 131, "所在地": "福岡県福岡市東区青葉４丁目３番１０号", "緯度": 33.648257, "経度": 130.463655, "url": "https://www.iryou.teikyouseido.mhlw.go.jp/znk-web/juminkanja/S2430/initialize?prefCd=40&kikanCd=9400000040&kikanKbn=4", "url2": "https://babykirari.com", "内容": "きらり助産院【4:助産院】福岡県福岡市東区青葉４丁目３番１０号" }, "geometry": { "type": "Point", "coordinates": [ 130.463655, 33.648257 ] } },
{ "type": "Feature", "properties": { "ID": 4049400000055, "正式名称": "くさみ助産院", "機関区分": 4, "都道府県コード": 40, "市区町村コード": 107, "所在地": "福岡県北九州市小倉南区朽網３０２０ー３", "緯度": 33.796979, "経度": 130.960773, "url": "https://www.iryou.teikyouseido.mhlw.go.jp/znk-web/juminkanja/S2430/initialize?prefCd=40&kikanCd=9400000055&kikanKbn=4", "url2": null, "内容": "くさみ助産院【4:助産院】福岡県北九州市小倉南区朽網３０２０ー３" }, "geometry": { "type": "Point", "coordinates": [ 130.960773, 33.796979 ] } },
{ "type": "Feature", "properties": { "ID": 4049400000068, "正式名称": "ＮＰＯ法人ファミリーケア　こあらのおうち", "機関区分": 4, "都道府県コード": 40, "市区町村コード": 107, "所在地": "福岡県北九州市小倉南区", "緯度": 33.846184, "経度": 130.88643, "url": "https://www.iryou.teikyouseido.mhlw.go.jp/znk-web/juminkanja/S2430/initialize?prefCd=40&kikanCd=9400000068&kikanKbn=4", "url2": null, "内容": "ＮＰＯ法人ファミリーケア　こあらのおうち【4:助産院】福岡県北九州市小倉南区" }, "geometry": { "type": "Point", "coordinates": [ 130.88643, 33.846184 ] } }
]
}
