{
"type": "FeatureCollection",
"name": "geo_40_介護医療院",
"crs": { "type": "name", "properties": { "name": "urn:ogc:def:crs:OGC:1.3:CRS84" } },
"features": [
{ "type": "Feature", "properties": { "内容": "介護医療院植田外科【介護医療院】福岡県北九州市門司区東門司1-10-20", "url": "https://www.kaigokensaku.mhlw.go.jp/40/index.php?action_kouhyou_detail_004_kani=true&JigyosyoCd=40B0100048-00&ServiceCd=550&Type=search", "url2": null }, "geometry": { "type": "Point", "coordinates": [ 130.969946899999968, 33.9492721 ] } },
{ "type": "Feature", "properties": { "内容": "鳥巣病院介護医療院【介護医療院】福岡県北九州市門司区吉志5丁目5番10号", "url": "https://www.kaigokensaku.mhlw.go.jp/40/index.php?action_kouhyou_detail_004_kani=true&JigyosyoCd=40B0100014-00&ServiceCd=550&Type=search", "url2": "http://www.torisu-hp.or.jp/torisu_hospital/hosptal_care.php" }, "geometry": { "type": "Point", "coordinates": [ 130.960217438623005, 33.865239628266757 ] } },
{ "type": "Feature", "properties": { "内容": "春日病院介護医療院【介護医療院】福岡県北九州市門司区春日町22番19号", "url": "https://www.kaigokensaku.mhlw.go.jp/40/index.php?action_kouhyou_detail_004_kani=true&JigyosyoCd=40B0100022-00&ServiceCd=550&Type=search", "url2": "http:www.yojuen.com/kasugahospital/" }, "geometry": { "type": "Point", "coordinates": [ 130.9725932, 33.929078 ] } },
{ "type": "Feature", "properties": { "内容": "介護医療院　光寿荘【介護医療院】福岡県北九州市門司区大字田野浦1018-1", "url": "https://www.kaigokensaku.mhlw.go.jp/40/index.php?action_kouhyou_detail_004_kani=true&JigyosyoCd=40B0100030-00&ServiceCd=550&Type=search", "url2": "http://www.moji-tanoura.jp/" }, "geometry": { "type": "Point", "coordinates": [ 131.000045, 33.9606813 ] } },
{ "type": "Feature", "properties": { "内容": "新栄会病院介護医療院【介護医療院】福岡県北九州市小倉北区弁天町12-11", "url": "https://www.kaigokensaku.mhlw.go.jp/40/index.php?action_kouhyou_detail_004_kani=true&JigyosyoCd=40B0400026-00&ServiceCd=550&Type=search", "url2": "http://www.shin-eikai.com/byouin/" }, "geometry": { "type": "Point", "coordinates": [ 130.863403992065429, 33.869689829427742 ] } },
{ "type": "Feature", "properties": { "内容": "小倉中井病院介護医療院【介護医療院】福岡県北九州市小倉北区中井5丁目11番8号", "url": "https://www.kaigokensaku.mhlw.go.jp/40/index.php?action_kouhyou_detail_004_kani=true&JigyosyoCd=40B0400018-00&ServiceCd=550&Type=search", "url2": "https://www.kokura-nakai.jp" }, "geometry": { "type": "Point", "coordinates": [ 130.84684630000001, 33.8878494 ] } },
{ "type": "Feature", "properties": { "内容": "社会医療法人北九州病院　北九州湯川病院　介護医療院【介護医療院】福岡県北九州市小倉南区湯川五丁目10番10号", "url": "https://www.kaigokensaku.mhlw.go.jp/40/index.php?action_kouhyou_detail_004_kani=true&JigyosyoCd=40B0500031-00&ServiceCd=550&Type=search", "url2": "https://www.kitakyu-hp.or.jp" }, "geometry": { "type": "Point", "coordinates": [ 130.906169799999986, 33.8455556 ] } },
{ "type": "Feature", "properties": { "内容": "医療法人東谷医院介護医療院【介護医療院】福岡県北九州市小倉南区大字新道寺129-4", "url": "https://www.kaigokensaku.mhlw.go.jp/40/index.php?action_kouhyou_detail_004_kani=true&JigyosyoCd=40B0500023-00&ServiceCd=550&Type=search", "url2": "http://wwwhigashitani-iin.net/" }, "geometry": { "type": "Point", "coordinates": [ 130.8641381, 33.7814832 ] } },
{ "type": "Feature", "properties": { "内容": "北九州八幡東病院　介護医療院【介護医療院】福岡県北九州市八幡東区東田一丁目4番3号社会医療法人北九州病院　北九州八幡東病院　併設", "url": "https://www.kaigokensaku.mhlw.go.jp/40/index.php?action_kouhyou_detail_004_kani=true&JigyosyoCd=40B0600013-00&ServiceCd=550&Type=search", "url2": "https://www.kitakyu-hp.or.jp/contents/kitahos_yahatahigasi.htm" }, "geometry": { "type": "Point", "coordinates": [ 130.798393741010244, 33.870414046196501 ] } },
{ "type": "Feature", "properties": { "内容": "医療法人　末廣医院　介護医療院【介護医療院】福岡県北九州市八幡西区香月中央３丁目２番１５号", "url": "https://www.kaigokensaku.mhlw.go.jp/40/index.php?action_kouhyou_detail_004_kani=true&JigyosyoCd=40B0700011-00&ServiceCd=550&Type=search", "url2": "https://www.suehiro-clinic.com/" }, "geometry": { "type": "Point", "coordinates": [ 130.7273765, 33.8019998 ] } },
{ "type": "Feature", "properties": { "内容": "香椎原病院介護医療院【介護医療院】福岡県福岡市東区香椎３丁目３番１号", "url": "https://www.kaigokensaku.mhlw.go.jp/40/index.php?action_kouhyou_detail_004_kani=true&JigyosyoCd=4070805132-00&ServiceCd=550&Type=search", "url2": "http://www.kashiihara.or.jp/" }, "geometry": { "type": "Point", "coordinates": [ 130.450943, 33.6569633 ] } },
{ "type": "Feature", "properties": { "内容": "介護医療院　東福岡和仁会病院【介護医療院】福岡県福岡市東区奈多1丁目4番1号", "url": "https://www.kaigokensaku.mhlw.go.jp/40/index.php?action_kouhyou_detail_004_kani=true&JigyosyoCd=40B0800019-00&ServiceCd=550&Type=search", "url2": "higashifukuoka-wajinkai.jp" }, "geometry": { "type": "Point", "coordinates": [ 130.419227099999944, 33.6914117 ] } },
{ "type": "Feature", "properties": { "内容": "みどりの介護医療院【介護医療院】名子1丁目18番9号", "url": "https://www.kaigokensaku.mhlw.go.jp/40/index.php?action_kouhyou_detail_004_kani=true&JigyosyoCd=40B0800027-00&ServiceCd=550&Type=search", "url2": "https://www.haradoi-hospital.com/" }, "geometry": { "type": "Point", "coordinates": [ 130.4758186, 33.6388638 ] } },
{ "type": "Feature", "properties": { "内容": "永野外科胃腸科医院介護医療院【介護医療院】福岡県福岡市東区高美台2丁目4-27", "url": "https://www.kaigokensaku.mhlw.go.jp/40/index.php?action_kouhyou_detail_004_kani=true&JigyosyoCd=40B0800043-00&ServiceCd=550&Type=search", "url2": null }, "geometry": { "type": "Point", "coordinates": [ 130.443486199999967, 33.6893574 ] } },
{ "type": "Feature", "properties": { "内容": "原土井病院介護医療院【介護医療院】福岡県福岡市東区青葉6-40-8", "url": "https://www.kaigokensaku.mhlw.go.jp/40/index.php?action_kouhyou_detail_004_kani=true&JigyosyoCd=40B0800035-00&ServiceCd=550&Type=search", "url2": null }, "geometry": { "type": "Point", "coordinates": [ 130.4689378, 33.6448257 ] } },
{ "type": "Feature", "properties": { "内容": "介護医療院かねのくま【介護医療院】福岡県福岡市博多区金の隈３丁目２４番１６号", "url": "https://www.kaigokensaku.mhlw.go.jp/40/index.php?action_kouhyou_detail_004_kani=true&JigyosyoCd=40B0900017-00&ServiceCd=550&Type=search", "url2": "http:www.kanenokuma-hp.jp" }, "geometry": { "type": "Point", "coordinates": [ 130.481178364418042, 33.556667711551711 ] } },
{ "type": "Feature", "properties": { "内容": "こもり介護医療院【介護医療院】福岡県福岡市博多区対馬小路9番13号", "url": "https://www.kaigokensaku.mhlw.go.jp/40/index.php?action_kouhyou_detail_004_kani=true&JigyosyoCd=40B0900033-00&ServiceCd=550&Type=search", "url2": "https://komori-hp.cloud-line.com/" }, "geometry": { "type": "Point", "coordinates": [ 130.4017881, 33.6000225 ] } },
{ "type": "Feature", "properties": { "内容": "医療法人永野病院介護医療院【介護医療院】福岡県福岡市博多区浦田１丁目３１－１", "url": "https://www.kaigokensaku.mhlw.go.jp/40/index.php?action_kouhyou_detail_004_kani=true&JigyosyoCd=40B0900025-00&ServiceCd=550&Type=search", "url2": "https://naganohp.com/" }, "geometry": { "type": "Point", "coordinates": [ 130.473766699999942, 33.5732099 ] } },
{ "type": "Feature", "properties": { "内容": "シーサイド病院介護医療院【介護医療院】福岡県福岡市西区今津3810番地", "url": "https://www.kaigokensaku.mhlw.go.jp/40/index.php?action_kouhyou_detail_004_kani=true&JigyosyoCd=40B1200011-00&ServiceCd=550&Type=search", "url2": "https://www.seaside-hp.or.jp/" }, "geometry": { "type": "Point", "coordinates": [ 130.2290865, 33.6116857 ] } },
{ "type": "Feature", "properties": { "内容": "医療法人輝松会松尾内科病院介護医療院【介護医療院】福岡県福岡市西区下山門団地40番5号", "url": "https://www.kaigokensaku.mhlw.go.jp/40/index.php?action_kouhyou_detail_004_kani=true&JigyosyoCd=40B1200029-00&ServiceCd=550&Type=search", "url2": "https://matsuohosp.kisyoukai.jp/" }, "geometry": { "type": "Point", "coordinates": [ 130.305584, 33.5777007 ] } },
{ "type": "Feature", "properties": { "内容": "白川病院介護医療院【介護医療院】福岡県大牟田市上白川町1丁目146番地", "url": "https://www.kaigokensaku.mhlw.go.jp/40/index.php?action_kouhyou_detail_004_kani=true&JigyosyoCd=40B1500014-00&ServiceCd=550&Type=search", "url2": "https://shirakawa.or.jp" }, "geometry": { "type": "Point", "coordinates": [ 130.461300400000027, 33.0475681 ] } },
{ "type": "Feature", "properties": { "内容": "介護医療院　ありあけ【介護医療院】福岡県大牟田市船津町440番地3", "url": "https://www.kaigokensaku.mhlw.go.jp/40/index.php?action_kouhyou_detail_004_kani=true&JigyosyoCd=40B1500022-00&ServiceCd=550&Type=search", "url2": "http://www.ariake.or.jp/" }, "geometry": { "type": "Point", "coordinates": [ 130.438064, 33.006894 ] } },
{ "type": "Feature", "properties": { "内容": "今野病院　介護医療院【介護医療院】福岡県大牟田市末広町5番地2", "url": "https://www.kaigokensaku.mhlw.go.jp/40/index.php?action_kouhyou_detail_004_kani=true&JigyosyoCd=40B1500030-00&ServiceCd=550&Type=search", "url2": "http//www.konno-hp.jp/" }, "geometry": { "type": "Point", "coordinates": [ 130.4583566, 33.0187809 ] } },
{ "type": "Feature", "properties": { "内容": "介護医療院　くさかべ【介護医療院】大字吉野859", "url": "https://www.kaigokensaku.mhlw.go.jp/40/index.php?action_kouhyou_detail_004_kani=true&JigyosyoCd=40B1500048-00&ServiceCd=550&Type=search", "url2": "www.soga-hospital.jp" }, "geometry": { "type": "Point", "coordinates": [ 130.479199, 33.0751423 ] } },
{ "type": "Feature", "properties": { "内容": "南大牟田介護医療院【介護医療院】福岡県大牟田市臼井町２３番地の１", "url": "https://www.kaigokensaku.mhlw.go.jp/40/index.php?action_kouhyou_detail_004_kani=true&JigyosyoCd=40B1500055-00&ServiceCd=550&Type=search", "url2": "http://www.zaidan-omtiryo.jp/kaigo/kaigo-iryoin" }, "geometry": { "type": "Point", "coordinates": [ 130.4608649, 33.0059291 ] } },
{ "type": "Feature", "properties": { "内容": "医療法人　十連会　介護医療院　十連【介護医療院】福岡県久留米市三瀦町西牟田6557番地89", "url": "https://www.kaigokensaku.mhlw.go.jp/40/index.php?action_kouhyou_detail_004_kani=true&JigyosyoCd=40B1600012-00&ServiceCd=550&Type=search", "url2": "jyuuren.or.jp" }, "geometry": { "type": "Point", "coordinates": [ 130.4880243, 33.2525736 ] } },
{ "type": "Feature", "properties": { "内容": "博愛介護医療院【介護医療院】福岡県久留米市国分町２２３番地１", "url": "https://www.kaigokensaku.mhlw.go.jp/40/index.php?action_kouhyou_detail_004_kani=true&JigyosyoCd=40B1600046-00&ServiceCd=550&Type=search", "url2": "http://hakuaikurume.jp" }, "geometry": { "type": "Point", "coordinates": [ 130.540387, 33.294584 ] } },
{ "type": "Feature", "properties": { "内容": "医療法人社団　親和会　共立病院介護医療院【介護医療院】福岡県飯塚市横田770番地3", "url": "https://www.kaigokensaku.mhlw.go.jp/40/index.php?action_kouhyou_detail_004_kani=true&JigyosyoCd=40B1800018-00&ServiceCd=550&Type=search", "url2": "http://f-shinwakai.or.jp" }, "geometry": { "type": "Point", "coordinates": [ 130.668111, 33.6493116 ] } },
{ "type": "Feature", "properties": { "内容": "金子病院介護医療院【介護医療院】福岡県柳川市久々原65番地", "url": "https://www.kaigokensaku.mhlw.go.jp/40/index.php?action_kouhyou_detail_004_kani=true&JigyosyoCd=40B2000014-00&ServiceCd=550&Type=search", "url2": "http://www.kaneko－hp.or.jp" }, "geometry": { "type": "Point", "coordinates": [ 130.382122, 33.1682342 ] } },
{ "type": "Feature", "properties": { "内容": "介護医療院やひめ【介護医療院】福岡県八女市本1486", "url": "https://www.kaigokensaku.mhlw.go.jp/40/index.php?action_kouhyou_detail_004_kani=true&JigyosyoCd=40B2300018-00&ServiceCd=550&Type=search", "url2": "https://www.yahimehp.jp/" }, "geometry": { "type": "Point", "coordinates": [ 130.5826643, 33.2294239 ] } },
{ "type": "Feature", "properties": { "内容": "大原病院介護医療院【介護医療院】福岡県行橋市宮市町２－５大原病院", "url": "https://www.kaigokensaku.mhlw.go.jp/40/index.php?action_kouhyou_detail_004_kani=true&JigyosyoCd=40B2600011-00&ServiceCd=550&Type=search", "url2": "www.kisei-kai.net/" }, "geometry": { "type": "Point", "coordinates": [ 130.9725345, 33.729841200000017 ] } },
{ "type": "Feature", "properties": { "内容": "みらい介護医療院【介護医療院】福岡県小郡市山隈字弥八郎273番地11", "url": "https://www.kaigokensaku.mhlw.go.jp/40/index.php?action_kouhyou_detail_004_kani=true&JigyosyoCd=40B2900031-00&ServiceCd=550&Type=search", "url2": "https://www.tenjinkai.or,jp" }, "geometry": { "type": "Point", "coordinates": [ 130.597712699999988, 33.4082458 ] } },
{ "type": "Feature", "properties": { "内容": "聖和記念病院　介護医療院【介護医療院】小郡市津古1470-1", "url": "https://www.kaigokensaku.mhlw.go.jp/40/index.php?action_kouhyou_detail_004_kani=true&JigyosyoCd=40B2900015-00&ServiceCd=550&Type=search", "url2": "https://www.seiwa-kai.com" }, "geometry": { "type": "Point", "coordinates": [ 130.566663799999986, 33.4449986 ] } },
{ "type": "Feature", "properties": { "内容": "医療法人同仁会　おとがね介護医療院【介護医療院】福岡県大野城市乙金東4丁目12番1号おとかね介護医療院", "url": "https://www.kaigokensaku.mhlw.go.jp/40/index.php?action_kouhyou_detail_004_kani=true&JigyosyoCd=40B3200019-00&ServiceCd=550&Type=search", "url2": "https://www.otogane.or.jp/" }, "geometry": { "type": "Point", "coordinates": [ 130.500844199999989, 33.557335 ] } },
{ "type": "Feature", "properties": { "内容": "医療法人つくし会病院　介護医療院【介護医療院】福岡県大野城市乙金３丁目18番20号", "url": "https://www.kaigokensaku.mhlw.go.jp/40/index.php?action_kouhyou_detail_004_kani=true&JigyosyoCd=40B3200027-00&ServiceCd=550&Type=search", "url2": "https://tsukushi-kai.com/" }, "geometry": { "type": "Point", "coordinates": [ 130.4978868, 33.5418787 ] } },
{ "type": "Feature", "properties": { "内容": "医療法人光洋会　赤間病院　介護医療院【介護医療院】福岡県宗像市石丸一丁目6番7号", "url": "https://www.kaigokensaku.mhlw.go.jp/40/index.php?action_kouhyou_detail_004_kani=true&JigyosyoCd=40B3300017-00&ServiceCd=550&Type=search", "url2": "https://www.akama-hp.or.jp/" }, "geometry": { "type": "Point", "coordinates": [ 130.594763, 33.8051177 ] } },
{ "type": "Feature", "properties": { "内容": "水城病院　介護医療院【介護医療院】福岡県太宰府市通古賀3丁目10番1号", "url": "https://www.kaigokensaku.mhlw.go.jp/40/index.php?action_kouhyou_detail_004_kani=true&JigyosyoCd=40B3400015-00&ServiceCd=550&Type=search", "url2": "https://www.mizuki.or.jp" }, "geometry": { "type": "Point", "coordinates": [ 130.50655329999995, 33.5115802 ] } },
{ "type": "Feature", "properties": { "内容": "介護医療院さくら【介護医療院】福岡県太宰府市坂本1丁目4番6号", "url": "https://www.kaigokensaku.mhlw.go.jp/40/index.php?action_kouhyou_detail_004_kani=true&JigyosyoCd=40B3400023-00&ServiceCd=550&Type=search", "url2": "https://maruyamahosp.jp/" }, "geometry": { "type": "Point", "coordinates": [ 130.5064817, 33.5139423 ] } },
{ "type": "Feature", "properties": { "内容": "北九州古賀病院介護医療院【介護医療院】福岡県古賀市千鳥二丁目12番1号", "url": "https://www.kaigokensaku.mhlw.go.jp/40/index.php?action_kouhyou_detail_004_kani=true&JigyosyoCd=40B3600010-00&ServiceCd=550&Type=search", "url2": "http://www.kitakyu-hp.or.jp/contents/kitahos_koga.htm" }, "geometry": { "type": "Point", "coordinates": [ 130.476236299999982, 33.7434518 ] } },
{ "type": "Feature", "properties": { "内容": "東福間病院介護医療院【介護医療院】福岡県福津市津丸1164番地の3", "url": "https://www.kaigokensaku.mhlw.go.jp/40/index.php?action_kouhyou_detail_004_kani=true&JigyosyoCd=40B4500011-00&ServiceCd=550&Type=search", "url2": "https://www.souseikai-hp.or.jp" }, "geometry": { "type": "Point", "coordinates": [ 130.505068162565635, 33.772423159184015 ] } },
{ "type": "Feature", "properties": { "内容": "医療法人静かな海の会　津屋崎中央病院　介護医療院【介護医療院】福岡県福津市渡1564番地", "url": "https://www.kaigokensaku.mhlw.go.jp/40/index.php?action_kouhyou_detail_004_kani=true&JigyosyoCd=40B4500029-00&ServiceCd=550&Type=search", "url2": "http://www.tuyazaki-hp.jp/" }, "geometry": { "type": "Point", "coordinates": [ 130.45569535648346, 33.788697116832246 ] } },
{ "type": "Feature", "properties": { "内容": "筑後川温泉病院介護医療院【介護医療院】福岡県うきは市浮羽町古川1055番地筑後川温泉病院", "url": "https://www.kaigokensaku.mhlw.go.jp/40/index.php?action_kouhyou_detail_004_kani=true&JigyosyoCd=40B7300013-00&ServiceCd=550&Type=search", "url2": "https://www.onsen-hp.or.jp" }, "geometry": { "type": "Point", "coordinates": [ 130.8095923, 33.3577295 ] } },
{ "type": "Feature", "properties": { "内容": "有吉病院介護医療院【介護医療院】上有木397番地1", "url": "https://www.kaigokensaku.mhlw.go.jp/40/index.php?action_kouhyou_detail_004_kani=true&JigyosyoCd=40B5500010-00&ServiceCd=550&Type=search", "url2": "http://www.ariyoshi-hp.jp/" }, "geometry": { "type": "Point", "coordinates": [ 130.623377623278742, 33.761711752146411 ] } },
{ "type": "Feature", "properties": { "内容": "社会保険稲築病院介護医療院いなつき【介護医療院】嘉麻市口春７４４番地１", "url": "https://www.kaigokensaku.mhlw.go.jp/40/index.php?action_kouhyou_detail_004_kani=true&JigyosyoCd=40B2100012-00&ServiceCd=550&Type=search", "url2": null }, "geometry": { "type": "Point", "coordinates": [ 130.713401299999987, 33.6004446 ] } },
{ "type": "Feature", "properties": { "内容": "医療法人遊心会大塚病院　大塚病院介護医療院【介護医療院】福岡県嘉麻市上山田1440番地7", "url": "https://www.kaigokensaku.mhlw.go.jp/40/index.php?action_kouhyou_detail_004_kani=true&JigyosyoCd=40B2100020-00&ServiceCd=550&Type=search", "url2": "otsuka-hospital.jp" }, "geometry": { "type": "Point", "coordinates": [ 130.76736260000007, 33.5581899 ] } },
{ "type": "Feature", "properties": { "内容": "小富士病院介護医療院【介護医療院】福岡県糸島市志摩久家2400番地", "url": "https://www.kaigokensaku.mhlw.go.jp/40/index.php?action_kouhyou_detail_004_kani=true&JigyosyoCd=40B3500020-00&ServiceCd=550&Type=search", "url2": "https://www.contrive.biz/kofuji/index.html" }, "geometry": { "type": "Point", "coordinates": [ 130.140193900000014, 33.5637346 ] } },
{ "type": "Feature", "properties": { "内容": "介護医療院　すみれ【介護医療院】福岡県糸島市神在西1丁目1番15号", "url": "https://www.kaigokensaku.mhlw.go.jp/40/index.php?action_kouhyou_detail_004_kani=true&JigyosyoCd=40B3500012-00&ServiceCd=550&Type=search", "url2": "http://www.itoshima.tanakaclinic.jp/" }, "geometry": { "type": "Point", "coordinates": [ 130.177086722090166, 33.547509174438687 ] } },
{ "type": "Feature", "properties": { "内容": "社会医療法人　北九州病院　北九州若杉病院介護医療院【介護医療院】福岡県糟屋郡篠栗町田中四丁目１番１号", "url": "https://www.kaigokensaku.mhlw.go.jp/40/index.php?action_kouhyou_detail_004_kani=true&JigyosyoCd=40B3900014-00&ServiceCd=550&Type=search", "url2": "https://www.kitakyu-hp.or.jp/wakasugi/" }, "geometry": { "type": "Point", "coordinates": [ 130.51733020000006, 33.6260857 ] } },
{ "type": "Feature", "properties": { "内容": "篠栗病院介護医療院【介護医療院】福岡県糟屋郡篠栗町田中１丁目１０番１号", "url": "https://www.kaigokensaku.mhlw.go.jp/40/index.php?action_kouhyou_detail_004_kani=true&JigyosyoCd=40B3900022-00&ServiceCd=550&Type=search", "url2": "http://www.sasaguri.or.jp" }, "geometry": { "type": "Point", "coordinates": [ 130.521512, 33.624316 ] } },
{ "type": "Feature", "properties": { "内容": "泰平病院介護医療院【介護医療院】福岡県糟屋郡須惠町大字新原14-7", "url": "https://www.kaigokensaku.mhlw.go.jp/40/index.php?action_kouhyou_detail_004_kani=true&JigyosyoCd=40B4100010-00&ServiceCd=550&Type=search", "url2": "www.taihei.or.jp" }, "geometry": { "type": "Point", "coordinates": [ 130.5143835, 33.579582 ] } },
{ "type": "Feature", "properties": { "内容": "水戸病院介護医療院【介護医療院】福岡県糟屋郡須恵町大字旅石115番地483水戸病院", "url": "https://www.kaigokensaku.mhlw.go.jp/40/index.php?action_kouhyou_detail_004_kani=true&JigyosyoCd=40B4100028-00&ServiceCd=550&Type=search", "url2": "www.s-mito.org" }, "geometry": { "type": "Point", "coordinates": [ 130.496906599999988, 33.5844308 ] } },
{ "type": "Feature", "properties": { "内容": "医療法人正周会　水巻共立病院介護医療院【介護医療院】福岡県遠賀郡水巻町吉田西４丁目２番１号", "url": "https://www.kaigokensaku.mhlw.go.jp/40/index.php?action_kouhyou_detail_004_kani=true&JigyosyoCd=40B5000011-00&ServiceCd=550&Type=search", "url2": "https://care-net.biz/40/seishukai/mizumaki.php" }, "geometry": { "type": "Point", "coordinates": [ 130.7036526, 33.8439487 ] } },
{ "type": "Feature", "properties": { "内容": "嘉穂信和病院介護医療院【介護医療院】福岡県嘉穂郡桂川町大字土師２８番地", "url": "https://www.kaigokensaku.mhlw.go.jp/40/index.php?action_kouhyou_detail_004_kani=true&JigyosyoCd=40B5700016-00&ServiceCd=550&Type=search", "url2": null }, "geometry": { "type": "Point", "coordinates": [ 130.6989319, 33.574031 ] } }
]
}
