{
"type": "FeatureCollection",
"name": "geo_40_地域密着型介護老人福祉施設入所者生活介護",
"crs": { "type": "name", "properties": { "name": "urn:ogc:def:crs:OGC:1.3:CRS84" } },
"features": [
{ "type": "Feature", "properties": { "内容": "特別養護老人ホーム　好日苑大里の郷【地域密着型介護老人福祉施設入所者生活介護】北九州市門司区大里戸ノ上4丁目1-40", "url": "https://www.kaigokensaku.mhlw.go.jp/40/index.php?action_kouhyou_detail_004_kani=true&JigyosyoCd=4090100290-00&ServiceCd=540&Type=search", "url2": "http://www.koujitsuen.com/" }, "geometry": { "type": "Point", "coordinates": [ 130.945967900000028, 33.9025476 ] } },
{ "type": "Feature", "properties": { "内容": "特別養護老人ホーム　ひかりの丘【地域密着型介護老人福祉施設入所者生活介護】福岡県北九州市門司区上藤松三丁目2番1号", "url": "https://www.kaigokensaku.mhlw.go.jp/40/index.php?action_kouhyou_detail_004_kani=true&JigyosyoCd=4090100142-00&ServiceCd=540&Type=search", "url2": "http://www.hikarinooka2010.jp" }, "geometry": { "type": "Point", "coordinates": [ 130.924392099999977, 33.8833244 ] } },
{ "type": "Feature", "properties": { "内容": "地域密着型特別養護老人ホームひびきのもり【地域密着型介護老人福祉施設入所者生活介護】福岡県北九州市若松区深町一丁目１５番８号", "url": "https://www.kaigokensaku.mhlw.go.jp/40/index.php?action_kouhyou_detail_004_kani=true&JigyosyoCd=4090200066-00&ServiceCd=540&Type=search", "url2": "http://www.shinsetsu.net" }, "geometry": { "type": "Point", "coordinates": [ 130.800596600000063, 33.9171432 ] } },
{ "type": "Feature", "properties": { "内容": "地域密着型特別養護老人ホーム　にしぞの【地域密着型介護老人福祉施設入所者生活介護】福岡県北九州市若松区西園町９番５号", "url": "https://www.kaigokensaku.mhlw.go.jp/40/index.php?action_kouhyou_detail_004_kani=true&JigyosyoCd=4090200330-00&ServiceCd=540&Type=search", "url2": "http://www.shinsetsu.net/" }, "geometry": { "type": "Point", "coordinates": [ 130.8016767, 33.9102643 ] } },
{ "type": "Feature", "properties": { "内容": "サテライト型地域密着型特別養護老人ホーム　ひびきの虹色館【地域密着型介護老人福祉施設入所者生活介護】福岡県北九州市若松区ひびきの南１丁目2－3", "url": "https://www.kaigokensaku.mhlw.go.jp/40/index.php?action_kouhyou_detail_004_kani=true&JigyosyoCd=4090200116-00&ServiceCd=540&Type=search", "url2": "www.honjyoukai.com" }, "geometry": { "type": "Point", "coordinates": [ 130.714908446557644, 33.888405455924527 ] } },
{ "type": "Feature", "properties": { "内容": "ルグネットとばた【地域密着型介護老人福祉施設入所者生活介護】福岡県　北九州市　戸畑区丸町1丁目2番38号", "url": "https://www.kaigokensaku.mhlw.go.jp/40/index.php?action_kouhyou_detail_004_kani=true&JigyosyoCd=4090300031-00&ServiceCd=540&Type=search", "url2": "http://www.iwakikai.com" }, "geometry": { "type": "Point", "coordinates": [ 130.822220099999981, 33.8906967 ] } },
{ "type": "Feature", "properties": { "内容": "プロムナードとばた【地域密着型介護老人福祉施設入所者生活介護】金比羅町4-403階・4階部分", "url": "https://www.kaigokensaku.mhlw.go.jp/40/index.php?action_kouhyou_detail_004_kani=true&JigyosyoCd=4090300080-00&ServiceCd=540&Type=search", "url2": "http://www.iwakifukushikai.jp" }, "geometry": { "type": "Point", "coordinates": [ 130.841647377909766, 33.878724487510638 ] } },
{ "type": "Feature", "properties": { "内容": "足原のぞみ苑　ユニット【地域密着型介護老人福祉施設入所者生活介護】福岡県北九州市小倉北区熊本三丁目１２番９号", "url": "https://www.kaigokensaku.mhlw.go.jp/40/index.php?action_kouhyou_detail_004_kani=true&JigyosyoCd=4090400377-00&ServiceCd=540&Type=search", "url2": "http://www.nozomi-en.jp" }, "geometry": { "type": "Point", "coordinates": [ 130.8952928, 33.8668057 ] } },
{ "type": "Feature", "properties": { "内容": "特別養護老人ホーム三萩野【地域密着型介護老人福祉施設入所者生活介護】北九州市小倉北区白銀2-11-4年長者の里　小倉東館", "url": "https://www.kaigokensaku.mhlw.go.jp/40/index.php?action_kouhyou_detail_004_kani=true&JigyosyoCd=4090400229-00&ServiceCd=540&Type=search", "url2": "http://n-sato.com" }, "geometry": { "type": "Point", "coordinates": [ 130.877152600000045, 33.8677054 ] } },
{ "type": "Feature", "properties": { "内容": "特別養護老人ホームひだまり【地域密着型介護老人福祉施設入所者生活介護】小倉北区片野４丁目23-2ひだまり", "url": "https://www.kaigokensaku.mhlw.go.jp/40/index.php?action_kouhyou_detail_004_kani=true&JigyosyoCd=4090400260-00&ServiceCd=540&Type=search", "url2": "http://www.senrikai.or.jp/" }, "geometry": { "type": "Point", "coordinates": [ 130.88174140000001, 33.861245 ] } },
{ "type": "Feature", "properties": { "内容": "特別養護老人ホーム　ソレイユ北小倉【地域密着型介護老人福祉施設入所者生活介護】西港町30番52号", "url": "https://www.kaigokensaku.mhlw.go.jp/40/index.php?action_kouhyou_detail_004_kani=true&JigyosyoCd=4090400302-00&ServiceCd=540&Type=search", "url2": "http://soreiyugroup.or.jp" }, "geometry": { "type": "Point", "coordinates": [ 130.856207768925543, 33.898296108534069 ] } },
{ "type": "Feature", "properties": { "内容": "特別養護老人ホーム　北九州シティホーム　絆館【地域密着型介護老人福祉施設入所者生活介護】福岡県北九州市小倉北区萩崎町１番３２号", "url": "https://www.kaigokensaku.mhlw.go.jp/40/index.php?action_kouhyou_detail_004_kani=true&JigyosyoCd=4090400385-00&ServiceCd=540&Type=search", "url2": "http://www.kaorukai.jp" }, "geometry": { "type": "Point", "coordinates": [ 130.883868600000028, 33.8740547 ] } },
{ "type": "Feature", "properties": { "内容": "地域密着型介護老人福祉施設　第二双葉苑【地域密着型介護老人福祉施設入所者生活介護】福岡県北九州市小倉南区高野3丁目11番1号", "url": "https://www.kaigokensaku.mhlw.go.jp/40/index.php?action_kouhyou_detail_004_kani=true&JigyosyoCd=4090500101-00&ServiceCd=540&Type=search", "url2": "futaba2@futaba-kai.or.jp" }, "geometry": { "type": "Point", "coordinates": [ 130.85260530000005, 33.8290099 ] } },
{ "type": "Feature", "properties": { "内容": "特別養護老人ホーム　とくりき春吉園【地域密着型介護老人福祉施設入所者生活介護】福岡県北九州市小倉南区徳力団地2番10号", "url": "https://www.kaigokensaku.mhlw.go.jp/40/index.php?action_kouhyou_detail_004_kani=true&JigyosyoCd=4090500481-00&ServiceCd=540&Type=search", "url2": "http://haruyoshi-en.jp/tk/" }, "geometry": { "type": "Point", "coordinates": [ 130.8649044, 33.8311959 ] } },
{ "type": "Feature", "properties": { "内容": "地域密着型介護老人福祉施設　ふたばのその【地域密着型介護老人福祉施設入所者生活介護】福岡県北九州市小倉南区徳吉西1-20-15", "url": "https://www.kaigokensaku.mhlw.go.jp/40/index.php?action_kouhyou_detail_004_kani=true&JigyosyoCd=4090500259-00&ServiceCd=540&Type=search", "url2": "http://www.futaba-kai.or.jp" }, "geometry": { "type": "Point", "coordinates": [ 130.858019000663717, 33.816893783386838 ] } },
{ "type": "Feature", "properties": { "内容": "特別養護老人ホーム　悦和の郷【地域密着型介護老人福祉施設入所者生活介護】沼緑町１丁目１１番１９号", "url": "https://www.kaigokensaku.mhlw.go.jp/40/index.php?action_kouhyou_detail_004_kani=true&JigyosyoCd=4090500499-00&ServiceCd=540&Type=search", "url2": "www.kaorukai.jp" }, "geometry": { "type": "Point", "coordinates": [ 130.933949799999937, 33.8426108 ] } },
{ "type": "Feature", "properties": { "内容": "特別養護老人ホーム誠光園アネックス【地域密着型介護老人福祉施設入所者生活介護】福岡県北九州市八幡東区藤見町3番2号", "url": "https://www.kaigokensaku.mhlw.go.jp/40/index.php?action_kouhyou_detail_004_kani=true&JigyosyoCd=4090600067-00&ServiceCd=540&Type=search", "url2": "www.seikou-kai.net" }, "geometry": { "type": "Point", "coordinates": [ 130.823428899999954, 33.869693 ] } },
{ "type": "Feature", "properties": { "内容": "サングリーンアネモス【地域密着型介護老人福祉施設入所者生活介護】福岡県北九州市八幡西区大字則松１０３番地", "url": "https://www.kaigokensaku.mhlw.go.jp/40/index.php?action_kouhyou_detail_004_kani=true&JigyosyoCd=4090700453-00&ServiceCd=540&Type=search", "url2": "http://care-net.biz/40/kitakyushufukushikai" }, "geometry": { "type": "Point", "coordinates": [ 130.720177599999943, 33.8548538 ] } },
{ "type": "Feature", "properties": { "内容": "特別養護老人ホーム　愛敬苑【地域密着型介護老人福祉施設入所者生活介護】福岡県北九州市八幡西区上上津役５－８－１", "url": "https://www.kaigokensaku.mhlw.go.jp/40/index.php?action_kouhyou_detail_004_kani=true&JigyosyoCd=4090700800-00&ServiceCd=540&Type=search", "url2": null }, "geometry": { "type": "Point", "coordinates": [ 130.761782700000026, 33.8264914 ] } },
{ "type": "Feature", "properties": { "内容": "特別養護老人ホーム第二倫尚園【地域密着型介護老人福祉施設入所者生活介護】福岡県北九州市八幡西区馬場山東3丁目11-1", "url": "https://www.kaigokensaku.mhlw.go.jp/40/index.php?action_kouhyou_detail_004_kani=true&JigyosyoCd=4070701695-00&ServiceCd=540&Type=search", "url2": "welbabayama@abeam.ocn.ne.jp" }, "geometry": { "type": "Point", "coordinates": [ 130.74909619999994, 33.7921975 ] } },
{ "type": "Feature", "properties": { "内容": "ケアプラザ倶楽部雪月花【地域密着型介護老人福祉施設入所者生活介護】北九州市八幡西区森下町27番38号", "url": "https://www.kaigokensaku.mhlw.go.jp/40/index.php?action_kouhyou_detail_004_kani=true&JigyosyoCd=4090700230-00&ServiceCd=540&Type=search", "url2": "http://www.moyai.or.jp/" }, "geometry": { "type": "Point", "coordinates": [ 130.741881299999932, 33.8490663 ] } },
{ "type": "Feature", "properties": { "内容": "特別養護老人ホームわかば【地域密着型介護老人福祉施設入所者生活介護】香月西二丁目9番3号", "url": "https://www.kaigokensaku.mhlw.go.jp/40/index.php?action_kouhyou_detail_004_kani=true&JigyosyoCd=4090700305-00&ServiceCd=540&Type=search", "url2": "https://kenbikai.org/" }, "geometry": { "type": "Point", "coordinates": [ 130.732503574868787, 33.803856220092243 ] } },
{ "type": "Feature", "properties": { "内容": "特別養護老人ホームサポートセンター本城【地域密着型介護老人福祉施設入所者生活介護】本城東6丁目1-16", "url": "https://www.kaigokensaku.mhlw.go.jp/40/index.php?action_kouhyou_detail_004_kani=true&JigyosyoCd=4090700313-00&ServiceCd=540&Type=search", "url2": "http://www.hibiki.or.jp" }, "geometry": { "type": "Point", "coordinates": [ 130.730093609786962, 33.874261010864274 ] } },
{ "type": "Feature", "properties": { "内容": "地域密着型　特別養護老人ホーム杜の家別館【地域密着型介護老人福祉施設入所者生活介護】福岡県北九州市八幡西区大字畑696番地12", "url": "https://www.kaigokensaku.mhlw.go.jp/40/index.php?action_kouhyou_detail_004_kani=true&JigyosyoCd=4090700867-00&ServiceCd=540&Type=search", "url2": "http://www.mukauno-sato.com" }, "geometry": { "type": "Point", "coordinates": [ 130.781725200000011, 33.7967003 ] } },
{ "type": "Feature", "properties": { "内容": "特別養護老人ホームいきいき箱崎【地域密着型介護老人福祉施設入所者生活介護】福岡県福岡市東区箱崎6丁目18番7号", "url": "https://www.kaigokensaku.mhlw.go.jp/40/index.php?action_kouhyou_detail_004_kani=true&JigyosyoCd=4090800139-00&ServiceCd=540&Type=search", "url2": "http//chidorifukushi.jp" }, "geometry": { "type": "Point", "coordinates": [ 130.421485100000041, 33.6256289 ] } },
{ "type": "Feature", "properties": { "内容": "地域密着型介護老人福祉施設照葉【地域密着型介護老人福祉施設入所者生活介護】福岡市東区香椎照葉3-4-3", "url": "https://www.kaigokensaku.mhlw.go.jp/40/index.php?action_kouhyou_detail_004_kani=true&JigyosyoCd=4090800261-00&ServiceCd=540&Type=search", "url2": "https://itofukushikai.com/" }, "geometry": { "type": "Point", "coordinates": [ 130.421591600000056, 33.6605775 ] } },
{ "type": "Feature", "properties": { "内容": "特別養護老人ホームいきいき八田【地域密着型介護老人福祉施設入所者生活介護】福岡県福岡市東区八田1丁目4番15号", "url": "https://www.kaigokensaku.mhlw.go.jp/40/index.php?action_kouhyou_detail_004_kani=true&JigyosyoCd=4090800337-00&ServiceCd=540&Type=search", "url2": "http://chidorifukushi.jp" }, "geometry": { "type": "Point", "coordinates": [ 130.456670280287199, 33.634047779944062 ] } },
{ "type": "Feature", "properties": { "内容": "地域密着型特別養護老人ホームフレンドピーチちはや【地域密着型介護老人福祉施設入所者生活介護】福岡県福岡市東区千早1丁目17-16", "url": "https://www.kaigokensaku.mhlw.go.jp/40/index.php?action_kouhyou_detail_004_kani=true&JigyosyoCd=4090800519-00&ServiceCd=540&Type=search", "url2": "https://www.friendpeach.or.jp/" }, "geometry": { "type": "Point", "coordinates": [ 130.430588732540826, 33.650148910799992 ] } },
{ "type": "Feature", "properties": { "内容": "特別養護老人ホーム　つくしの里【地域密着型介護老人福祉施設入所者生活介護】福岡県福岡市東区名子1丁目16番10号つくしの里1丁目ユニット、2丁目ユニット、３丁目ユニット、新町（ショートステイ）ユニット", "url": "https://www.kaigokensaku.mhlw.go.jp/40/index.php?action_kouhyou_detail_004_kani=true&JigyosyoCd=4090800246-00&ServiceCd=540&Type=search", "url2": "http://www.tatara-fukushikai.com" }, "geometry": { "type": "Point", "coordinates": [ 130.475928100000033, 33.6358232 ] } },
{ "type": "Feature", "properties": { "内容": "特別養護老人ホームさんすまいる唐原【地域密着型介護老人福祉施設入所者生活介護】福岡県福岡市東区唐原７丁目１５番５１号", "url": "https://www.kaigokensaku.mhlw.go.jp/40/index.php?action_kouhyou_detail_004_kani=true&JigyosyoCd=4090800329-00&ServiceCd=540&Type=search", "url2": "http://sunsmile.or.jp" }, "geometry": { "type": "Point", "coordinates": [ 130.44887540000002, 33.6757878 ] } },
{ "type": "Feature", "properties": { "内容": "特別養護老人ホーム　りんごの家【地域密着型介護老人福祉施設入所者生活介護】福岡県福岡市博多区井相田3-8-1", "url": "https://www.kaigokensaku.mhlw.go.jp/40/index.php?action_kouhyou_detail_004_kani=true&JigyosyoCd=4090900061-00&ServiceCd=540&Type=search", "url2": "http://www:nposoyokaze.com/ringo/" }, "geometry": { "type": "Point", "coordinates": [ 130.466705899999965, 33.5506994 ] } },
{ "type": "Feature", "properties": { "内容": "月隈愛心の丘【地域密着型介護老人福祉施設入所者生活介護】福岡市博多区月隈6丁目16番11号", "url": "https://www.kaigokensaku.mhlw.go.jp/40/index.php?action_kouhyou_detail_004_kani=true&JigyosyoCd=4090900145-00&ServiceCd=540&Type=search", "url2": "http://aishinnooka.com/" }, "geometry": { "type": "Point", "coordinates": [ 130.466819699999974, 33.5714886 ] } },
{ "type": "Feature", "properties": { "内容": "アットホーム板付【地域密着型介護老人福祉施設入所者生活介護】福岡市博多区板付6-1-17", "url": "https://www.kaigokensaku.mhlw.go.jp/40/index.php?action_kouhyou_detail_004_kani=true&JigyosyoCd=4090900434-00&ServiceCd=540&Type=search", "url2": "http://www.keiaien.org" }, "geometry": { "type": "Point", "coordinates": [ 130.4572447, 33.5583971 ] } },
{ "type": "Feature", "properties": { "内容": "おざさ【地域密着型介護老人福祉施設入所者生活介護】福岡市中央区小笹1丁目14-27", "url": "https://www.kaigokensaku.mhlw.go.jp/40/index.php?action_kouhyou_detail_004_kani=true&JigyosyoCd=4091000036-00&ServiceCd=540&Type=search", "url2": "http://tachiarai-kouseien.jp/ozasa/" }, "geometry": { "type": "Point", "coordinates": [ 130.3898001, 33.5631549 ] } },
{ "type": "Feature", "properties": { "内容": "地域密着型特別養護老人ホーム　藤ヶ丘荘【地域密着型介護老人福祉施設入所者生活介護】福岡市南区桧原1丁目18-11", "url": "https://www.kaigokensaku.mhlw.go.jp/40/index.php?action_kouhyou_detail_004_kani=true&JigyosyoCd=4091100125-00&ServiceCd=540&Type=search", "url2": "http://www.nagao.or.jp/fujigaokasou/" }, "geometry": { "type": "Point", "coordinates": [ 130.393854, 33.5398272 ] } },
{ "type": "Feature", "properties": { "内容": "地域密着型特別養護老人ホーム　グッドライフ野間【地域密着型介護老人福祉施設入所者生活介護】福岡県福岡市南区野間3-15-1", "url": "https://www.kaigokensaku.mhlw.go.jp/40/index.php?action_kouhyou_detail_004_kani=true&JigyosyoCd=4091100430-00&ServiceCd=540&Type=search", "url2": "https://good-life.or.jp/" }, "geometry": { "type": "Point", "coordinates": [ 130.414913715344227, 33.561230377718324 ] } },
{ "type": "Feature", "properties": { "内容": "地域密着型特別養護老人ホーム　花の季苑【地域密着型介護老人福祉施設入所者生活介護】福岡県福岡市南区和田4丁目16番1号", "url": "https://www.kaigokensaku.mhlw.go.jp/40/index.php?action_kouhyou_detail_004_kani=true&JigyosyoCd=4091100570-00&ServiceCd=540&Type=search", "url2": "http://tokuwa.net" }, "geometry": { "type": "Point", "coordinates": [ 130.4215235, 33.5488341 ] } },
{ "type": "Feature", "properties": { "内容": "社会福祉法人恵光会　特別養護老人ホーム　恵【地域密着型介護老人福祉施設入所者生活介護】福岡県福岡市南区花畑1丁目1番24号", "url": "https://www.kaigokensaku.mhlw.go.jp/40/index.php?action_kouhyou_detail_004_kani=true&JigyosyoCd=4091100240-00&ServiceCd=540&Type=search", "url2": "http://www.keikoukai-megumi.jp/" }, "geometry": { "type": "Point", "coordinates": [ 130.40655, 33.5409659 ] } },
{ "type": "Feature", "properties": { "内容": "特別養護老人ホーム　マイネスハウス福重【地域密着型介護老人福祉施設入所者生活介護】福岡市西区福重2丁目34－5", "url": "https://www.kaigokensaku.mhlw.go.jp/40/index.php?action_kouhyou_detail_004_kani=true&JigyosyoCd=4091200057-00&ServiceCd=540&Type=search", "url2": "http://www.m-h.jp" }, "geometry": { "type": "Point", "coordinates": [ 130.320588499999985, 33.5637239 ] } },
{ "type": "Feature", "properties": { "内容": "特別養護老人ホーム美の里【地域密着型介護老人福祉施設入所者生活介護】福岡県福岡市西区田尻東2丁目2535", "url": "https://www.kaigokensaku.mhlw.go.jp/40/index.php?action_kouhyou_detail_004_kani=true&JigyosyoCd=4091200107-00&ServiceCd=540&Type=search", "url2": "http://www.imayamakai.or.jp/" }, "geometry": { "type": "Point", "coordinates": [ 130.255853699999989, 33.5883661 ] } },
{ "type": "Feature", "properties": { "内容": "地域密着型特別養護老人ホーム　今津創生園【地域密着型介護老人福祉施設入所者生活介護】福岡市西区今津5324-5今津創生園", "url": "https://www.kaigokensaku.mhlw.go.jp/40/index.php?action_kouhyou_detail_004_kani=true&JigyosyoCd=4091200255-00&ServiceCd=540&Type=search", "url2": "http://www.souseikai.or.jp/index.html" }, "geometry": { "type": "Point", "coordinates": [ 130.251479310189779, 33.604747467614985 ] } },
{ "type": "Feature", "properties": { "内容": "地域密着型特別養護老人ホーム　海の花【地域密着型介護老人福祉施設入所者生活介護】福岡県福岡市西区今津6015番地", "url": "https://www.kaigokensaku.mhlw.go.jp/40/index.php?action_kouhyou_detail_004_kani=true&JigyosyoCd=4091200479-00&ServiceCd=540&Type=search", "url2": "https://saiunnouta.com/" }, "geometry": { "type": "Point", "coordinates": [ 130.270677799999987, 33.5976478 ] } },
{ "type": "Feature", "properties": { "内容": "地域密着型特別養護老人ホームかあむ茜月【地域密着型介護老人福祉施設入所者生活介護】福岡県福岡市西区大字飯盛23-1", "url": "https://www.kaigokensaku.mhlw.go.jp/40/index.php?action_kouhyou_detail_004_kani=true&JigyosyoCd=4091200586-00&ServiceCd=540&Type=search", "url2": "https://kaeikai.jp/" }, "geometry": { "type": "Point", "coordinates": [ 130.3101388, 33.5398191 ] } },
{ "type": "Feature", "properties": { "内容": "地域密着型特別養護老人ホームサンガーデン【地域密着型介護老人福祉施設入所者生活介護】福岡県福岡市西区羽根戸５２１", "url": "https://www.kaigokensaku.mhlw.go.jp/40/index.php?action_kouhyou_detail_004_kani=true&JigyosyoCd=4091200131-00&ServiceCd=540&Type=search", "url2": "https://www.iimorikai.or.jp" }, "geometry": { "type": "Point", "coordinates": [ 130.309209499999952, 33.5444722 ] } },
{ "type": "Feature", "properties": { "内容": "特別養護老人ホーム松生園【地域密着型介護老人福祉施設入所者生活介護】福岡市西区今宿青木1093-22", "url": "https://www.kaigokensaku.mhlw.go.jp/40/index.php?action_kouhyou_detail_004_kani=true&JigyosyoCd=4091200180-00&ServiceCd=540&Type=search", "url2": "http://www.shoseien.jp/" }, "geometry": { "type": "Point", "coordinates": [ 130.291176899999982, 33.5768692 ] } },
{ "type": "Feature", "properties": { "内容": "特別養護老人ホーム　よりあいの森【地域密着型介護老人福祉施設入所者生活介護】福岡県福岡市城南区別府7丁目9-22", "url": "https://www.kaigokensaku.mhlw.go.jp/40/index.php?action_kouhyou_detail_004_kani=true&JigyosyoCd=4091300113-00&ServiceCd=540&Type=search", "url2": "http://yoriainomori.com" }, "geometry": { "type": "Point", "coordinates": [ 130.367229700000053, 33.5664344 ] } },
{ "type": "Feature", "properties": { "内容": "地域密着型特別養護老人ホーム　陽だまり【地域密着型介護老人福祉施設入所者生活介護】福岡市城南区東油山1丁目33番11号", "url": "https://www.kaigokensaku.mhlw.go.jp/40/index.php?action_kouhyou_detail_004_kani=true&JigyosyoCd=4091300097-00&ServiceCd=540&Type=search", "url2": "http://hinoki-kai.com/hidamari/" }, "geometry": { "type": "Point", "coordinates": [ 130.382513300000028, 33.5363551 ] } },
{ "type": "Feature", "properties": { "内容": "地域密着型特別養護老人ホーム　まきの木【地域密着型介護老人福祉施設入所者生活介護】福岡市早良区干隈4丁目10番12号", "url": "https://www.kaigokensaku.mhlw.go.jp/40/index.php?action_kouhyou_detail_004_kani=true&JigyosyoCd=4091400160-00&ServiceCd=540&Type=search", "url2": "https://seiwakai-care.jp" }, "geometry": { "type": "Point", "coordinates": [ 130.348942500000021, 33.5555271 ] } },
{ "type": "Feature", "properties": { "内容": "特別養護老人ホーム香楠荘【地域密着型介護老人福祉施設入所者生活介護】福岡県福岡市早良区東入部2-16-17", "url": "https://www.kaigokensaku.mhlw.go.jp/40/index.php?action_kouhyou_detail_004_kani=true&JigyosyoCd=4091400186-00&ServiceCd=540&Type=search", "url2": "https://www.kounansou.jp" }, "geometry": { "type": "Point", "coordinates": [ 130.33609720000004, 33.5172527 ] } },
{ "type": "Feature", "properties": { "内容": "特別養護老人ホーム天光園「かみうち」【地域密着型介護老人福祉施設入所者生活介護】岩本新町2丁目4番地3", "url": "https://www.kaigokensaku.mhlw.go.jp/40/index.php?action_kouhyou_detail_004_kani=true&JigyosyoCd=4091500530-00&ServiceCd=540&Type=search", "url2": "http://www.tenkouen.com/" }, "geometry": { "type": "Point", "coordinates": [ 130.490503208598255, 33.071580860782895 ] } },
{ "type": "Feature", "properties": { "内容": "特別養護老人ホーム天光園「たちばな」【地域密着型介護老人福祉施設入所者生活介護】福岡県大牟田市大字橘字原ノ前1494番地1", "url": "https://www.kaigokensaku.mhlw.go.jp/40/index.php?action_kouhyou_detail_004_kani=true&JigyosyoCd=4091500290-00&ServiceCd=540&Type=search", "url2": "http://www.tenkouen.com/" }, "geometry": { "type": "Point", "coordinates": [ 130.477973224711604, 33.069803773013597 ] } },
{ "type": "Feature", "properties": { "内容": "マ・メゾン湯乃坂【地域密着型介護老人福祉施設入所者生活介護】福岡県久留米市野中町1198-1", "url": "https://www.kaigokensaku.mhlw.go.jp/40/index.php?action_kouhyou_detail_004_kani=true&JigyosyoCd=4091600454-00&ServiceCd=540&Type=search", "url2": "http://www.mamaison.jp" }, "geometry": { "type": "Point", "coordinates": [ 130.5307434, 33.3072932 ] } },
{ "type": "Feature", "properties": { "内容": "特別養護老人ホームなごみの森【地域密着型介護老人福祉施設入所者生活介護】福岡県久留米市城島町大依315番地1", "url": "https://www.kaigokensaku.mhlw.go.jp/40/index.php?action_kouhyou_detail_004_kani=true&JigyosyoCd=4091600785-00&ServiceCd=540&Type=search", "url2": "http://www.swc-hohoemi.or.jp" }, "geometry": { "type": "Point", "coordinates": [ 130.434049429469297, 33.256910312569637 ] } },
{ "type": "Feature", "properties": { "内容": "特別養護老人ホーム第２なごみの森【地域密着型介護老人福祉施設入所者生活介護】久留米市城島町306番地", "url": "https://www.kaigokensaku.mhlw.go.jp/40/index.php?action_kouhyou_detail_004_kani=true&JigyosyoCd=4091601189-00&ServiceCd=540&Type=search", "url2": "http://www.swc-hohoemi.or.jp" }, "geometry": { "type": "Point", "coordinates": [ 130.434663547000355, 33.256416766235724 ] } },
{ "type": "Feature", "properties": { "内容": "特別養護老人ホーム　第２ひじり園【地域密着型介護老人福祉施設入所者生活介護】福岡県久留米市善導寺町飯田1393-11", "url": "https://www.kaigokensaku.mhlw.go.jp/40/index.php?action_kouhyou_detail_004_kani=true&JigyosyoCd=4091600603-00&ServiceCd=540&Type=search", "url2": "http://hijirikai.com" }, "geometry": { "type": "Point", "coordinates": [ 130.616972700000019, 33.3254986 ] } },
{ "type": "Feature", "properties": { "内容": "特別養護老人ホーム　すみれ【地域密着型介護老人福祉施設入所者生活介護】福岡県久留米市津福本町1300-1", "url": "https://www.kaigokensaku.mhlw.go.jp/40/index.php?action_kouhyou_detail_004_kani=true&JigyosyoCd=4091600827-00&ServiceCd=540&Type=search", "url2": "https://viola-societa.com/" }, "geometry": { "type": "Point", "coordinates": [ 130.499934948162803, 33.302403693149962 ] } },
{ "type": "Feature", "properties": { "内容": "特別養護老人ホーム桜花台園【地域密着型介護老人福祉施設入所者生活介護】福岡県久留米市高良内町字丸深田3919-7", "url": "https://www.kaigokensaku.mhlw.go.jp/40/index.php?action_kouhyou_detail_004_kani=true&JigyosyoCd=4091600223-00&ServiceCd=540&Type=search", "url2": "http://www.keifukukai.jp" }, "geometry": { "type": "Point", "coordinates": [ 130.551831399999969, 33.2875261 ] } },
{ "type": "Feature", "properties": { "内容": "特別養護老人ホーム共生の里津福【地域密着型介護老人福祉施設入所者生活介護】久留米市荒木町白口５５２－３", "url": "https://www.kaigokensaku.mhlw.go.jp/40/index.php?action_kouhyou_detail_004_kani=true&JigyosyoCd=4091600488-00&ServiceCd=540&Type=search", "url2": "http://ks-kyousei.jp" }, "geometry": { "type": "Point", "coordinates": [ 130.499149100000068, 33.2899834 ] } },
{ "type": "Feature", "properties": { "内容": "特別養護老人ホームわかくさ【地域密着型介護老人福祉施設入所者生活介護】福岡県久留米市天神町134番地1", "url": "https://www.kaigokensaku.mhlw.go.jp/40/index.php?action_kouhyou_detail_004_kani=true&JigyosyoCd=4091601296-00&ServiceCd=540&Type=search", "url2": "http://www.tenjinkai.or.jp/wakakusakai" }, "geometry": { "type": "Point", "coordinates": [ 130.520194800000041, 33.3101004 ] } },
{ "type": "Feature", "properties": { "内容": "特別養護老人ホーム　第二みづま敬和苑【地域密着型介護老人福祉施設入所者生活介護】福岡県久留米市三潴町西牟田6128-1", "url": "https://www.kaigokensaku.mhlw.go.jp/40/index.php?action_kouhyou_detail_004_kani=true&JigyosyoCd=4091601171-00&ServiceCd=540&Type=search", "url2": "http://www.keiwaen.com/miduma_keiwaen/" }, "geometry": { "type": "Point", "coordinates": [ 130.4839379, 33.2432041 ] } },
{ "type": "Feature", "properties": { "内容": "特別養護老人ホーム第三みづま敬和苑【地域密着型介護老人福祉施設入所者生活介護】福岡県久留米市三潴町西牟田6145-2特別養護老人ホーム第三みづま敬和苑", "url": "https://www.kaigokensaku.mhlw.go.jp/40/index.php?action_kouhyou_detail_004_kani=true&JigyosyoCd=4091601486-00&ServiceCd=540&Type=search", "url2": "http://www.keiwaen.com/miduma_keiwaen/" }, "geometry": { "type": "Point", "coordinates": [ 130.503571700538629, 33.247828014928814 ] } },
{ "type": "Feature", "properties": { "内容": "特別養護老人ホーム　光の杜【地域密着型介護老人福祉施設入所者生活介護】宮ノ陣町大杜460-1", "url": "https://www.kaigokensaku.mhlw.go.jp/40/index.php?action_kouhyou_detail_004_kani=true&JigyosyoCd=4091600629-00&ServiceCd=540&Type=search", "url2": "http://kojyuen.net" }, "geometry": { "type": "Point", "coordinates": [ 130.545034399999963, 33.3366357 ] } },
{ "type": "Feature", "properties": { "内容": "社会福祉法人　恵伸会　高齢者総合ケアセンター　共生の里荒木【地域密着型介護老人福祉施設入所者生活介護】久留米市荒木町白口1515", "url": "https://www.kaigokensaku.mhlw.go.jp/40/index.php?action_kouhyou_detail_004_kani=true&JigyosyoCd=4091600843-00&ServiceCd=540&Type=search", "url2": "http://www.ks-araki.jp/" }, "geometry": { "type": "Point", "coordinates": [ 130.511290951928714, 33.280900507146583 ] } },
{ "type": "Feature", "properties": { "内容": "特別養護老人ホームかみつ【地域密着型介護老人福祉施設入所者生活介護】福岡県久留米市上津町1870-1", "url": "https://www.kaigokensaku.mhlw.go.jp/40/index.php?action_kouhyou_detail_004_kani=true&JigyosyoCd=4091601247-00&ServiceCd=540&Type=search", "url2": "http://www.youfukukai.or.jp/" }, "geometry": { "type": "Point", "coordinates": [ 130.539986011945331, 33.279076941207862 ] } },
{ "type": "Feature", "properties": { "内容": "特別養護老人ホーム銀の庵【地域密着型介護老人福祉施設入所者生活介護】福岡県久留米市北野町十郎丸１５２９－２", "url": "https://www.kaigokensaku.mhlw.go.jp/40/index.php?action_kouhyou_detail_004_kani=true&JigyosyoCd=4091600611-00&ServiceCd=540&Type=search", "url2": "http://ginnoan.jp/" }, "geometry": { "type": "Point", "coordinates": [ 130.57352620000006, 33.3434434 ] } },
{ "type": "Feature", "properties": { "内容": "特別養護老人ホーム　宝生園さくら【地域密着型介護老人福祉施設入所者生活介護】福岡県久留米市北野町鳥巣字浜36番地1特別養護老人ホーム宝生園さくら", "url": "https://www.kaigokensaku.mhlw.go.jp/40/index.php?action_kouhyou_detail_004_kani=true&JigyosyoCd=4091600926-00&ServiceCd=540&Type=search", "url2": "http://www.houseien.net/" }, "geometry": { "type": "Point", "coordinates": [ 130.584630100004063, 33.334473384452664 ] } },
{ "type": "Feature", "properties": { "内容": "特別養護老人ホームやまかわ【地域密着型介護老人福祉施設入所者生活介護】福岡県久留米市山川安居野1丁目6番21号", "url": "https://www.kaigokensaku.mhlw.go.jp/40/index.php?action_kouhyou_detail_004_kani=true&JigyosyoCd=4091601304-00&ServiceCd=540&Type=search", "url2": "http://www.houseien.net/" }, "geometry": { "type": "Point", "coordinates": [ 130.568298669311503, 33.318438166933056 ] } },
{ "type": "Feature", "properties": { "内容": "特別養護老人ホーム陽だまりの樹【地域密着型介護老人福祉施設入所者生活介護】福岡県久留米市山本町豊田2352-1", "url": "https://www.kaigokensaku.mhlw.go.jp/40/index.php?action_kouhyou_detail_004_kani=true&JigyosyoCd=4091600801-00&ServiceCd=540&Type=search", "url2": "http://www.hazenomikai.or.jp/" }, "geometry": { "type": "Point", "coordinates": [ 130.595464, 33.3103327 ] } },
{ "type": "Feature", "properties": { "内容": "特別養護老人ホーム　久留米昌普久苑【地域密着型介護老人福祉施設入所者生活介護】福岡県久留米市上津町1890番地1", "url": "https://www.kaigokensaku.mhlw.go.jp/40/index.php?action_kouhyou_detail_004_kani=true&JigyosyoCd=4091601494-00&ServiceCd=540&Type=search", "url2": "https://kurumeshoufukuen.jp/" }, "geometry": { "type": "Point", "coordinates": [ 130.536954, 33.277027 ] } },
{ "type": "Feature", "properties": { "内容": "特別養護老人ホームコスモス【地域密着型介護老人福祉施設入所者生活介護】福岡県久留米市国分町1214-6", "url": "https://www.kaigokensaku.mhlw.go.jp/40/index.php?action_kouhyou_detail_004_kani=true&JigyosyoCd=4091601726-00&ServiceCd=540&Type=search", "url2": "cosmos-tokuyo@kind.oce.ne.jp" }, "geometry": { "type": "Point", "coordinates": [ 130.535622935439875, 33.299000466703525 ] } },
{ "type": "Feature", "properties": { "内容": "社会福祉法人　久英会　地域密着型特別養護老人ホーム　若久サテライトビレッジ【地域密着型介護老人福祉施設入所者生活介護】福岡県久留米市荒木町荒木１９８４番地１高良台シニアビレッジ", "url": "https://www.kaigokensaku.mhlw.go.jp/40/index.php?action_kouhyou_detail_004_kani=true&JigyosyoCd=4091600850-00&ServiceCd=540&Type=search", "url2": "https://www.kyueikai.jp" }, "geometry": { "type": "Point", "coordinates": [ 130.510055344874559, 33.263288059248204 ] } },
{ "type": "Feature", "properties": { "内容": "特別養護老人ホーム　ことぶきの森【地域密着型介護老人福祉施設入所者生活介護】福岡県飯塚市鯰田６９６－２１特別養護老人ホーム　ことぶきの森", "url": "https://www.kaigokensaku.mhlw.go.jp/40/index.php?action_kouhyou_detail_004_kani=true&JigyosyoCd=4091800245-00&ServiceCd=540&Type=search", "url2": "www.sayo-fukusikai.or.jp" }, "geometry": { "type": "Point", "coordinates": [ 130.706843599999956, 33.6638748 ] } },
{ "type": "Feature", "properties": { "内容": "特別養護老人ホーム　わかつき菰田【地域密着型介護老人福祉施設入所者生活介護】福岡県飯塚市菰田115番地2", "url": "https://www.kaigokensaku.mhlw.go.jp/40/index.php?action_kouhyou_detail_004_kani=true&JigyosyoCd=4091800229-00&ServiceCd=540&Type=search", "url2": "http://www.fcom.ne.jp/mem/fureai-h" }, "geometry": { "type": "Point", "coordinates": [ 130.690989899999977, 33.6261013 ] } },
{ "type": "Feature", "properties": { "内容": "特別養護老人ホーム　ありあけ園（ユニット型）【地域密着型介護老人福祉施設入所者生活介護】福岡県柳川市三橋町五拾町547番地", "url": "https://www.kaigokensaku.mhlw.go.jp/40/index.php?action_kouhyou_detail_004_kani=true&JigyosyoCd=4092000126-00&ServiceCd=540&Type=search", "url2": "http://ariakeen.or.jp" }, "geometry": { "type": "Point", "coordinates": [ 130.458298813193522, 33.15570915862348 ] } },
{ "type": "Feature", "properties": { "内容": "地域密着型特別養護老人ホーム明笑園【地域密着型介護老人福祉施設入所者生活介護】福岡県筑後市大字鶴田606番地", "url": "https://www.kaigokensaku.mhlw.go.jp/40/index.php?action_kouhyou_detail_004_kani=true&JigyosyoCd=4092400110-00&ServiceCd=540&Type=search", "url2": "https://kourinfukushi.or.jp" }, "geometry": { "type": "Point", "coordinates": [ 130.503713132402027, 33.193692233842583 ] } },
{ "type": "Feature", "properties": { "内容": "特別養護老人ホーム　おおはし苑【地域密着型介護老人福祉施設入所者生活介護】東大橋４丁目２－５201～229", "url": "https://www.kaigokensaku.mhlw.go.jp/40/index.php?action_kouhyou_detail_004_kani=true&JigyosyoCd=4092600131-00&ServiceCd=540&Type=search", "url2": "http://www.kouwaen.or.jp/" }, "geometry": { "type": "Point", "coordinates": [ 130.990635500000053, 33.7388664 ] } },
{ "type": "Feature", "properties": { "内容": "介護老人福祉施設ほのぼの【地域密着型介護老人福祉施設入所者生活介護】福岡県中間市大字垣生890番地8", "url": "https://www.kaigokensaku.mhlw.go.jp/40/index.php?action_kouhyou_detail_004_kani=true&JigyosyoCd=4092800095-00&ServiceCd=540&Type=search", "url2": "http://minnanoiekaihonobono.mints.ne.jp" }, "geometry": { "type": "Point", "coordinates": [ 130.701927500000011, 33.8190715 ] } },
{ "type": "Feature", "properties": { "内容": "地域密着型特別養護老人ホーム弥生の里【地域密着型介護老人福祉施設入所者生活介護】福岡県小郡市山隈字弥八郎２７３番地の１", "url": "https://www.kaigokensaku.mhlw.go.jp/40/index.php?action_kouhyou_detail_004_kani=true&JigyosyoCd=4092900127-00&ServiceCd=540&Type=search", "url2": "https://wakakusa-kai.or.jp" }, "geometry": { "type": "Point", "coordinates": [ 130.5964624, 33.4084875 ] } },
{ "type": "Feature", "properties": { "内容": "特別養護老人ホームむさし苑地域密着型【地域密着型介護老人福祉施設入所者生活介護】湯町二丁目９番２号", "url": "https://www.kaigokensaku.mhlw.go.jp/40/index.php?action_kouhyou_detail_004_kani=true&JigyosyoCd=4093000117-00&ServiceCd=540&Type=search", "url2": "http://musashien.com/" }, "geometry": { "type": "Point", "coordinates": [ 130.515971199999967, 33.4906318 ] } },
{ "type": "Feature", "properties": { "内容": "地域密着型特別養護老人ホームたんたん【地域密着型介護老人福祉施設入所者生活介護】美咲1023番地2", "url": "https://www.kaigokensaku.mhlw.go.jp/40/index.php?action_kouhyou_detail_004_kani=true&JigyosyoCd=4093000158-00&ServiceCd=540&Type=search", "url2": "http://www.tantan.life" }, "geometry": { "type": "Point", "coordinates": [ 130.560782900000049, 33.4622178 ] } },
{ "type": "Feature", "properties": { "内容": "特別養護老人ホーム桜ヶ丘【地域密着型介護老人福祉施設入所者生活介護】福岡県春日市桜ケ丘４丁目２８番地１特別養護老人ホーム桜ヶ丘", "url": "https://www.kaigokensaku.mhlw.go.jp/40/index.php?action_kouhyou_detail_004_kani=true&JigyosyoCd=4093100198-00&ServiceCd=540&Type=search", "url2": "http://www.tokuwa.net/" }, "geometry": { "type": "Point", "coordinates": [ 130.448768199999989, 33.5438396 ] } },
{ "type": "Feature", "properties": { "内容": "特別養護老人ホーム　悠生園ユニット【地域密着型介護老人福祉施設入所者生活介護】福岡県大野城市中2丁目5番5号", "url": "https://www.kaigokensaku.mhlw.go.jp/40/index.php?action_kouhyou_detail_004_kani=true&JigyosyoCd=4093200196-00&ServiceCd=540&Type=search", "url2": "http://www.yuseikai.jp" }, "geometry": { "type": "Point", "coordinates": [ 130.483032200000054, 33.5515942 ] } },
{ "type": "Feature", "properties": { "内容": "カーサフェリーチェ【地域密着型介護老人福祉施設入所者生活介護】福岡県宗像市東郷６丁目５番２４号", "url": "https://www.kaigokensaku.mhlw.go.jp/40/index.php?action_kouhyou_detail_004_kani=true&JigyosyoCd=4093300137-00&ServiceCd=540&Type=search", "url2": "http://marishi.or.jp/casa/" }, "geometry": { "type": "Point", "coordinates": [ 130.5394268, 33.8004041 ] } },
{ "type": "Feature", "properties": { "内容": "特別養護老人ホーム　宗像第二わかば苑【地域密着型介護老人福祉施設入所者生活介護】福岡県宗像市大井2065番地1特別養護老人ホーム宗像第二わかば苑", "url": "https://www.kaigokensaku.mhlw.go.jp/40/index.php?action_kouhyou_detail_004_kani=true&JigyosyoCd=4093300145-00&ServiceCd=540&Type=search", "url2": "www.hikari-fukushi.com/munakata_wakaba2/" }, "geometry": { "type": "Point", "coordinates": [ 130.513654535581992, 33.792934755527895 ] } },
{ "type": "Feature", "properties": { "内容": "地域密着型特別養護老人ホームあおぞら梅ヶ丘【地域密着型介護老人福祉施設入所者生活介護】福岡県太宰府市梅ヶ丘２丁目１５番３０号", "url": "https://www.kaigokensaku.mhlw.go.jp/40/index.php?action_kouhyou_detail_004_kani=true&JigyosyoCd=4093400085-00&ServiceCd=540&Type=search", "url2": "https://www.aozora-cg.com/" }, "geometry": { "type": "Point", "coordinates": [ 130.544660900000054, 33.4951589 ] } },
{ "type": "Feature", "properties": { "内容": "特別養護老人ホーム秋桜の郷【地域密着型介護老人福祉施設入所者生活介護】福岡県古賀市千鳥1丁目3番5号", "url": "https://www.kaigokensaku.mhlw.go.jp/40/index.php?action_kouhyou_detail_004_kani=true&JigyosyoCd=4093600072-00&ServiceCd=540&Type=search", "url2": "https://sites.google.com/view/seizankai/%E3%83%9B%E3%83%BC%E3%83%A0" }, "geometry": { "type": "Point", "coordinates": [ 130.472078600000032, 33.7400687 ] } },
{ "type": "Feature", "properties": { "内容": "地域密着型介護老人福祉施設清滝の郷【地域密着型介護老人福祉施設入所者生活介護】福岡県古賀市薦野1413番6", "url": "https://www.kaigokensaku.mhlw.go.jp/40/index.php?action_kouhyou_detail_004_kani=true&JigyosyoCd=4093600106-00&ServiceCd=540&Type=search", "url2": null }, "geometry": { "type": "Point", "coordinates": [ 130.5282526, 33.736247400000046 ] } },
{ "type": "Feature", "properties": { "内容": "地域密着型介護老人福祉施設けんじえん【地域密着型介護老人福祉施設入所者生活介護】福津市上西郷827番地の2", "url": "https://www.kaigokensaku.mhlw.go.jp/40/index.php?action_kouhyou_detail_004_kani=true&JigyosyoCd=4094500057-00&ServiceCd=540&Type=search", "url2": "http://www.kenjien.com/" }, "geometry": { "type": "Point", "coordinates": [ 130.5101694, 33.7582282 ] } },
{ "type": "Feature", "properties": { "内容": "地域密着型特別養護老人ホームユニットひまわり【地域密着型介護老人福祉施設入所者生活介護】福岡県嘉麻市馬見64番地2", "url": "https://www.kaigokensaku.mhlw.go.jp/40/index.php?action_kouhyou_detail_004_kani=true&JigyosyoCd=4092100074-00&ServiceCd=540&Type=search", "url2": "http,//www.himawarikai.net/" }, "geometry": { "type": "Point", "coordinates": [ 130.754119100000025, 33.5301257 ] } },
{ "type": "Feature", "properties": { "内容": "地域密着型介護老人福祉施設瑞梅苑【地域密着型介護老人福祉施設入所者生活介護】福岡県糸島市池田382-1", "url": "https://www.kaigokensaku.mhlw.go.jp/40/index.php?action_kouhyou_detail_004_kani=true&JigyosyoCd=4093500215-00&ServiceCd=540&Type=search", "url2": "https://itofukushikai.com" }, "geometry": { "type": "Point", "coordinates": [ 130.2322014, 33.5584599 ] } },
{ "type": "Feature", "properties": { "内容": "特別養護老人ホーム　はまぼう【地域密着型介護老人福祉施設入所者生活介護】福岡県糸島市二丈深江2291番地1特別養護老人ホーム　はまぼう", "url": "https://www.kaigokensaku.mhlw.go.jp/40/index.php?action_kouhyou_detail_004_kani=true&JigyosyoCd=4093500116-00&ServiceCd=540&Type=search", "url2": "http://nijoufukusikai.com/hamabou.html" }, "geometry": { "type": "Point", "coordinates": [ 130.132018614680447, 33.510175846935944 ] } },
{ "type": "Feature", "properties": { "内容": "特別養護老人ホーム　みなかぜ【地域密着型介護老人福祉施設入所者生活介護】福岡県糸島市南風台7丁目1番10号", "url": "https://www.kaigokensaku.mhlw.go.jp/40/index.php?action_kouhyou_detail_004_kani=true&JigyosyoCd=4093500124-00&ServiceCd=540&Type=search", "url2": "http://imayamakai.or.jp/juseien/" }, "geometry": { "type": "Point", "coordinates": [ 130.195692388499424, 33.548604702946527 ] } },
{ "type": "Feature", "properties": { "内容": "ねむのきユニット【地域密着型介護老人福祉施設入所者生活介護】福岡県那珂川市下梶原2丁目6番3号", "url": "https://www.kaigokensaku.mhlw.go.jp/40/index.php?action_kouhyou_detail_004_kani=true&JigyosyoCd=4093700088-00&ServiceCd=540&Type=search", "url2": "http://www.nakafuku.jp" }, "geometry": { "type": "Point", "coordinates": [ 130.4393374, 33.4997574 ] } },
{ "type": "Feature", "properties": { "内容": "地域密着型介護老人福祉施設　アネックス恵昭園【地域密着型介護老人福祉施設入所者生活介護】福岡県糟屋郡須恵町大字上須恵112-3特別養護老人ホーム　恵昭園", "url": "https://www.kaigokensaku.mhlw.go.jp/40/index.php?action_kouhyou_detail_004_kani=true&JigyosyoCd=4094100031-00&ServiceCd=540&Type=search", "url2": "http://www.keitokukai.jp/facility/keisyou_anex.php" }, "geometry": { "type": "Point", "coordinates": [ 130.522638896295149, 33.589331060004469 ] } },
{ "type": "Feature", "properties": { "内容": "特別養護老人ホーム　まつかぜ荘（ユニット型）【地域密着型介護老人福祉施設入所者生活介護】福岡県遠賀郡芦屋町緑ヶ丘2-2", "url": "https://www.kaigokensaku.mhlw.go.jp/40/index.php?action_kouhyou_detail_004_kani=true&JigyosyoCd=4094900034-00&ServiceCd=540&Type=search", "url2": null }, "geometry": { "type": "Point", "coordinates": [ 130.667228900000026, 33.8868015 ] } },
{ "type": "Feature", "properties": { "内容": "特別養護老人ホーム遠賀園（ユニット）【地域密着型介護老人福祉施設入所者生活介護】福岡県遠賀郡遠賀町浅木3-18-1", "url": "https://www.kaigokensaku.mhlw.go.jp/40/index.php?action_kouhyou_detail_004_kani=true&JigyosyoCd=4095200020-00&ServiceCd=540&Type=search", "url2": "http://ongaen.net/" }, "geometry": { "type": "Point", "coordinates": [ 130.667205200000012, 33.8256312 ] } },
{ "type": "Feature", "properties": { "内容": "いなみつ苑【地域密着型介護老人福祉施設入所者生活介護】福岡県京都郡苅田町大字稲光1236番地", "url": "https://www.kaigokensaku.mhlw.go.jp/40/index.php?action_kouhyou_detail_004_kani=true&JigyosyoCd=4098000039-00&ServiceCd=540&Type=search", "url2": "http://www.kouwaen.or.jp/" }, "geometry": { "type": "Point", "coordinates": [ 130.943127799999957, 33.7527224 ] } }
]
}
