{
"type": "FeatureCollection",
"name": "geo_40_認知症対応型通所介護",
"crs": { "type": "name", "properties": { "name": "urn:ogc:def:crs:OGC:1.3:CRS84" } },
"features": [
{ "type": "Feature", "properties": { "内容": "デイサービス　和喜愛々【認知症対応型通所介護】福岡県北九州市門司区谷町1-1-2", "url": "https://www.kaigokensaku.mhlw.go.jp/40/index.php?action_kouhyou_detail_004_kani=true&JigyosyoCd=4090100506-00&ServiceCd=720&Type=search", "url2": null }, "geometry": { "type": "Point", "coordinates": [ 130.975854199999986, 33.9432622 ] } },
{ "type": "Feature", "properties": { "内容": "日赤豊寿園デイサービスセンター【認知症対応型通所介護】大字畑1808-5", "url": "https://www.kaigokensaku.mhlw.go.jp/40/index.php?action_kouhyou_detail_004_kani=true&JigyosyoCd=4070100229-00&ServiceCd=720&Type=search", "url2": "http://nissekihoujuen.jp/" }, "geometry": { "type": "Point", "coordinates": [ 130.972243493254155, 33.876657860386111 ] } },
{ "type": "Feature", "properties": { "内容": "ケアハウス好日苑デイサービスセンター【認知症対応型通所介護】北九州市門司区大里戸ノ上４丁目１－４０", "url": "https://www.kaigokensaku.mhlw.go.jp/40/index.php?action_kouhyou_detail_004_kani=true&JigyosyoCd=4070101045-00&ServiceCd=720&Type=search", "url2": "https://www.koujitsuen.com" }, "geometry": { "type": "Point", "coordinates": [ 130.945790874205045, 33.903010648324923 ] } },
{ "type": "Feature", "properties": { "内容": "パムスケア門司【認知症対応型通所介護】福岡県北九州市門司区大里戸ノ上一丁目3番3号ルアーナ門司1階", "url": "https://www.kaigokensaku.mhlw.go.jp/40/index.php?action_kouhyou_detail_004_kani=true&JigyosyoCd=4090100514-00&ServiceCd=720&Type=search", "url2": "https://pamthcare-moji.localinfo.jp" }, "geometry": { "type": "Point", "coordinates": [ 130.936345100000011, 33.9065335 ] } },
{ "type": "Feature", "properties": { "内容": "認知症対応型通所介護　デイサービス　和ごころ【認知症対応型通所介護】北九州市門司区吉志5丁目7番52号", "url": "https://www.kaigokensaku.mhlw.go.jp/40/index.php?action_kouhyou_detail_004_kani=true&JigyosyoCd=4090100332-00&ServiceCd=720&Type=search", "url2": "http://www.torisu-hp.or.jp" }, "geometry": { "type": "Point", "coordinates": [ 130.960878800000046, 33.8656383 ] } },
{ "type": "Feature", "properties": { "内容": "デイサービスみろく【認知症対応型通所介護】福岡県北九州市門司区伊川1739-1", "url": "https://www.kaigokensaku.mhlw.go.jp/40/index.php?action_kouhyou_detail_004_kani=true&JigyosyoCd=4090100035-00&ServiceCd=720&Type=search", "url2": "https://www.miroku-fukushi-service.com" }, "geometry": { "type": "Point", "coordinates": [ 130.980112978218131, 33.902845479854435 ] } },
{ "type": "Feature", "properties": { "内容": "デイサービス　こころ【認知症対応型通所介護】福岡県北九州市若松区畠田３丁目７４９－１", "url": "https://www.kaigokensaku.mhlw.go.jp/40/index.php?action_kouhyou_detail_004_kani=true&JigyosyoCd=4090200017-00&ServiceCd=720&Type=search", "url2": null }, "geometry": { "type": "Point", "coordinates": [ 130.7413044, 33.9007327 ] } },
{ "type": "Feature", "properties": { "内容": "認知症型通所介護グループホーム大正館【認知症対応型通所介護】福岡県北九州市若松区花野路1-2-5", "url": "https://www.kaigokensaku.mhlw.go.jp/40/index.php?action_kouhyou_detail_004_kani=true&JigyosyoCd=4090200249-00&ServiceCd=720&Type=search", "url2": null }, "geometry": { "type": "Point", "coordinates": [ 130.682934299999943, 33.9073627 ] } },
{ "type": "Feature", "properties": { "内容": "デイサービスセンター　　ライフポート若松【認知症対応型通所介護】北九州市若松区藤ノ木２丁目１番２２号", "url": "https://www.kaigokensaku.mhlw.go.jp/40/index.php?action_kouhyou_detail_004_kani=true&JigyosyoCd=4070200227-00&ServiceCd=720&Type=search", "url2": "http://www.lifeport.or.jp" }, "geometry": { "type": "Point", "coordinates": [ 130.781265399999938, 33.89279 ] } },
{ "type": "Feature", "properties": { "内容": "こいしの郷【認知症対応型通所介護】原町８－２６", "url": "https://www.kaigokensaku.mhlw.go.jp/40/index.php?action_kouhyou_detail_004_kani=true&JigyosyoCd=4090200223-00&ServiceCd=720&Type=search", "url2": null }, "geometry": { "type": "Point", "coordinates": [ 139.627836, 35.4164086 ] } },
{ "type": "Feature", "properties": { "内容": "デイサービス　みのり【認知症対応型通所介護】福岡県北九州市若松区栄盛川１１－１５", "url": "https://www.kaigokensaku.mhlw.go.jp/40/index.php?action_kouhyou_detail_004_kani=true&JigyosyoCd=4090200033-00&ServiceCd=720&Type=search", "url2": "http://www.yoshino-zaitaku.com" }, "geometry": { "type": "Point", "coordinates": [ 130.7987746, 33.9106884 ] } },
{ "type": "Feature", "properties": { "内容": "ひまわり通所介護サービス【認知症対応型通所介護】福岡県北九州市若松区畑谷町７－４３", "url": "https://www.kaigokensaku.mhlw.go.jp/40/index.php?action_kouhyou_detail_004_kani=true&JigyosyoCd=4070200920-00&ServiceCd=720&Type=search", "url2": null }, "geometry": { "type": "Point", "coordinates": [ 130.793108399999937, 33.9039779 ] } },
{ "type": "Feature", "properties": { "内容": "こいしの郷【認知症対応型通所介護】福岡県北九州市若松区原町8番26号", "url": "https://www.kaigokensaku.mhlw.go.jp/40/index.php?action_kouhyou_detail_004_kani=true&JigyosyoCd=4090200348-00&ServiceCd=720&Type=search", "url2": "https://koishinosato.jp/" }, "geometry": { "type": "Point", "coordinates": [ 130.793669381614677, 33.916369331557377 ] } },
{ "type": "Feature", "properties": { "内容": "デイサービスＳＵＮ戸畑【認知症対応型通所介護】北九州市戸畑区菅原三丁目8番17号", "url": "https://www.kaigokensaku.mhlw.go.jp/40/index.php?action_kouhyou_detail_004_kani=true&JigyosyoCd=4090300221-00&ServiceCd=720&Type=search", "url2": "https://sun-tobata.com" }, "geometry": { "type": "Point", "coordinates": [ 130.8294761, 33.8847474 ] } },
{ "type": "Feature", "properties": { "内容": "デイサービス笑和【認知症対応型通所介護】福岡県北九州市小倉北区泉台二丁目7番19号", "url": "https://www.kaigokensaku.mhlw.go.jp/40/index.php?action_kouhyou_detail_004_kani=true&JigyosyoCd=4090400591-00&ServiceCd=720&Type=search", "url2": null }, "geometry": { "type": "Point", "coordinates": [ 130.849143700000013, 33.8665734 ] } },
{ "type": "Feature", "properties": { "内容": "社会福祉法人愛香会　デイサービスセンター愛香苑　認知症対応型【認知症対応型通所介護】北九州市小倉北区鋳物師町9番21号", "url": "https://www.kaigokensaku.mhlw.go.jp/40/index.php?action_kouhyou_detail_004_kani=true&JigyosyoCd=4070400660-00&ServiceCd=720&Type=search", "url2": "http:/www.aikouen-kitakyushu.com/imoji/" }, "geometry": { "type": "Point", "coordinates": [ 130.8655109, 33.8899501 ] } },
{ "type": "Feature", "properties": { "内容": "社会福祉法人一樹会　ハートフル片野デイサービスセンター【認知症対応型通所介護】福岡県北九州市小倉北区片野3丁目13-15", "url": "https://www.kaigokensaku.mhlw.go.jp/40/index.php?action_kouhyou_detail_004_kani=true&JigyosyoCd=4090400013-00&ServiceCd=720&Type=search", "url2": "https://www.heartful-katano.jp/" }, "geometry": { "type": "Point", "coordinates": [ 130.881460699999934, 33.8663666 ] } },
{ "type": "Feature", "properties": { "内容": "りぼん・りぼん【認知症対応型通所介護】北九州市小倉北区宇佐町二丁目５番17号", "url": "https://www.kaigokensaku.mhlw.go.jp/40/index.php?action_kouhyou_detail_004_kani=true&JigyosyoCd=4090400021-00&ServiceCd=720&Type=search", "url2": "http//www.reborn-liveon.jp/" }, "geometry": { "type": "Point", "coordinates": [ 130.893670499999985, 33.8754547 ] } },
{ "type": "Feature", "properties": { "内容": "デイサービスセンター貫の里【認知症対応型通所介護】福岡県北九州市小倉南区大字貫1866番地の2", "url": "https://www.kaigokensaku.mhlw.go.jp/40/index.php?action_kouhyou_detail_004_kani=true&JigyosyoCd=4090500051-00&ServiceCd=720&Type=search", "url2": "info@shibatsunosato.com" }, "geometry": { "type": "Point", "coordinates": [ 130.921183299999939, 33.8032974 ] } },
{ "type": "Feature", "properties": { "内容": "ふれあい家族デイサービスセンター徳吉【認知症対応型通所介護】福岡県北九州市小倉南区徳吉西2-9-1", "url": "https://www.kaigokensaku.mhlw.go.jp/40/index.php?action_kouhyou_detail_004_kani=true&JigyosyoCd=4090500077-00&ServiceCd=720&Type=search", "url2": "http://fureai-web.net" }, "geometry": { "type": "Point", "coordinates": [ 130.853009008598292, 33.820300133855959 ] } },
{ "type": "Feature", "properties": { "内容": "ふれあい家族デイサービスセンター桜橋【認知症対応型通所介護】福岡県北九州市小倉南区徳力7丁目18番8号", "url": "https://www.kaigokensaku.mhlw.go.jp/40/index.php?action_kouhyou_detail_004_kani=true&JigyosyoCd=4090500150-00&ServiceCd=720&Type=search", "url2": "http://fureai-web.net" }, "geometry": { "type": "Point", "coordinates": [ 130.8634214, 33.8219164 ] } },
{ "type": "Feature", "properties": { "内容": "デイサービスモンテラッセ【認知症対応型通所介護】福岡県北九州市小倉南区蒲生2丁目4-11", "url": "https://www.kaigokensaku.mhlw.go.jp/40/index.php?action_kouhyou_detail_004_kani=true&JigyosyoCd=4090500440-00&ServiceCd=720&Type=search", "url2": "http://monatelier.jp/monterrasse/" }, "geometry": { "type": "Point", "coordinates": [ 130.865808600000037, 33.8451387 ] } },
{ "type": "Feature", "properties": { "内容": "ふらっとハウス【認知症対応型通所介護】福岡県北九州市小倉南区南方4-6-36", "url": "https://www.kaigokensaku.mhlw.go.jp/40/index.php?action_kouhyou_detail_004_kani=true&JigyosyoCd=4090500853-00&ServiceCd=720&Type=search", "url2": "https://100fuku.com" }, "geometry": { "type": "Point", "coordinates": [ 130.860655799999989, 33.8295545 ] } },
{ "type": "Feature", "properties": { "内容": "ひだまりデイサービス【認知症対応型通所介護】福岡県北九州市八幡西区浅川1-25-5ひだまり", "url": "https://www.kaigokensaku.mhlw.go.jp/40/index.php?action_kouhyou_detail_004_kani=true&JigyosyoCd=4090700941-00&ServiceCd=720&Type=search", "url2": "https://kenkou-s-c.com" }, "geometry": { "type": "Point", "coordinates": [ 130.702215599999988, 33.8776866 ] } },
{ "type": "Feature", "properties": { "内容": "デイサービス　はる【認知症対応型通所介護】福岡県北九州市八幡西区塔野二丁目８番１９号", "url": "https://www.kaigokensaku.mhlw.go.jp/40/index.php?action_kouhyou_detail_004_kani=true&JigyosyoCd=4090701105-00&ServiceCd=720&Type=search", "url2": null }, "geometry": { "type": "Point", "coordinates": [ 130.736310300000014, 33.822862 ] } },
{ "type": "Feature", "properties": { "内容": "グローバルケア　デイサービス森の家１【認知症対応型通所介護】福岡県北九州市八幡西区大膳二丁目21-21", "url": "https://www.kaigokensaku.mhlw.go.jp/40/index.php?action_kouhyou_detail_004_kani=true&JigyosyoCd=4090700529-00&ServiceCd=720&Type=search", "url2": "www.gl-care.org" }, "geometry": { "type": "Point", "coordinates": [ 130.707998099999941, 33.854559100000017 ] } },
{ "type": "Feature", "properties": { "内容": "グローバルケアデイサービス森の家【認知症対応型通所介護】福岡県北九州市八幡西区大膳二丁目21-31", "url": "https://www.kaigokensaku.mhlw.go.jp/40/index.php?action_kouhyou_detail_004_kani=true&JigyosyoCd=4090700511-00&ServiceCd=720&Type=search", "url2": "www.gl-care.org" }, "geometry": { "type": "Point", "coordinates": [ 130.7083953, 33.8545619 ] } },
{ "type": "Feature", "properties": { "内容": "グローバルケア　デイサービス森の家２【認知症対応型通所介護】福岡県北九州市八幡西区大膳二丁目21-21", "url": "https://www.kaigokensaku.mhlw.go.jp/40/index.php?action_kouhyou_detail_004_kani=true&JigyosyoCd=4090700537-00&ServiceCd=720&Type=search", "url2": "http://www/gl-care.org/" }, "geometry": { "type": "Point", "coordinates": [ 130.707998099999941, 33.854559100000017 ] } },
{ "type": "Feature", "properties": { "内容": "グローバルケア　デイサービス森の家３【認知症対応型通所介護】福岡県北九州市八幡西区大膳二丁目21-21", "url": "https://www.kaigokensaku.mhlw.go.jp/40/index.php?action_kouhyou_detail_004_kani=true&JigyosyoCd=4090700545-00&ServiceCd=720&Type=search", "url2": "http://www/gl-care.org/" }, "geometry": { "type": "Point", "coordinates": [ 130.707998099999941, 33.854559100000017 ] } },
{ "type": "Feature", "properties": { "内容": "あおぞらの里　鳴水デイサービスセンター【認知症対応型通所介護】福岡県北九州市八幡西区東鳴水３丁目６－１", "url": "https://www.kaigokensaku.mhlw.go.jp/40/index.php?action_kouhyou_detail_004_kani=true&JigyosyoCd=4090700198-00&ServiceCd=720&Type=search", "url2": "http://www.cedar-group.co.jp" }, "geometry": { "type": "Point", "coordinates": [ 130.769766133135278, 33.855019656005325 ] } },
{ "type": "Feature", "properties": { "内容": "デイサービス聖ヨゼフの園【認知症対応型通所介護】福岡県北九州市八幡西区鷹見台1丁目4－17」", "url": "https://www.kaigokensaku.mhlw.go.jp/40/index.php?action_kouhyou_detail_004_kani=true&JigyosyoCd=4090700610-00&ServiceCd=720&Type=search", "url2": "http://www.st-joseph.or.jp/" }, "geometry": { "type": "Point", "coordinates": [ 130.722044399999959, 33.8426692 ] } },
{ "type": "Feature", "properties": { "内容": "お里の家きらめき　本城【認知症対応型通所介護】福岡県北九州市八幡西区本城１－２０－２０", "url": "https://www.kaigokensaku.mhlw.go.jp/40/index.php?action_kouhyou_detail_004_kani=true&JigyosyoCd=4090700487-00&ServiceCd=720&Type=search", "url2": null }, "geometry": { "type": "Point", "coordinates": [ 130.72893887758255, 33.881950943205048 ] } },
{ "type": "Feature", "properties": { "内容": "あすなろ館デイサービス【認知症対応型通所介護】福岡県北九州市八幡西区則松4丁目21-3", "url": "https://www.kaigokensaku.mhlw.go.jp/40/index.php?action_kouhyou_detail_004_kani=true&JigyosyoCd=4090700750-00&ServiceCd=720&Type=search", "url2": "nt92r7@bma.biglobe.ne.jp" }, "geometry": { "type": "Point", "coordinates": [ 130.719033099999933, 33.8571646 ] } },
{ "type": "Feature", "properties": { "内容": "ケアリングデイサービス　さらくら【認知症対応型通所介護】福岡県北九州市八幡西区八千代町9-30", "url": "https://www.kaigokensaku.mhlw.go.jp/40/index.php?action_kouhyou_detail_004_kani=true&JigyosyoCd=4090700909-00&ServiceCd=720&Type=search", "url2": "http:www.caring。jp" }, "geometry": { "type": "Point", "coordinates": [ 130.7739752, 33.863365400000021 ] } },
{ "type": "Feature", "properties": { "内容": "お里の家きらめき　養福寺【認知症対応型通所介護】福岡県北九州市八幡西区養福寺町４－２０", "url": "https://www.kaigokensaku.mhlw.go.jp/40/index.php?action_kouhyou_detail_004_kani=true&JigyosyoCd=4090700479-00&ServiceCd=720&Type=search", "url2": null }, "geometry": { "type": "Point", "coordinates": [ 130.750519599999961, 33.8420841 ] } },
{ "type": "Feature", "properties": { "内容": "デイサービス　いやし屋本舗【認知症対応型通所介護】福岡市東区土井1-25-7　ケアレジデンス青葉１階ケアレジデンス青葉", "url": "https://www.kaigokensaku.mhlw.go.jp/40/index.php?action_kouhyou_detail_004_kani=true&JigyosyoCd=4090800352-00&ServiceCd=720&Type=search", "url2": "https://www.dandm.co.jp" }, "geometry": { "type": "Point", "coordinates": [ 130.465139099999988, 33.6358075 ] } },
{ "type": "Feature", "properties": { "内容": "認知症デイサービス香椎下原【認知症対応型通所介護】福岡県福岡市東区下原２丁目15番31号", "url": "https://www.kaigokensaku.mhlw.go.jp/40/index.php?action_kouhyou_detail_004_kani=true&JigyosyoCd=4090800725-00&ServiceCd=720&Type=search", "url2": null }, "geometry": { "type": "Point", "coordinates": [ 130.457913994442748, 33.669873348406995 ] } },
{ "type": "Feature", "properties": { "内容": "共用型デイサービス楽園【認知症対応型通所介護】福岡市東区志賀島1735-153", "url": "https://www.kaigokensaku.mhlw.go.jp/40/index.php?action_kouhyou_detail_004_kani=true&JigyosyoCd=4090800964-00&ServiceCd=720&Type=search", "url2": "https://www.rakuen-fukushi.com/" }, "geometry": { "type": "Point", "coordinates": [ 130.3084287, 33.6602339 ] } },
{ "type": "Feature", "properties": { "内容": "いきいき八田デイサービスゆとり【認知症対応型通所介護】福岡市東区八田1-4-15", "url": "https://www.kaigokensaku.mhlw.go.jp/40/index.php?action_kouhyou_detail_004_kani=true&JigyosyoCd=4090800063-00&ServiceCd=720&Type=search", "url2": "http//chidorifukushi.jp" }, "geometry": { "type": "Point", "coordinates": [ 130.457179900000028, 33.6331679 ] } },
{ "type": "Feature", "properties": { "内容": "デイサービスセンター　わ音　奈多【認知症対応型通所介護】奈多1-10-10", "url": "https://www.kaigokensaku.mhlw.go.jp/40/index.php?action_kouhyou_detail_004_kani=true&JigyosyoCd=4090800147-00&ServiceCd=720&Type=search", "url2": null }, "geometry": { "type": "Point", "coordinates": [ 130.415477099999947, 33.6890879 ] } },
{ "type": "Feature", "properties": { "内容": "ことのわ【認知症対応型通所介護】福岡県福岡市東区若宮4丁目8-24", "url": "https://www.kaigokensaku.mhlw.go.jp/40/index.php?action_kouhyou_detail_004_kani=true&JigyosyoCd=4090800626-00&ServiceCd=720&Type=search", "url2": "https://www.livingscape.co.jp" }, "geometry": { "type": "Point", "coordinates": [ 130.444968199999977, 33.6416555 ] } },
{ "type": "Feature", "properties": { "内容": "デイサービスセンター　わ音　美和台【認知症対応型通所介護】福岡市東区美和台3-4-1", "url": "https://www.kaigokensaku.mhlw.go.jp/40/index.php?action_kouhyou_detail_004_kani=true&JigyosyoCd=4090800857-00&ServiceCd=720&Type=search", "url2": "https://www.ikigaidukuri.com" }, "geometry": { "type": "Point", "coordinates": [ 130.42379, 33.702144 ] } },
{ "type": "Feature", "properties": { "内容": "デイサービスウィズライフ奈良屋【認知症対応型通所介護】福岡県福岡市博多区奈良屋町8-19", "url": "https://www.kaigokensaku.mhlw.go.jp/40/index.php?action_kouhyou_detail_004_kani=true&JigyosyoCd=4090900269-00&ServiceCd=720&Type=search", "url2": "https://www.with-g.com" }, "geometry": { "type": "Point", "coordinates": [ 130.4056074, 33.5997705 ] } },
{ "type": "Feature", "properties": { "内容": "デイサービスセンターたのしい家博多【認知症対応型通所介護】福岡市博多区堅粕３丁目５番５号", "url": "https://www.kaigokensaku.mhlw.go.jp/40/index.php?action_kouhyou_detail_004_kani=true&JigyosyoCd=4090900038-00&ServiceCd=720&Type=search", "url2": null }, "geometry": { "type": "Point", "coordinates": [ 130.422580299999936, 33.5968545 ] } },
{ "type": "Feature", "properties": { "内容": "デイサービス　アート園【認知症対応型通所介護】福岡県福岡市博多区浦田１丁目１２番１２号", "url": "https://www.kaigokensaku.mhlw.go.jp/40/index.php?action_kouhyou_detail_004_kani=true&JigyosyoCd=4090900467-00&ServiceCd=720&Type=search", "url2": "https://art-enn.jp/" }, "geometry": { "type": "Point", "coordinates": [ 130.4784621, 33.575269 ] } },
{ "type": "Feature", "properties": { "内容": "宅老所よりあい【認知症対応型通所介護】福岡県福岡市中央区地行1-15-14", "url": "https://www.kaigokensaku.mhlw.go.jp/40/index.php?action_kouhyou_detail_004_kani=true&JigyosyoCd=4091000176-00&ServiceCd=720&Type=search", "url2": "yoriainomori.com" }, "geometry": { "type": "Point", "coordinates": [ 130.3680802, 33.5906254 ] } },
{ "type": "Feature", "properties": { "内容": "ポジティブリーケア若久【認知症対応型通所介護】福岡県福岡市南区若久４丁目８番１３号ポジティブリーケア若久", "url": "https://www.kaigokensaku.mhlw.go.jp/40/index.php?action_kouhyou_detail_004_kani=true&JigyosyoCd=4091100794-00&ServiceCd=720&Type=search", "url2": "realize-corp.com" }, "geometry": { "type": "Point", "coordinates": [ 130.4116989, 33.5521511 ] } },
{ "type": "Feature", "properties": { "内容": "奏【認知症対応型通所介護】大楠２丁目１５番２８号ものわすれメンタルクリニック・４階", "url": "https://www.kaigokensaku.mhlw.go.jp/40/index.php?action_kouhyou_detail_004_kani=true&JigyosyoCd=4091100281-00&ServiceCd=720&Type=search", "url2": "http://www.monowasure-mc.dr-clinic.jp/" }, "geometry": { "type": "Point", "coordinates": [ 130.409831769218954, 33.572610220191123 ] } },
{ "type": "Feature", "properties": { "内容": "第2宅老所よりあい【認知症対応型通所介護】桧原2丁目23－14", "url": "https://www.kaigokensaku.mhlw.go.jp/40/index.php?action_kouhyou_detail_004_kani=true&JigyosyoCd=4091100588-00&ServiceCd=720&Type=search", "url2": "http:yoriainomori.com" }, "geometry": { "type": "Point", "coordinates": [ 130.396336600000012, 33.5388777 ] } },
{ "type": "Feature", "properties": { "内容": "共用型デイサービスウェルビー西浦【認知症対応型通所介護】福岡県福岡市西区大字西浦字川フケ1038番地1", "url": "https://www.kaigokensaku.mhlw.go.jp/40/index.php?action_kouhyou_detail_004_kani=true&JigyosyoCd=4091200289-00&ServiceCd=720&Type=search", "url2": null }, "geometry": { "type": "Point", "coordinates": [ 130.212296093195164, 33.650442579920238 ] } },
{ "type": "Feature", "properties": { "内容": "ドリームケア石丸【認知症対応型通所介護】福岡市西区石丸3-7-31ドリームステイはばたき1階", "url": "https://www.kaigokensaku.mhlw.go.jp/40/index.php?action_kouhyou_detail_004_kani=true&JigyosyoCd=4071201448-00&ServiceCd=720&Type=search", "url2": "http://www.hakujyujikai.or.jp/hakyujyuji" }, "geometry": { "type": "Point", "coordinates": [ 130.314818135334832, 33.573980857745482 ] } },
{ "type": "Feature", "properties": { "内容": "共有型デイサービス花安養【認知症対応型通所介護】福岡県福岡市西区下山門2丁目16番15号グループホーム花安養", "url": "https://www.kaigokensaku.mhlw.go.jp/40/index.php?action_kouhyou_detail_004_kani=true&JigyosyoCd=4091200610-00&ServiceCd=720&Type=search", "url2": "http://www.fcs.or.jp/" }, "geometry": { "type": "Point", "coordinates": [ 130.3124224, 33.5826147 ] } },
{ "type": "Feature", "properties": { "内容": "宅老所　たのしか荘【認知症対応型通所介護】福岡市城南区梅林5-52-10", "url": "https://www.kaigokensaku.mhlw.go.jp/40/index.php?action_kouhyou_detail_004_kani=true&JigyosyoCd=4071400552-00&ServiceCd=720&Type=search", "url2": "http://www.fukushiseikyou.jp/" }, "geometry": { "type": "Point", "coordinates": [ 130.349153900000033, 33.5448255 ] } },
{ "type": "Feature", "properties": { "内容": "デイサービス　ウィズライフ西新【認知症対応型通所介護】福岡市早良区城西2-9-18", "url": "https://www.kaigokensaku.mhlw.go.jp/40/index.php?action_kouhyou_detail_004_kani=true&JigyosyoCd=4091400335-00&ServiceCd=720&Type=search", "url2": "http://www.with-g.com/" }, "geometry": { "type": "Point", "coordinates": [ 130.3631991, 33.5802146 ] } },
{ "type": "Feature", "properties": { "内容": "デイサービスセンター善哉【認知症対応型通所介護】福岡市早良区干隈4丁目10番12号", "url": "https://www.kaigokensaku.mhlw.go.jp/40/index.php?action_kouhyou_detail_004_kani=true&JigyosyoCd=4091400178-00&ServiceCd=720&Type=search", "url2": "https://seiwakai-care.jp/" }, "geometry": { "type": "Point", "coordinates": [ 130.348942500000021, 33.5555271 ] } },
{ "type": "Feature", "properties": { "内容": "認知症対応型通所介護ぷらいえ【認知症対応型通所介護】大字田隈820-1", "url": "https://www.kaigokensaku.mhlw.go.jp/40/index.php?action_kouhyou_detail_004_kani=true&JigyosyoCd=4091500753-00&ServiceCd=720&Type=search", "url2": null }, "geometry": { "type": "Point", "coordinates": [ 130.465361300000012, 33.0576827 ] } },
{ "type": "Feature", "properties": { "内容": "認知症対応型デイサービス美さと【認知症対応型通所介護】大牟田市南船津町２丁目９番", "url": "https://www.kaigokensaku.mhlw.go.jp/40/index.php?action_kouhyou_detail_004_kani=true&JigyosyoCd=4091500258-00&ServiceCd=720&Type=search", "url2": "http://www.kenkougroup.or.jp" }, "geometry": { "type": "Point", "coordinates": [ 130.435746900000026, 33.0079805 ] } },
{ "type": "Feature", "properties": { "内容": "生活応援工房＆デイホーム　こころね【認知症対応型通所介護】福岡県大牟田市沖田町495", "url": "https://www.kaigokensaku.mhlw.go.jp/40/index.php?action_kouhyou_detail_004_kani=true&JigyosyoCd=4091500365-00&ServiceCd=720&Type=search", "url2": "http://www.sunfriends.net/" }, "geometry": { "type": "Point", "coordinates": [ 130.44825940000004, 33.0115195 ] } },
{ "type": "Feature", "properties": { "内容": "リハビリ特化型デイサービス　カラー【認知症対応型通所介護】福岡県大牟田市大黒町1丁目17番地", "url": "https://www.kaigokensaku.mhlw.go.jp/40/index.php?action_kouhyou_detail_004_kani=true&JigyosyoCd=4091500621-00&ServiceCd=720&Type=search", "url2": null }, "geometry": { "type": "Point", "coordinates": [ 130.448621807419499, 33.042784441764894 ] } },
{ "type": "Feature", "properties": { "内容": "ポジティブリーケア荒木【認知症対応型通所介護】福岡県久留米市荒木町荒木1972-18", "url": "https://www.kaigokensaku.mhlw.go.jp/40/index.php?action_kouhyou_detail_004_kani=true&JigyosyoCd=4091601866-00&ServiceCd=720&Type=search", "url2": "https://realize-corp.com/araki/" }, "geometry": { "type": "Point", "coordinates": [ 130.516477900000012, 33.2699174 ] } },
{ "type": "Feature", "properties": { "内容": "ポジティブリーケアはま【認知症対応型通所介護】福岡県久留米市城島町浜226-2", "url": "https://www.kaigokensaku.mhlw.go.jp/40/index.php?action_kouhyou_detail_004_kani=true&JigyosyoCd=4091601841-00&ServiceCd=720&Type=search", "url2": null }, "geometry": { "type": "Point", "coordinates": [ 130.4307241, 33.2670632 ] } },
{ "type": "Feature", "properties": { "内容": "ポジティブリーケアあおき【認知症対応型通所介護】福岡県久留米市城島町上青木262", "url": "https://www.kaigokensaku.mhlw.go.jp/40/index.php?action_kouhyou_detail_004_kani=true&JigyosyoCd=4091601858-00&ServiceCd=720&Type=search", "url2": null }, "geometry": { "type": "Point", "coordinates": [ 130.408559968939983, 33.243459525400723 ] } },
{ "type": "Feature", "properties": { "内容": "認知症対応型デイサービス　あじさい【認知症対応型通所介護】福岡県久留米市善導寺町飯田1393-10", "url": "https://www.kaigokensaku.mhlw.go.jp/40/index.php?action_kouhyou_detail_004_kani=true&JigyosyoCd=4091600348-00&ServiceCd=720&Type=search", "url2": "https://hijirikai.com/pages/22/" }, "geometry": { "type": "Point", "coordinates": [ 130.617214399999966, 33.325993 ] } },
{ "type": "Feature", "properties": { "内容": "宅老所輝晴【認知症対応型通所介護】福岡県久留米市高良内町2944-56", "url": "https://www.kaigokensaku.mhlw.go.jp/40/index.php?action_kouhyou_detail_004_kani=true&JigyosyoCd=4091601668-00&ServiceCd=720&Type=search", "url2": null }, "geometry": { "type": "Point", "coordinates": [ 130.5509568, 33.2887447 ] } },
{ "type": "Feature", "properties": { "内容": "グループホームじゅうれんデイサービス【認知症対応型通所介護】福岡県久留米市三潴町西牟田６５５７－８９", "url": "https://www.kaigokensaku.mhlw.go.jp/40/index.php?action_kouhyou_detail_004_kani=true&JigyosyoCd=4078000108-00&ServiceCd=720&Type=search", "url2": null }, "geometry": { "type": "Point", "coordinates": [ 130.487984500000039, 33.2523089 ] } },
{ "type": "Feature", "properties": { "内容": "デイサービスセンター　大城の里【認知症対応型通所介護】福岡県久留米市北野町乙丸3-5", "url": "https://www.kaigokensaku.mhlw.go.jp/40/index.php?action_kouhyou_detail_004_kani=true&JigyosyoCd=4091600322-00&ServiceCd=720&Type=search", "url2": "http://www.houseien.net/dayohkinosato.html" }, "geometry": { "type": "Point", "coordinates": [ 130.6091285, 33.3510516 ] } },
{ "type": "Feature", "properties": { "内容": "デイサービスはたさき【認知症対応型通所介護】福岡県久留米市御井旗崎3-7-2", "url": "https://www.kaigokensaku.mhlw.go.jp/40/index.php?action_kouhyou_detail_004_kani=true&JigyosyoCd=4091601569-00&ServiceCd=720&Type=search", "url2": null }, "geometry": { "type": "Point", "coordinates": [ 130.5612787, 33.3162441 ] } },
{ "type": "Feature", "properties": { "内容": "ほのぼのデイサービスセンター【認知症対応型通所介護】福岡県久留米市城島町江上６５９－１", "url": "https://www.kaigokensaku.mhlw.go.jp/40/index.php?action_kouhyou_detail_004_kani=true&JigyosyoCd=4091600330-00&ServiceCd=720&Type=search", "url2": "https://honobonolife.net/" }, "geometry": { "type": "Point", "coordinates": [ 130.4358661, 33.2293356 ] } },
{ "type": "Feature", "properties": { "内容": "グループホームみんなの家【認知症対応型通所介護】福岡県直方市大字上頓野3635番地１", "url": "https://www.kaigokensaku.mhlw.go.jp/40/index.php?action_kouhyou_detail_004_kani=true&JigyosyoCd=4091700072-00&ServiceCd=720&Type=search", "url2": null }, "geometry": { "type": "Point", "coordinates": [ 130.783246500000018, 33.7738478 ] } },
{ "type": "Feature", "properties": { "内容": "ﾃﾞｲｻｰﾋﾞｽ　ゆみ【認知症対応型通所介護】福岡県飯塚市上三緒599番地1ＩＭビル", "url": "https://www.kaigokensaku.mhlw.go.jp/40/index.php?action_kouhyou_detail_004_kani=true&JigyosyoCd=4091800252-00&ServiceCd=720&Type=search", "url2": null }, "geometry": { "type": "Point", "coordinates": [ 130.712938200000053, 33.6282483 ] } },
{ "type": "Feature", "properties": { "内容": "特定非営利活動法人ちくほう結デイサービス永遠の家【認知症対応型通所介護】福岡県田川市大字糒2156番地1", "url": "https://www.kaigokensaku.mhlw.go.jp/40/index.php?action_kouhyou_detail_004_kani=true&JigyosyoCd=4091900037-00&ServiceCd=720&Type=search", "url2": "http://www.chikuhouyui.com/" }, "geometry": { "type": "Point", "coordinates": [ 130.795747099999971, 33.6621276 ] } },
{ "type": "Feature", "properties": { "内容": "暖家の丘位登デイサービスセンター【認知症対応型通所介護】福岡県田川市糒836番地2", "url": "https://www.kaigokensaku.mhlw.go.jp/40/index.php?action_kouhyou_detail_004_kani=true&JigyosyoCd=4071901302-00&ServiceCd=720&Type=search", "url2": null }, "geometry": { "type": "Point", "coordinates": [ 130.805984109709499, 33.657434400991875 ] } },
{ "type": "Feature", "properties": { "内容": "グループホーム桜の木デイサービス【認知症対応型通所介護】福岡県柳川市矢加部230番地の4", "url": "https://www.kaigokensaku.mhlw.go.jp/40/index.php?action_kouhyou_detail_004_kani=true&JigyosyoCd=4092000118-00&ServiceCd=720&Type=search", "url2": null }, "geometry": { "type": "Point", "coordinates": [ 130.415076799999952, 33.1819038 ] } },
{ "type": "Feature", "properties": { "内容": "デイサービスからたち【認知症対応型通所介護】福岡県柳川市下宮永町624-8クローバーハウス　1階", "url": "https://www.kaigokensaku.mhlw.go.jp/40/index.php?action_kouhyou_detail_004_kani=true&JigyosyoCd=4072000427-00&ServiceCd=720&Type=search", "url2": "http://www.seiwakai.info" }, "geometry": { "type": "Point", "coordinates": [ 130.401262827864116, 33.14298197537677 ] } },
{ "type": "Feature", "properties": { "内容": "医療法人　城戸医院　デイサービスけやき【認知症対応型通所介護】福岡県八女市室岡字中道1099-2", "url": "https://www.kaigokensaku.mhlw.go.jp/40/index.php?action_kouhyou_detail_004_kani=true&JigyosyoCd=4092300104-00&ServiceCd=720&Type=search", "url2": "kidoiin-keyaki@w4.dion.ne.jp" }, "geometry": { "type": "Point", "coordinates": [ 130.527913238623114, 33.216798171260407 ] } },
{ "type": "Feature", "properties": { "内容": "医療法人城戸医院　はなちゃんデイサービス【認知症対応型通所介護】福岡県八女市室岡中道1099番地2", "url": "https://www.kaigokensaku.mhlw.go.jp/40/index.php?action_kouhyou_detail_004_kani=true&JigyosyoCd=4092300310-00&ServiceCd=720&Type=search", "url2": null }, "geometry": { "type": "Point", "coordinates": [ 130.526703, 33.2156846 ] } },
{ "type": "Feature", "properties": { "内容": "ポジティブリーケア立花【認知症対応型通所介護】福岡県八女市立花町白木610-1", "url": "https://www.kaigokensaku.mhlw.go.jp/40/index.php?action_kouhyou_detail_004_kani=true&JigyosyoCd=4092300294-00&ServiceCd=720&Type=search", "url2": null }, "geometry": { "type": "Point", "coordinates": [ 130.561944509786997, 33.1628518 ] } },
{ "type": "Feature", "properties": { "内容": "医療法人　城戸医院　デイサービスぶどうの樹【認知症対応型通所介護】福岡県筑後市大字久富６６７－３", "url": "https://www.kaigokensaku.mhlw.go.jp/40/index.php?action_kouhyou_detail_004_kani=true&JigyosyoCd=4092400037-00&ServiceCd=720&Type=search", "url2": "kidoiin.jp/day_budou/" }, "geometry": { "type": "Point", "coordinates": [ 130.491838, 33.2172544 ] } },
{ "type": "Feature", "properties": { "内容": "医療法人　城戸医院　デイサービスぶどうの樹六角堂【認知症対応型通所介護】筑後市大字久富６６７－１", "url": "https://www.kaigokensaku.mhlw.go.jp/40/index.php?action_kouhyou_detail_004_kani=true&JigyosyoCd=4092400086-00&ServiceCd=720&Type=search", "url2": "http://kidoiin.jp/day_budou/" }, "geometry": { "type": "Point", "coordinates": [ 130.491838, 33.2172544 ] } },
{ "type": "Feature", "properties": { "内容": "デイサービスほうらい山田【認知症対応型通所介護】福岡県豊前市大字大村６番地１", "url": "https://www.kaigokensaku.mhlw.go.jp/40/index.php?action_kouhyou_detail_004_kani=true&JigyosyoCd=4092700089-00&ServiceCd=720&Type=search", "url2": null }, "geometry": { "type": "Point", "coordinates": [ 131.114977400000043, 33.6019945 ] } },
{ "type": "Feature", "properties": { "内容": "デイサービス　ほうらい今市【認知症対応型通所介護】福岡県豊前市大字今市１２２－２", "url": "https://www.kaigokensaku.mhlw.go.jp/40/index.php?action_kouhyou_detail_004_kani=true&JigyosyoCd=4092700048-00&ServiceCd=720&Type=search", "url2": "https://hourai-group.com" }, "geometry": { "type": "Point", "coordinates": [ 131.126373400000034, 33.6134022 ] } },
{ "type": "Feature", "properties": { "内容": "グループホーム風のふく丘【認知症対応型通所介護】小郡市干潟2061番地２", "url": "https://www.kaigokensaku.mhlw.go.jp/40/index.php?action_kouhyou_detail_004_kani=true&JigyosyoCd=4072900287-00&ServiceCd=720&Type=search", "url2": "fukuda@kazenofukuoka.jp" }, "geometry": { "type": "Point", "coordinates": [ 130.583049100000039, 33.4115725 ] } },
{ "type": "Feature", "properties": { "内容": "ポジティブリーケア永岡【認知症対応型通所介護】福岡県筑紫野市永岡1489-1", "url": "https://www.kaigokensaku.mhlw.go.jp/40/index.php?action_kouhyou_detail_004_kani=true&JigyosyoCd=4093000232-00&ServiceCd=720&Type=search", "url2": "https.//realize-corp.com" }, "geometry": { "type": "Point", "coordinates": [ 130.5374189, 33.4734063 ] } },
{ "type": "Feature", "properties": { "内容": "せいわデイサービスセンター日和【認知症対応型通所介護】福岡県筑紫野市大字西小田991番地の3", "url": "https://www.kaigokensaku.mhlw.go.jp/40/index.php?action_kouhyou_detail_004_kani=true&JigyosyoCd=4073000723-00&ServiceCd=720&Type=search", "url2": "www.seiwa-kai.com" }, "geometry": { "type": "Point", "coordinates": [ 130.567943600000035, 33.445411 ] } },
{ "type": "Feature", "properties": { "内容": "デイサービスセンター　陽だまり【認知症対応型通所介護】福岡県筑紫野市美しが丘南3-3-3", "url": "https://www.kaigokensaku.mhlw.go.jp/40/index.php?action_kouhyou_detail_004_kani=true&JigyosyoCd=4093000067-00&ServiceCd=720&Type=search", "url2": "http://homan.or.jp" }, "geometry": { "type": "Point", "coordinates": [ 130.552247500000021, 33.4456721 ] } },
{ "type": "Feature", "properties": { "内容": "デイサービスセンターゆう【認知症対応型通所介護】福岡県宗像市稲元5-2-2", "url": "https://www.kaigokensaku.mhlw.go.jp/40/index.php?action_kouhyou_detail_004_kani=true&JigyosyoCd=4093300087-00&ServiceCd=720&Type=search", "url2": ":http://www.kitatikuzen.net/" }, "geometry": { "type": "Point", "coordinates": [ 130.557808099999988, 33.815764 ] } },
{ "type": "Feature", "properties": { "内容": "デイサービスセンター菜々【認知症対応型通所介護】福岡県福津市勝浦3515番地", "url": "https://www.kaigokensaku.mhlw.go.jp/40/index.php?action_kouhyou_detail_004_kani=true&JigyosyoCd=4094500073-00&ServiceCd=720&Type=search", "url2": "http://kitatikuzen.net/home_nana.html" }, "geometry": { "type": "Point", "coordinates": [ 130.489041281398045, 33.823200875216273 ] } },
{ "type": "Feature", "properties": { "内容": "医療法人聖峰会　認知症対応型通所介護　さくらデイサービスうきは【認知症対応型通所介護】福岡県うきは市浮羽町浮羽433-7", "url": "https://www.kaigokensaku.mhlw.go.jp/40/index.php?action_kouhyou_detail_004_kani=true&JigyosyoCd=4077300202-00&ServiceCd=720&Type=search", "url2": "sakura-ukiha@seihoukai.or.jp" }, "geometry": { "type": "Point", "coordinates": [ 130.7795744, 33.3343572 ] } },
{ "type": "Feature", "properties": { "内容": "有限会社　栄野会【認知症対応型通所介護】福岡県宮若市磯光1713-45", "url": "https://www.kaigokensaku.mhlw.go.jp/40/index.php?action_kouhyou_detail_004_kani=true&JigyosyoCd=4095500064-00&ServiceCd=720&Type=search", "url2": "G.kanae1157@gmail.com" }, "geometry": { "type": "Point", "coordinates": [ 130.6817965, 33.7020169 ] } },
{ "type": "Feature", "properties": { "内容": "認知症対応型通所介護　木蓮の家【認知症対応型通所介護】福岡県宮若市長井鶴２６３－７", "url": "https://www.kaigokensaku.mhlw.go.jp/40/index.php?action_kouhyou_detail_004_kani=true&JigyosyoCd=4095500031-00&ServiceCd=720&Type=search", "url2": null }, "geometry": { "type": "Point", "coordinates": [ 130.655011100000024, 33.7309471 ] } },
{ "type": "Feature", "properties": { "内容": "ほがらかデイサービスアルファ俊聖【認知症対応型通所介護】福岡県朝倉市甘木1175-20", "url": "https://www.kaigokensaku.mhlw.go.jp/40/index.php?action_kouhyou_detail_004_kani=true&JigyosyoCd=4092200049-00&ServiceCd=720&Type=search", "url2": "htt//www.amagichuuou-hp.jp" }, "geometry": { "type": "Point", "coordinates": [ 130.658325454631012, 33.416794143985285 ] } },
{ "type": "Feature", "properties": { "内容": "グループホーム陽だまり【認知症対応型通所介護】福岡県みやま市瀬高町下庄480-3", "url": "https://www.kaigokensaku.mhlw.go.jp/40/index.php?action_kouhyou_detail_004_kani=true&JigyosyoCd=4098700174-00&ServiceCd=720&Type=search", "url2": null }, "geometry": { "type": "Point", "coordinates": [ 130.4745963, 33.1471935 ] } },
{ "type": "Feature", "properties": { "内容": "グループホーム「やまびこ」【認知症対応型通所介護】福岡県みやま市山川町河原内１２２４番地", "url": "https://www.kaigokensaku.mhlw.go.jp/40/index.php?action_kouhyou_detail_004_kani=true&JigyosyoCd=4098700042-00&ServiceCd=720&Type=search", "url2": "https://www.yamabiko-care.com/" }, "geometry": { "type": "Point", "coordinates": [ 130.519953500000042, 33.1373916 ] } },
{ "type": "Feature", "properties": { "内容": "地域ケア　こりん神在【認知症対応型通所介護】福岡県糸島市神在西に丁目13番7号", "url": "https://www.kaigokensaku.mhlw.go.jp/40/index.php?action_kouhyou_detail_004_kani=true&JigyosyoCd=4073500508-00&ServiceCd=720&Type=search", "url2": "http://www.shimaen.or.jp/korin.html" }, "geometry": { "type": "Point", "coordinates": [ 130.173902, 33.5449444 ] } },
{ "type": "Feature", "properties": { "内容": "ねむのき青春塾【認知症対応型通所介護】福岡県那珂川市下梶原2丁目6番3号", "url": "https://www.kaigokensaku.mhlw.go.jp/40/index.php?action_kouhyou_detail_004_kani=true&JigyosyoCd=4093700054-00&ServiceCd=720&Type=search", "url2": "http://www.nakafuku.jp/" }, "geometry": { "type": "Point", "coordinates": [ 130.4393374, 33.4997574 ] } },
{ "type": "Feature", "properties": { "内容": "共用型デイサービスなのはな【認知症対応型通所介護】福岡県遠賀郡水巻町猪熊８丁目16-31", "url": "https://www.kaigokensaku.mhlw.go.jp/40/index.php?action_kouhyou_detail_004_kani=true&JigyosyoCd=4095000057-00&ServiceCd=720&Type=search", "url2": null }, "geometry": { "type": "Point", "coordinates": [ 130.6836743, 33.8819367 ] } },
{ "type": "Feature", "properties": { "内容": "さん愛デイサービス【認知症対応型通所介護】福岡県田川郡香春町大字香春１６６０－１", "url": "https://www.kaigokensaku.mhlw.go.jp/40/index.php?action_kouhyou_detail_004_kani=true&JigyosyoCd=4099200018-00&ServiceCd=720&Type=search", "url2": "www.sanai-gh" }, "geometry": { "type": "Point", "coordinates": [ 130.82632, 33.6664247 ] } },
{ "type": "Feature", "properties": { "内容": "デイサービスなごみの里【認知症対応型通所介護】福岡県田川郡川崎町大字田原2185-1", "url": "https://www.kaigokensaku.mhlw.go.jp/40/index.php?action_kouhyou_detail_004_kani=true&JigyosyoCd=4099600019-00&ServiceCd=720&Type=search", "url2": null }, "geometry": { "type": "Point", "coordinates": [ 130.801604600000019, 33.6026696 ] } },
{ "type": "Feature", "properties": { "内容": "在処　よってけばぁ【認知症対応型通所介護】苅田町大字集２４２７番地", "url": "https://www.kaigokensaku.mhlw.go.jp/40/index.php?action_kouhyou_detail_004_kani=true&JigyosyoCd=4070001039-00&ServiceCd=720&Type=search", "url2": "info@kanda-shakyo.net" }, "geometry": { "type": "Point", "coordinates": [ 130.972047299999986, 33.7698853 ] } }
]
}
