{
"type": "FeatureCollection",
"name": "geo_40_各種学校",
"crs": { "type": "name", "properties": { "name": "urn:ogc:def:crs:EPSG::6668" } },
"features": [
{ "type": "Feature", "properties": { "P29_001": "40225", "P29_002": "H240222500017", "P29_003": "16015", "P29_004": "うきは市立自動車学校", "P29_005": "福岡県うきは市浮羽町浮羽469-1", "P29_006": "3", "P29_007": "0", "P29_008": "00", "P29_009": null }, "geometry": { "type": "Point", "coordinates": [ 130.777225425606844, 33.333422637382888 ] } },
{ "type": "Feature", "properties": { "P29_001": "40109", "P29_002": "H240310000033", "P29_003": "16015", "P29_004": "九州朝鮮初中高級学校", "P29_005": "福岡県北九州市八幡西区折尾3-5-1", "P29_006": "4", "P29_007": "0", "P29_008": "00", "P29_009": null }, "geometry": { "type": "Point", "coordinates": [ 130.712031516472592, 33.867358358503758 ] } },
{ "type": "Feature", "properties": { "P29_001": "40345", "P29_002": "H240334500010", "P29_003": "16015", "P29_004": "さくら日本語学院", "P29_005": "福岡県糟屋郡新宮町美咲2-17-12", "P29_006": "4", "P29_007": "0", "P29_008": "00", "P29_009": null }, "geometry": { "type": "Point", "coordinates": [ 130.440189272412994, 33.70198974067754 ] } },
{ "type": "Feature", "properties": { "P29_001": "40106", "P29_002": "H240310000015", "P29_003": "16015", "P29_004": "北九州予備校小倉校", "P29_005": "福岡県北九州市小倉北区中島1-19-8", "P29_006": "4", "P29_007": "0", "P29_008": "00", "P29_009": null }, "geometry": { "type": "Point", "coordinates": [ 130.877673918533475, 33.877131840827026 ] } },
{ "type": "Feature", "properties": { "P29_001": "40106", "P29_002": "H240310000024", "P29_003": "16015", "P29_004": "北九州ＹＭＣＡ学院", "P29_005": "福岡県北九州市小倉北区鍛冶町2-3-9", "P29_006": "4", "P29_007": "0", "P29_008": "00", "P29_009": null }, "geometry": { "type": "Point", "coordinates": [ 130.886319208186677, 33.882164707393393 ] } },
{ "type": "Feature", "properties": { "P29_001": "40109", "P29_002": "H240310000051", "P29_003": "16015", "P29_004": "日本語学学校", "P29_005": "福岡県北九州市八幡西区岸の浦1-13-70", "P29_006": "4", "P29_007": "0", "P29_008": "00", "P29_009": null }, "geometry": { "type": "Point", "coordinates": [ 130.76424846621606, 33.856371847641121 ] } },
{ "type": "Feature", "properties": { "P29_001": "40131", "P29_002": "H240313000019", "P29_003": "16015", "P29_004": "福岡朝鮮初級学校", "P29_005": "福岡県福岡市東区和白5-17-1", "P29_006": "4", "P29_007": "0", "P29_008": "00", "P29_009": null }, "geometry": { "type": "Point", "coordinates": [ 130.428889765902056, 33.693866364006752 ] } },
{ "type": "Feature", "properties": { "P29_001": "40131", "P29_002": "H240313000028", "P29_003": "16015", "P29_004": "愛和外語学院", "P29_005": "福岡県福岡市東区馬出1-15-37", "P29_006": "4", "P29_007": "0", "P29_008": "00", "P29_009": null }, "geometry": { "type": "Point", "coordinates": [ 130.422493740339206, 33.608750261357997 ] } },
{ "type": "Feature", "properties": { "P29_001": "40131", "P29_002": "H240313000037", "P29_003": "16015", "P29_004": "美術研究所村上画塾", "P29_005": "福岡県福岡市東区箱崎4-22-16", "P29_006": "4", "P29_007": "0", "P29_008": "00", "P29_009": null }, "geometry": { "type": "Point", "coordinates": [ 130.414879266213404, 33.618239382038155 ] } },
{ "type": "Feature", "properties": { "P29_001": "40133", "P29_002": "H240313000046", "P29_003": "16015", "P29_004": "田中重子製帽専門学院", "P29_005": "福岡県福岡市中央区大手門2-4-4", "P29_006": "4", "P29_007": "0", "P29_008": "00", "P29_009": null }, "geometry": { "type": "Point", "coordinates": [ 130.384102231285681, 33.590854776632945 ] } },
{ "type": "Feature", "properties": { "P29_001": "40133", "P29_002": "H240313000055", "P29_003": "16015", "P29_004": "九州英数学館国際言語学院", "P29_005": "福岡県福岡市中央区舞鶴1-5-30", "P29_006": "4", "P29_007": "0", "P29_008": "00", "P29_009": null }, "geometry": { "type": "Point", "coordinates": [ 130.393071098147743, 33.593633659188839 ] } },
{ "type": "Feature", "properties": { "P29_001": "40134", "P29_002": "H240313000064", "P29_003": "16015", "P29_004": "西日本国際教育学院", "P29_005": "福岡県福岡市南区塩原4-17-17", "P29_006": "4", "P29_007": "0", "P29_008": "00", "P29_009": null }, "geometry": { "type": "Point", "coordinates": [ 130.43042705976444, 33.558466480350937 ] } },
{ "type": "Feature", "properties": { "P29_001": "40136", "P29_002": "H240313000073", "P29_003": "16015", "P29_004": "福岡県自動車学校", "P29_005": "福岡県福岡市城南区田島6-12-26", "P29_006": "4", "P29_007": "0", "P29_008": "00", "P29_009": null }, "geometry": { "type": "Point", "coordinates": [ 130.368484845590928, 33.559876278169973 ] } },
{ "type": "Feature", "properties": { "P29_001": "40136", "P29_002": "H240313000082", "P29_003": "16015", "P29_004": "福岡ＹＭＣＡ学院", "P29_005": "福岡県福岡市城南区七隈1-1-10", "P29_006": "4", "P29_007": "0", "P29_008": "00", "P29_009": null }, "geometry": { "type": "Point", "coordinates": [ 130.358783249027368, 33.568505617680287 ] } },
{ "type": "Feature", "properties": { "P29_001": "40137", "P29_002": "H240313000091", "P29_003": "16015", "P29_004": "福岡インターナショナルスクール", "P29_005": "福岡県福岡市早良区百道3-18-50", "P29_006": "4", "P29_007": "0", "P29_008": "00", "P29_009": null }, "geometry": { "type": "Point", "coordinates": [ 130.345082361791214, 33.587562137035817 ] } },
{ "type": "Feature", "properties": { "P29_001": "40219", "P29_002": "H240321900013", "P29_003": "16015", "P29_004": "西鉄自動車学校", "P29_005": "福岡県大野城市山田3-12-1", "P29_006": "4", "P29_007": "0", "P29_008": "00", "P29_009": null }, "geometry": { "type": "Point", "coordinates": [ 130.477094645397045, 33.546868391934112 ] } },
{ "type": "Feature", "properties": { "P29_001": "40224", "P29_002": "H240322400016", "P29_003": "16015", "P29_004": "宮地嶽神社附属高等女子文華学園", "P29_005": "福岡県福津市宮司元町7-1", "P29_006": "4", "P29_007": "0", "P29_008": "00", "P29_009": null }, "geometry": { "type": "Point", "coordinates": [ 130.486062122123229, 33.780183697512456 ] } },
{ "type": "Feature", "properties": { "P29_001": "40230", "P29_002": "H240323000018", "P29_003": "16015", "P29_004": "日本文化語学院", "P29_005": "福岡県糸島市前原中央3-12-29", "P29_006": "4", "P29_007": "0", "P29_008": "00", "P29_009": null }, "geometry": { "type": "Point", "coordinates": [ 130.200144095904676, 33.561619846164348 ] } }
]
}
