{
"type": "FeatureCollection",
"name": "geo_40_特定福祉用具販売",
"crs": { "type": "name", "properties": { "name": "urn:ogc:def:crs:OGC:1.3:CRS84" } },
"features": [
{ "type": "Feature", "properties": { "内容": "知恵の木株式会社【特定福祉用具販売】福岡県北九州市門司区旧門司1丁目5-28-705コーポランド和布刈　705号", "url": "https://www.kaigokensaku.mhlw.go.jp/40/index.php?action_kouhyou_detail_004_kani=true&JigyosyoCd=4070102878-00&ServiceCd=410&Type=search", "url2": "https://chienoki-co.com" }, "geometry": { "type": "Point", "coordinates": [ 130.966457100000014, 33.9532338 ] } },
{ "type": "Feature", "properties": { "内容": "大介福祉用具【特定福祉用具販売】北九州市門司区西新町一丁目14番6号-101号藤松ビル", "url": "https://www.kaigokensaku.mhlw.go.jp/40/index.php?action_kouhyou_detail_004_kani=true&JigyosyoCd=4070103140-00&ServiceCd=410&Type=search", "url2": null }, "geometry": { "type": "Point", "coordinates": [ 130.9230827, 33.8893273 ] } },
{ "type": "Feature", "properties": { "内容": "パナソニックエイジフリーショップ門司【特定福祉用具販売】福岡県北九州市門司区下二十町11－10ロイヤルレッドビル1階", "url": "https://www.kaigokensaku.mhlw.go.jp/40/index.php?action_kouhyou_detail_004_kani=true&JigyosyoCd=4070102753-00&ServiceCd=410&Type=search", "url2": "https://panasonic.co.jp/paf/" }, "geometry": { "type": "Point", "coordinates": [ 130.940951400000017, 33.9108245 ] } },
{ "type": "Feature", "properties": { "内容": "アップルハート北九州店【特定福祉用具販売】福岡県北九州市若松区桜町６－３", "url": "https://www.kaigokensaku.mhlw.go.jp/40/index.php?action_kouhyou_detail_004_kani=true&JigyosyoCd=4070600178-00&ServiceCd=410&Type=search", "url2": "http://www.aso-group.co.jp/ams" }, "geometry": { "type": "Point", "coordinates": [ 130.807315499999959, 33.9087611 ] } },
{ "type": "Feature", "properties": { "内容": "九州介護サービス　あおぞら【特定福祉用具販売】北九州市若松区高須北1丁目12番16号", "url": "https://www.kaigokensaku.mhlw.go.jp/40/index.php?action_kouhyou_detail_004_kani=true&JigyosyoCd=4070201969-00&ServiceCd=410&Type=search", "url2": null }, "geometry": { "type": "Point", "coordinates": [ 130.688537, 33.8959929 ] } },
{ "type": "Feature", "properties": { "内容": "あやめレンタルサービス【特定福祉用具販売】北九州市戸畑区明治町9-10", "url": "https://www.kaigokensaku.mhlw.go.jp/40/index.php?action_kouhyou_detail_004_kani=true&JigyosyoCd=4070300993-00&ServiceCd=410&Type=search", "url2": "http://kyoaikai.com" }, "geometry": { "type": "Point", "coordinates": [ 130.823446150926173, 33.89955894128174 ] } },
{ "type": "Feature", "properties": { "内容": "さわやか　ケアサポート【特定福祉用具販売】北九州市小倉北区熊本2-10-10", "url": "https://www.kaigokensaku.mhlw.go.jp/40/index.php?action_kouhyou_detail_004_kani=true&JigyosyoCd=4070403581-00&ServiceCd=410&Type=search", "url2": null }, "geometry": { "type": "Point", "coordinates": [ 130.894535268508889, 33.870769570778165 ] } },
{ "type": "Feature", "properties": { "内容": "福祉用具いわさき【特定福祉用具販売】福岡県北九州市小倉北区片野新町1-1-34アストリア片野102", "url": "https://www.kaigokensaku.mhlw.go.jp/40/index.php?action_kouhyou_detail_004_kani=true&JigyosyoCd=4070405727-00&ServiceCd=410&Type=search", "url2": "https://iw-style.info/" }, "geometry": { "type": "Point", "coordinates": [ 130.88294, 33.8648132 ] } },
{ "type": "Feature", "properties": { "内容": "QCC北九州【特定福祉用具販売】北九州市小倉北区篠崎2丁目30番34号", "url": "https://www.kaigokensaku.mhlw.go.jp/40/index.php?action_kouhyou_detail_004_kani=true&JigyosyoCd=4070404159-00&ServiceCd=410&Type=search", "url2": "http://qccg.jp" }, "geometry": { "type": "Point", "coordinates": [ 130.869221255776239, 33.862981518209686 ] } },
{ "type": "Feature", "properties": { "内容": "プラスケア小倉【特定福祉用具販売】福岡県北九州市小倉北区宇佐町2-6-8オフィスパレア宇佐Ⅰ　B棟1号室", "url": "https://www.kaigokensaku.mhlw.go.jp/40/index.php?action_kouhyou_detail_004_kani=true&JigyosyoCd=4070405297-00&ServiceCd=410&Type=search", "url2": "http://pluscare2002.co.jp/" }, "geometry": { "type": "Point", "coordinates": [ 130.892724500000014, 33.8754134 ] } },
{ "type": "Feature", "properties": { "内容": "プログレス【特定福祉用具販売】福岡県北九州市小倉北区緑ヶ丘1-4-25302", "url": "https://www.kaigokensaku.mhlw.go.jp/40/index.php?action_kouhyou_detail_004_kani=true&JigyosyoCd=4070405412-00&ServiceCd=410&Type=search", "url2": null }, "geometry": { "type": "Point", "coordinates": [ 130.8611055, 33.8893132 ] } },
{ "type": "Feature", "properties": { "内容": "横尾器械株式会社【特定福祉用具販売】福岡県北九州市小倉北区井堀3丁目22-10", "url": "https://www.kaigokensaku.mhlw.go.jp/40/index.php?action_kouhyou_detail_004_kani=true&JigyosyoCd=4070400066-00&ServiceCd=410&Type=search", "url2": "http://www.yokookikai.com" }, "geometry": { "type": "Point", "coordinates": [ 130.844218299999937, 33.884736499999967 ] } },
{ "type": "Feature", "properties": { "内容": "アビリティーズ・ケアネット株式会社　北九州営業所【特定福祉用具販売】福岡県北九州市小倉北区高浜一丁目６番２７号", "url": "https://www.kaigokensaku.mhlw.go.jp/40/index.php?action_kouhyou_detail_004_kani=true&JigyosyoCd=4070400736-00&ServiceCd=410&Type=search", "url2": "https://www.abilities.jp" }, "geometry": { "type": "Point", "coordinates": [ 130.898533600000064, 33.888512 ] } },
{ "type": "Feature", "properties": { "内容": "株式会社　ピュアハート【特定福祉用具販売】福岡県北九州市小倉北区片野三丁目７番７号", "url": "https://www.kaigokensaku.mhlw.go.jp/40/index.php?action_kouhyou_detail_004_kani=true&JigyosyoCd=4070402930-00&ServiceCd=410&Type=search", "url2": null }, "geometry": { "type": "Point", "coordinates": [ 130.882143700000029, 33.8665754 ] } },
{ "type": "Feature", "properties": { "内容": "有限会社ユニクリエイト　光ホーム【特定福祉用具販売】福岡県北九州市小倉北区下富野2丁目10-14", "url": "https://www.kaigokensaku.mhlw.go.jp/40/index.php?action_kouhyou_detail_004_kani=true&JigyosyoCd=4070402971-00&ServiceCd=410&Type=search", "url2": null }, "geometry": { "type": "Point", "coordinates": [ 130.899053099999946, 33.8819349 ] } },
{ "type": "Feature", "properties": { "内容": "株式会社フロンティア　北九州営業所【特定福祉用具販売】西港町89-6センコービル2階", "url": "https://www.kaigokensaku.mhlw.go.jp/40/index.php?action_kouhyou_detail_004_kani=true&JigyosyoCd=4070404092-00&ServiceCd=410&Type=search", "url2": "http://www.frontier-ph.com/" }, "geometry": { "type": "Point", "coordinates": [ 130.86557449999998, 33.9064344 ] } },
{ "type": "Feature", "properties": { "内容": "はんど北九州営業所【特定福祉用具販売】福岡県小倉北区三郎丸３丁目６－２０久野ビル１０４号", "url": "https://www.kaigokensaku.mhlw.go.jp/40/index.php?action_kouhyou_detail_004_kani=true&JigyosyoCd=4070404563-00&ServiceCd=410&Type=search", "url2": "http://www.ee-hand.co.jp" }, "geometry": { "type": "Point", "coordinates": [ 130.8875491, 33.8682775 ] } },
{ "type": "Feature", "properties": { "内容": "福祉用具のはこぶね【特定福祉用具販売】福岡県北九州市小倉北区下富野2丁目8番4号", "url": "https://www.kaigokensaku.mhlw.go.jp/40/index.php?action_kouhyou_detail_004_kani=true&JigyosyoCd=4070405818-00&ServiceCd=410&Type=search", "url2": null }, "geometry": { "type": "Point", "coordinates": [ 130.8974608, 33.88236 ] } },
{ "type": "Feature", "properties": { "内容": "健匠株式会社【特定福祉用具販売】福岡県北九州市小倉北区宇佐町2丁目6-9オフィスパレア宇佐ⅠA3", "url": "https://www.kaigokensaku.mhlw.go.jp/40/index.php?action_kouhyou_detail_004_kani=true&JigyosyoCd=4070405974-00&ServiceCd=410&Type=search", "url2": null }, "geometry": { "type": "Point", "coordinates": [ 130.892531049996677, 33.875496635339822 ] } },
{ "type": "Feature", "properties": { "内容": "福祉用具のえにしあさん【特定福祉用具販売】下到津4-10-9", "url": "https://www.kaigokensaku.mhlw.go.jp/40/index.php?action_kouhyou_detail_004_kani=true&JigyosyoCd=4070406204-00&ServiceCd=410&Type=search", "url2": "https://enisia.jp" }, "geometry": { "type": "Point", "coordinates": [ 130.855085, 33.8758832 ] } },
{ "type": "Feature", "properties": { "内容": "ひろき福祉用具センター【特定福祉用具販売】福岡県北九州市小倉北区東篠崎2丁目７－３７", "url": "https://www.kaigokensaku.mhlw.go.jp/40/index.php?action_kouhyou_detail_004_kani=true&JigyosyoCd=4070503604-00&ServiceCd=410&Type=search", "url2": "http://homepage2.nifty.com/kawamurafukushi/" }, "geometry": { "type": "Point", "coordinates": [ 130.866012299999966, 33.8446859 ] } },
{ "type": "Feature", "properties": { "内容": "一般社団法人インフィールド【特定福祉用具販売】福岡県北九州市小倉北区井堀4丁目8番19号ガーデンコート井堀603号", "url": "https://www.kaigokensaku.mhlw.go.jp/40/index.php?action_kouhyou_detail_004_kani=true&JigyosyoCd=4070405198-00&ServiceCd=410&Type=search", "url2": null }, "geometry": { "type": "Point", "coordinates": [ 130.8429387, 33.8813482 ] } },
{ "type": "Feature", "properties": { "内容": "北九州福祉サービス株式会社　きたふく福祉用具ショップ【特定福祉用具販売】福岡県北九州市小倉北区馬借1丁目3番21号　１階", "url": "https://www.kaigokensaku.mhlw.go.jp/40/index.php?action_kouhyou_detail_004_kani=true&JigyosyoCd=4070401429-00&ServiceCd=410&Type=search", "url2": "http://www.kitafuku.co.jp" }, "geometry": { "type": "Point", "coordinates": [ 130.877541, 33.8817261 ] } },
{ "type": "Feature", "properties": { "内容": "太陽シルバーサービス株式会社　小倉営業所【特定福祉用具販売】北九州市小倉北区重住3丁目11-21", "url": "https://www.kaigokensaku.mhlw.go.jp/40/index.php?action_kouhyou_detail_004_kani=true&JigyosyoCd=4070403227-00&ServiceCd=410&Type=search", "url2": "http://www.taiyoss.co.jp" }, "geometry": { "type": "Point", "coordinates": [ 130.888744967181424, 33.856899410540045 ] } },
{ "type": "Feature", "properties": { "内容": "株式会社　ケアテックサービス【特定福祉用具販売】福岡県北九州市小倉南区志井6丁目２３番３号", "url": "https://www.kaigokensaku.mhlw.go.jp/40/index.php?action_kouhyou_detail_004_kani=true&JigyosyoCd=4070500162-00&ServiceCd=410&Type=search", "url2": "http://caretech-service.wixsite.com/caretechservice" }, "geometry": { "type": "Point", "coordinates": [ 130.87672079999993, 33.8175892 ] } },
{ "type": "Feature", "properties": { "内容": "株式会社　サプライ【特定福祉用具販売】福岡県北九州市小倉南区曽根新田南３―３―２４", "url": "https://www.kaigokensaku.mhlw.go.jp/40/index.php?action_kouhyou_detail_004_kani=true&JigyosyoCd=4070503364-00&ServiceCd=410&Type=search", "url2": "http://supply481025.client.jp/" }, "geometry": { "type": "Point", "coordinates": [ 130.9570751, 33.8141583 ] } },
{ "type": "Feature", "properties": { "内容": "ベストケア小倉【特定福祉用具販売】北九州市小倉南区蒲生4丁目5番6号", "url": "https://www.kaigokensaku.mhlw.go.jp/40/index.php?action_kouhyou_detail_004_kani=true&JigyosyoCd=4070500832-00&ServiceCd=410&Type=search", "url2": "http://evahlife.jp/" }, "geometry": { "type": "Point", "coordinates": [ 130.864931800000022, 33.8422556 ] } },
{ "type": "Feature", "properties": { "内容": "(株)ホームケアサービス山口　北九州店【特定福祉用具販売】福岡県北九州市小倉南区中吉田6丁目26-5", "url": "https://www.kaigokensaku.mhlw.go.jp/40/index.php?action_kouhyou_detail_004_kani=true&JigyosyoCd=4070504024-00&ServiceCd=410&Type=search", "url2": "http://www.homecare-yamaguchi.co.jp" }, "geometry": { "type": "Point", "coordinates": [ 130.953747570948366, 33.850097237179874 ] } },
{ "type": "Feature", "properties": { "内容": "ほほえみレンタル【特定福祉用具販売】福岡県北九州市小倉南区葛原本町６丁目10-3", "url": "https://www.kaigokensaku.mhlw.go.jp/40/index.php?action_kouhyou_detail_004_kani=true&JigyosyoCd=4070501079-00&ServiceCd=410&Type=search", "url2": null }, "geometry": { "type": "Point", "coordinates": [ 130.925002299999989, 33.8406914 ] } },
{ "type": "Feature", "properties": { "内容": "株式会社　神崎工務店【特定福祉用具販売】福岡県北九州市小倉南区湯川5-8-28", "url": "https://www.kaigokensaku.mhlw.go.jp/40/index.php?action_kouhyou_detail_004_kani=true&JigyosyoCd=4070502093-00&ServiceCd=410&Type=search", "url2": "http://k-kanzaki.com" }, "geometry": { "type": "Point", "coordinates": [ 130.9053867, 33.8441162 ] } },
{ "type": "Feature", "properties": { "内容": "株式会社トーカイ　北九州営業所【特定福祉用具販売】福岡県北九州市小倉南区田原3丁目8番5号", "url": "https://www.kaigokensaku.mhlw.go.jp/40/index.php?action_kouhyou_detail_004_kani=true&JigyosyoCd=4070500907-00&ServiceCd=410&Type=search", "url2": "http://www.tokai-corp.com/" }, "geometry": { "type": "Point", "coordinates": [ 130.933767900000021, 33.8255257 ] } },
{ "type": "Feature", "properties": { "内容": "太陽シルバーサービス株式会社　小倉南営業所【特定福祉用具販売】北九州市小倉南区田原新町1丁目3-34", "url": "https://www.kaigokensaku.mhlw.go.jp/40/index.php?action_kouhyou_detail_004_kani=true&JigyosyoCd=4070503471-00&ServiceCd=410&Type=search", "url2": "http://www.taiyoss.co.jp" }, "geometry": { "type": "Point", "coordinates": [ 130.928693, 33.8327302 ] } },
{ "type": "Feature", "properties": { "内容": "株式会社　介助　小倉営業所【特定福祉用具販売】北九州市小倉南区横代北町二丁目1番41号ﾈｯﾂ小倉東A-2", "url": "https://www.kaigokensaku.mhlw.go.jp/40/index.php?action_kouhyou_detail_004_kani=true&JigyosyoCd=4070503539-00&ServiceCd=410&Type=search", "url2": "http://www.kaisuke.co.jp" }, "geometry": { "type": "Point", "coordinates": [ 130.8980558, 33.8393594 ] } },
{ "type": "Feature", "properties": { "内容": "フランスベッド株式会社　メディカル小倉営業所【特定福祉用具販売】福岡県北九州市小倉南区下城野一丁目7-3ウェルカムネッツB-8号", "url": "https://www.kaigokensaku.mhlw.go.jp/40/index.php?action_kouhyou_detail_004_kani=true&JigyosyoCd=4070505450-00&ServiceCd=410&Type=search", "url2": "http://www.francebed.co.jp" }, "geometry": { "type": "Point", "coordinates": [ 130.878427800000054, 33.8561845 ] } },
{ "type": "Feature", "properties": { "内容": "株式会社　クローバー　北九州営業所【特定福祉用具販売】福岡県北九州市八幡東区松尾町3-15", "url": "https://www.kaigokensaku.mhlw.go.jp/40/index.php?action_kouhyou_detail_004_kani=true&JigyosyoCd=4070600954-00&ServiceCd=410&Type=search", "url2": "http://www.clover-w.co.jp/" }, "geometry": { "type": "Point", "coordinates": [ 130.842815439707692, 33.864313574103647 ] } },
{ "type": "Feature", "properties": { "内容": "テクノエイド・ショップ北九州【特定福祉用具販売】福岡県北九州市八幡東区東田1-7-5", "url": "https://www.kaigokensaku.mhlw.go.jp/40/index.php?action_kouhyou_detail_004_kani=true&JigyosyoCd=4070600202-00&ServiceCd=410&Type=search", "url2": "http://www.arizono.co.jp" }, "geometry": { "type": "Point", "coordinates": [ 130.7947284, 33.8706248 ] } },
{ "type": "Feature", "properties": { "内容": "太陽シルバーサービス株式会社　八幡東営業所【特定福祉用具販売】北九州市八幡東区山路松尾町14-6", "url": "https://www.kaigokensaku.mhlw.go.jp/40/index.php?action_kouhyou_detail_004_kani=true&JigyosyoCd=4070601184-00&ServiceCd=410&Type=search", "url2": "http://www.taiyoss.co.jp" }, "geometry": { "type": "Point", "coordinates": [ 130.8432914, 33.8586866 ] } },
{ "type": "Feature", "properties": { "内容": "Ｊ’ｓライフケア事業部【特定福祉用具販売】福岡県北九州市八幡東区西本町1丁目11-3北鐵ビル2F", "url": "https://www.kaigokensaku.mhlw.go.jp/40/index.php?action_kouhyou_detail_004_kani=true&JigyosyoCd=4070602307-00&ServiceCd=410&Type=search", "url2": "https://www.cielonext.co.jp" }, "geometry": { "type": "Point", "coordinates": [ 130.798081599999989, 33.8666765 ] } },
{ "type": "Feature", "properties": { "内容": "医療法人新生会　三ヶ森福祉用具レンタル【特定福祉用具販売】福岡県北九州市八幡西区沖田4-17-22-101", "url": "https://www.kaigokensaku.mhlw.go.jp/40/index.php?action_kouhyou_detail_004_kani=true&JigyosyoCd=4070707569-00&ServiceCd=410&Type=search", "url2": "https://www.shinseikai-hos.or.jp/fukushi/" }, "geometry": { "type": "Point", "coordinates": [ 130.741032600000011, 33.8313387 ] } },
{ "type": "Feature", "properties": { "内容": "株式会社新和メディカル北九州営業所【特定福祉用具販売】福岡県北九州市八幡西区馬場山東2丁目9-9", "url": "https://www.kaigokensaku.mhlw.go.jp/40/index.php?action_kouhyou_detail_004_kani=true&JigyosyoCd=4070706918-00&ServiceCd=410&Type=search", "url2": "http://www.shinwamedical.com/index.html" }, "geometry": { "type": "Point", "coordinates": [ 130.746876899999961, 33.7949944 ] } },
{ "type": "Feature", "properties": { "内容": "株式会社　介助【特定福祉用具販売】福岡県北九州市八幡西区小鷺田町2番1号", "url": "https://www.kaigokensaku.mhlw.go.jp/40/index.php?action_kouhyou_detail_004_kani=true&JigyosyoCd=4070703485-00&ServiceCd=410&Type=search", "url2": "http://www.kaisuke.co.jp/index.html" }, "geometry": { "type": "Point", "coordinates": [ 130.731994899999989, 33.8805486 ] } },
{ "type": "Feature", "properties": { "内容": "株式会社　エヴァ・ライフ　ベストケア八幡【特定福祉用具販売】北九州市八幡西区本城1丁目20-25", "url": "https://www.kaigokensaku.mhlw.go.jp/40/index.php?action_kouhyou_detail_004_kani=true&JigyosyoCd=4070705589-00&ServiceCd=410&Type=search", "url2": "http://evahlife.jp/" }, "geometry": { "type": "Point", "coordinates": [ 130.728853500000014, 33.881712300000025 ] } },
{ "type": "Feature", "properties": { "内容": "株式会社　ひまわり　北九州営業所【特定福祉用具販売】福岡県北九州市八幡西区千代ヶ崎二丁目1番6号　101号室", "url": "https://www.kaigokensaku.mhlw.go.jp/40/index.php?action_kouhyou_detail_004_kani=true&JigyosyoCd=4070704020-00&ServiceCd=410&Type=search", "url2": null }, "geometry": { "type": "Point", "coordinates": [ 130.715659, 33.8749707 ] } },
{ "type": "Feature", "properties": { "内容": "福祉用具あーさー【特定福祉用具販売】福岡県北九州市八幡西区香月中央2-10-24", "url": "https://www.kaigokensaku.mhlw.go.jp/40/index.php?action_kouhyou_detail_004_kani=true&JigyosyoCd=4070707940-00&ServiceCd=410&Type=search", "url2": "https://www.berryfin-kitakyushu.com/" }, "geometry": { "type": "Point", "coordinates": [ 130.732753961376943, 33.800563477198821 ] } },
{ "type": "Feature", "properties": { "内容": "株式会社　イコール【特定福祉用具販売】福岡県北九州市八幡西区引野3丁目5番4号", "url": "https://www.kaigokensaku.mhlw.go.jp/40/index.php?action_kouhyou_detail_004_kani=true&JigyosyoCd=4070300316-00&ServiceCd=410&Type=search", "url2": "http://www.eqol.co.jp" }, "geometry": { "type": "Point", "coordinates": [ 130.754343828553857, 33.84419300456603 ] } },
{ "type": "Feature", "properties": { "内容": "アップルハート北九州福祉用具センター【特定福祉用具販売】福岡県北九州市八幡西区木屋瀬5-15-31", "url": "https://www.kaigokensaku.mhlw.go.jp/40/index.php?action_kouhyou_detail_004_kani=true&JigyosyoCd=4070300779-00&ServiceCd=410&Type=search", "url2": "http://www.aso-kaigo.jp" }, "geometry": { "type": "Point", "coordinates": [ 130.724498199999971, 33.7755801 ] } },
{ "type": "Feature", "properties": { "内容": "ケアサポート木輪館【特定福祉用具販売】福岡県北九州市八幡西区下上津役三丁目３番６号", "url": "https://www.kaigokensaku.mhlw.go.jp/40/index.php?action_kouhyou_detail_004_kani=true&JigyosyoCd=4070700093-00&ServiceCd=410&Type=search", "url2": "http://www.kirinkan.co.jp" }, "geometry": { "type": "Point", "coordinates": [ 130.741982, 33.8258522 ] } },
{ "type": "Feature", "properties": { "内容": "太陽シルバーサービス株式会社　八幡西営業所【特定福祉用具販売】北九州市八幡西区本城東2-4-8", "url": "https://www.kaigokensaku.mhlw.go.jp/40/index.php?action_kouhyou_detail_004_kani=true&JigyosyoCd=4070704269-00&ServiceCd=410&Type=search", "url2": "http://www.taiyoss.co.jp" }, "geometry": { "type": "Point", "coordinates": [ 130.734619800000019, 33.8783849 ] } },
{ "type": "Feature", "properties": { "内容": "フランスベッド株式会社　メディカル北九州営業所【特定福祉用具販売】福岡県北九州市八幡西区大字野面852-1", "url": "https://www.kaigokensaku.mhlw.go.jp/40/index.php?action_kouhyou_detail_004_kani=true&JigyosyoCd=4070704459-00&ServiceCd=410&Type=search", "url2": "http://www.francebed.co.jp/" }, "geometry": { "type": "Point", "coordinates": [ 130.73116159999995, 33.7821599 ] } },
{ "type": "Feature", "properties": { "内容": "レンタル丸屋　北九州支店【特定福祉用具販売】福岡県北九州市八幡西区引野1-26-16", "url": "https://www.kaigokensaku.mhlw.go.jp/40/index.php?action_kouhyou_detail_004_kani=true&JigyosyoCd=4070704814-00&ServiceCd=410&Type=search", "url2": "http://www.rental-maruya.com/" }, "geometry": { "type": "Point", "coordinates": [ 130.756081560557504, 33.841973014445848 ] } },
{ "type": "Feature", "properties": { "内容": "Ｅースタート【特定福祉用具販売】福岡県北九州市八幡西区本城東6丁目11番13-101号", "url": "https://www.kaigokensaku.mhlw.go.jp/40/index.php?action_kouhyou_detail_004_kani=true&JigyosyoCd=4070707668-00&ServiceCd=410&Type=search", "url2": null }, "geometry": { "type": "Point", "coordinates": [ 130.727608807246583, 33.875697753588859 ] } },
{ "type": "Feature", "properties": { "内容": "スキップ八幡店【特定福祉用具販売】福岡県北九州市八幡西区楠橋南3丁目2番12号", "url": "https://www.kaigokensaku.mhlw.go.jp/40/index.php?action_kouhyou_detail_004_kani=true&JigyosyoCd=4070707791-00&ServiceCd=410&Type=search", "url2": "https://skip-kaigo.com" }, "geometry": { "type": "Point", "coordinates": [ 130.7375575, 33.7856045 ] } },
{ "type": "Feature", "properties": { "内容": "ホームエイド一の宮【特定福祉用具販売】福岡県北九州市八幡西区本城東一丁目2番10号", "url": "https://www.kaigokensaku.mhlw.go.jp/40/index.php?action_kouhyou_detail_004_kani=true&JigyosyoCd=4070702925-00&ServiceCd=410&Type=search", "url2": null }, "geometry": { "type": "Point", "coordinates": [ 130.738894699999946, 33.8742994 ] } },
{ "type": "Feature", "properties": { "内容": "介護福祉用品フレンズ博多【特定福祉用具販売】福岡県福岡市東区馬出6-14-10-205ルネッサンス21吉塚駅前205号", "url": "https://www.kaigokensaku.mhlw.go.jp/40/index.php?action_kouhyou_detail_004_kani=true&JigyosyoCd=4070805702-00&ServiceCd=410&Type=search", "url2": null }, "geometry": { "type": "Point", "coordinates": [ 130.425175100000018, 33.6093938 ] } },
{ "type": "Feature", "properties": { "内容": "フェイバーケア福岡支店【特定福祉用具販売】美和台4-7-1アーク美和台101号", "url": "https://www.kaigokensaku.mhlw.go.jp/40/index.php?action_kouhyou_detail_004_kani=true&JigyosyoCd=4070806064-00&ServiceCd=410&Type=search", "url2": "https://favor0801.com/" }, "geometry": { "type": "Point", "coordinates": [ 130.4238356, 33.7023945 ] } },
{ "type": "Feature", "properties": { "内容": "すごかハウスケア【特定福祉用具販売】香椎６－２９－５４", "url": "https://www.kaigokensaku.mhlw.go.jp/40/index.php?action_kouhyou_detail_004_kani=true&JigyosyoCd=4070805520-00&ServiceCd=410&Type=search", "url2": "https://www.barakamedical.com/" }, "geometry": { "type": "Point", "coordinates": [ 130.45491530000001, 33.6481667 ] } },
{ "type": "Feature", "properties": { "内容": "ダスキンヘルスレント福岡東ステーション【特定福祉用具販売】福岡県福岡市東区松田1丁目4-46", "url": "https://www.kaigokensaku.mhlw.go.jp/40/index.php?action_kouhyou_detail_004_kani=true&JigyosyoCd=4070805785-00&ServiceCd=410&Type=search", "url2": null }, "geometry": { "type": "Point", "coordinates": [ 130.4390788, 33.61628 ] } },
{ "type": "Feature", "properties": { "内容": "有限会社　プラスケア【特定福祉用具販売】福岡県福岡市東区松島3丁目22番6号第三正建ビル4号室", "url": "https://www.kaigokensaku.mhlw.go.jp/40/index.php?action_kouhyou_detail_004_kani=true&JigyosyoCd=4070800901-00&ServiceCd=410&Type=search", "url2": "pluscare2002.co.jp" }, "geometry": { "type": "Point", "coordinates": [ 130.439209, 33.6269597 ] } },
{ "type": "Feature", "properties": { "内容": "株式会社うらべ【特定福祉用具販売】福岡市東区東浜1丁目12番53号", "url": "https://www.kaigokensaku.mhlw.go.jp/40/index.php?action_kouhyou_detail_004_kani=true&JigyosyoCd=4070801891-00&ServiceCd=410&Type=search", "url2": "http://f‐urabe.com" }, "geometry": { "type": "Point", "coordinates": [ 130.412425100000064, 33.6135718 ] } },
{ "type": "Feature", "properties": { "内容": "有限会社　みやび【特定福祉用具販売】福岡市東区八田1-1-1-309", "url": "https://www.kaigokensaku.mhlw.go.jp/40/index.php?action_kouhyou_detail_004_kani=true&JigyosyoCd=4070801974-00&ServiceCd=410&Type=search", "url2": null }, "geometry": { "type": "Point", "coordinates": [ 130.455706382803328, 33.633057140960702 ] } },
{ "type": "Feature", "properties": { "内容": "株式会社　なんでも屋【特定福祉用具販売】福岡県福岡市東区蒲田２丁目２２番３８号", "url": "https://www.kaigokensaku.mhlw.go.jp/40/index.php?action_kouhyou_detail_004_kani=true&JigyosyoCd=4070803152-00&ServiceCd=410&Type=search", "url2": null }, "geometry": { "type": "Point", "coordinates": [ 130.486005, 33.6365648 ] } },
{ "type": "Feature", "properties": { "内容": "株式会社フロンティア　福岡営業所【特定福祉用具販売】福岡県福岡市東区箱崎ふ頭5-1-40センコー福岡第2PDｾﾝﾀｰ2階", "url": "https://www.kaigokensaku.mhlw.go.jp/40/index.php?action_kouhyou_detail_004_kani=true&JigyosyoCd=4070803574-00&ServiceCd=410&Type=search", "url2": "http://www－frontier-ph-com/homecare/" }, "geometry": { "type": "Point", "coordinates": [ 130.415116099999977, 33.6259704 ] } },
{ "type": "Feature", "properties": { "内容": "太陽シルバーサービス株式会社　福岡東営業所【特定福祉用具販売】福岡県福岡市東区松田３丁目２５－２", "url": "https://www.kaigokensaku.mhlw.go.jp/40/index.php?action_kouhyou_detail_004_kani=true&JigyosyoCd=4070803954-00&ServiceCd=410&Type=search", "url2": "http://www.taiyoss.co.jp/" }, "geometry": { "type": "Point", "coordinates": [ 130.4486197, 33.6189829 ] } },
{ "type": "Feature", "properties": { "内容": "株式会社　パイン【特定福祉用具販売】福岡県福岡市東区三苫7丁目1-9-1", "url": "https://www.kaigokensaku.mhlw.go.jp/40/index.php?action_kouhyou_detail_004_kani=true&JigyosyoCd=4070804325-00&ServiceCd=410&Type=search", "url2": "pine2008.co.jp/business/welfare" }, "geometry": { "type": "Point", "coordinates": [ 130.420071464858012, 33.703949062467345 ] } },
{ "type": "Feature", "properties": { "内容": "有限会社　アクア　福岡営業所【特定福祉用具販売】多の津1丁目11番4号", "url": "https://www.kaigokensaku.mhlw.go.jp/40/index.php?action_kouhyou_detail_004_kani=true&JigyosyoCd=4070804606-00&ServiceCd=410&Type=search", "url2": "https://aqua-care-support.jp/index.html" }, "geometry": { "type": "Point", "coordinates": [ 130.448972300000037, 33.626235 ] } },
{ "type": "Feature", "properties": { "内容": "九州医療サービス株式会社東部営業所【特定福祉用具販売】福岡県福岡市東区舞松原1丁目11番3号", "url": "https://www.kaigokensaku.mhlw.go.jp/40/index.php?action_kouhyou_detail_004_kani=true&JigyosyoCd=4070804721-00&ServiceCd=410&Type=search", "url2": null }, "geometry": { "type": "Point", "coordinates": [ 130.449424568299634, 33.639805351052033 ] } },
{ "type": "Feature", "properties": { "内容": "株式会社ナガヨシ　福岡営業所【特定福祉用具販売】福岡県東区筥松1丁目4番16号日高ビル", "url": "https://www.kaigokensaku.mhlw.go.jp/40/index.php?action_kouhyou_detail_004_kani=true&JigyosyoCd=4070805611-00&ServiceCd=410&Type=search", "url2": "https://www.nagayoshi.info/" }, "geometry": { "type": "Point", "coordinates": [ 130.4315327, 33.6164047 ] } },
{ "type": "Feature", "properties": { "内容": "株式会社　エヴァ【特定福祉用具販売】福岡県福岡市東区多の津1丁目10-2", "url": "https://www.kaigokensaku.mhlw.go.jp/40/index.php?action_kouhyou_detail_004_kani=true&JigyosyoCd=4070900578-00&ServiceCd=410&Type=search", "url2": "http://www.evah-care.jp/" }, "geometry": { "type": "Point", "coordinates": [ 130.44922972395625, 33.626363957746086 ] } },
{ "type": "Feature", "properties": { "内容": "介護ショップたたら【特定福祉用具販売】福岡市東区筥松２－２４－１９", "url": "https://www.kaigokensaku.mhlw.go.jp/40/index.php?action_kouhyou_detail_004_kani=true&JigyosyoCd=4070801347-00&ServiceCd=410&Type=search", "url2": "https://www.fhkph.co.jp/store/tatara" }, "geometry": { "type": "Point", "coordinates": [ 130.428634800000026, 33.6199242 ] } },
{ "type": "Feature", "properties": { "内容": "株式会社　新和メディカル福岡東営業所【特定福祉用具販売】福岡県福岡市東区三苫５丁目４－３０", "url": "https://www.kaigokensaku.mhlw.go.jp/40/index.php?action_kouhyou_detail_004_kani=true&JigyosyoCd=4070805959-00&ServiceCd=410&Type=search", "url2": "http://www.shinwamedical.com/content1.html" }, "geometry": { "type": "Point", "coordinates": [ 130.4208893, 33.703925 ] } },
{ "type": "Feature", "properties": { "内容": "介護の太助　福岡店【特定福祉用具販売】福岡県福岡市舞松原1-8-1コーポ舞松原102", "url": "https://www.kaigokensaku.mhlw.go.jp/40/index.php?action_kouhyou_detail_004_kani=true&JigyosyoCd=4070806213-00&ServiceCd=410&Type=search", "url2": "https://kaigo-tasuke.co.jp/" }, "geometry": { "type": "Point", "coordinates": [ 130.4500017, 33.6407188 ] } },
{ "type": "Feature", "properties": { "内容": "フランスベッド株式会社メディカル福岡営業所【特定福祉用具販売】福岡県福岡市東区原田3-9-8", "url": "https://www.kaigokensaku.mhlw.go.jp/40/index.php?action_kouhyou_detail_004_kani=true&JigyosyoCd=4070902541-00&ServiceCd=410&Type=search", "url2": "http://www.francebed.co.jp/" }, "geometry": { "type": "Point", "coordinates": [ 130.438987796897891, 33.623543119022123 ] } },
{ "type": "Feature", "properties": { "内容": "株式会社トーカイ　福岡営業所【特定福祉用具販売】福岡県福岡市東区多の津2丁目6番1号", "url": "https://www.kaigokensaku.mhlw.go.jp/40/index.php?action_kouhyou_detail_004_kani=true&JigyosyoCd=4070801586-00&ServiceCd=410&Type=search", "url2": "https://www.tokai-corp.com/" }, "geometry": { "type": "Point", "coordinates": [ 130.451044300000035, 33.6285071 ] } },
{ "type": "Feature", "properties": { "内容": "ＬＡｍｏｕｒ合同会社【特定福祉用具販売】福岡県福岡市博多区住吉2-15-10", "url": "https://www.kaigokensaku.mhlw.go.jp/40/index.php?action_kouhyou_detail_004_kani=true&JigyosyoCd=4070904943-00&ServiceCd=410&Type=search", "url2": null }, "geometry": { "type": "Point", "coordinates": [ 130.4119543, 33.5874702 ] } },
{ "type": "Feature", "properties": { "内容": "合同会社ICHIGOICHIE【特定福祉用具販売】比恵町１－１８東カン第二キャステール７１１", "url": "https://www.kaigokensaku.mhlw.go.jp/40/index.php?action_kouhyou_detail_004_kani=true&JigyosyoCd=4070904950-00&ServiceCd=410&Type=search", "url2": null }, "geometry": { "type": "Point", "coordinates": [ 130.4275098, 33.5840947 ] } },
{ "type": "Feature", "properties": { "内容": "ニチイケアセンターふくおか【特定福祉用具販売】福岡県福岡市博多区榎田１丁目7-37　２階", "url": "https://www.kaigokensaku.mhlw.go.jp/40/index.php?action_kouhyou_detail_004_kani=true&JigyosyoCd=4071000329-00&ServiceCd=410&Type=search", "url2": "http://www.nichii-kaigo.jp/base/base-result/05j77/" }, "geometry": { "type": "Point", "coordinates": [ 130.438172867303479, 33.595315115819382 ] } },
{ "type": "Feature", "properties": { "内容": "ケアコネクト【特定福祉用具販売】福岡県福岡市博多区諸岡5丁目23-6池の上ハイツ102号", "url": "https://www.kaigokensaku.mhlw.go.jp/40/index.php?action_kouhyou_detail_004_kani=true&JigyosyoCd=4070904661-00&ServiceCd=410&Type=search", "url2": "https://ch-connect.com/" }, "geometry": { "type": "Point", "coordinates": [ 130.448774556843972, 33.555133951434655 ] } },
{ "type": "Feature", "properties": { "内容": "セピア商事株式会社福祉機器事業部【特定福祉用具販売】福岡市博多区東那珂2-11-30", "url": "https://www.kaigokensaku.mhlw.go.jp/40/index.php?action_kouhyou_detail_004_kani=true&JigyosyoCd=4070900586-00&ServiceCd=410&Type=search", "url2": null }, "geometry": { "type": "Point", "coordinates": [ 130.447824795120226, 33.575812622860745 ] } },
{ "type": "Feature", "properties": { "内容": "レンタルケア・アシスト【特定福祉用具販売】金の隈3-23-30", "url": "https://www.kaigokensaku.mhlw.go.jp/40/index.php?action_kouhyou_detail_004_kani=true&JigyosyoCd=4070904067-00&ServiceCd=410&Type=search", "url2": null }, "geometry": { "type": "Point", "coordinates": [ 130.48011360000001, 33.5568504 ] } },
{ "type": "Feature", "properties": { "内容": "株式会社ケアリング福岡支店【特定福祉用具販売】福岡市博多区千代3丁目6-3千代大学通2階", "url": "https://www.kaigokensaku.mhlw.go.jp/40/index.php?action_kouhyou_detail_004_kani=true&JigyosyoCd=4070902269-00&ServiceCd=410&Type=search", "url2": "http://caring.jp" }, "geometry": { "type": "Point", "coordinates": [ 130.4117228, 33.6018564 ] } },
{ "type": "Feature", "properties": { "内容": "プロデュース株式会社【特定福祉用具販売】福岡市博多区東那珂２－６－２６", "url": "https://www.kaigokensaku.mhlw.go.jp/40/index.php?action_kouhyou_detail_004_kani=true&JigyosyoCd=4070902343-00&ServiceCd=410&Type=search", "url2": null }, "geometry": { "type": "Point", "coordinates": [ 130.4442712, 33.5780455 ] } },
{ "type": "Feature", "properties": { "内容": "ベストケア博多【特定福祉用具販売】福岡県福岡市博多区板付１丁目６－３", "url": "https://www.kaigokensaku.mhlw.go.jp/40/index.php?action_kouhyou_detail_004_kani=true&JigyosyoCd=4070902616-00&ServiceCd=410&Type=search", "url2": null }, "geometry": { "type": "Point", "coordinates": [ 130.44943509999996, 33.5691717 ] } },
{ "type": "Feature", "properties": { "内容": "株式会社　グット・リンク【特定福祉用具販売】福岡市博多区麦野2-16-18", "url": "https://www.kaigokensaku.mhlw.go.jp/40/index.php?action_kouhyou_detail_004_kani=true&JigyosyoCd=4070903374-00&ServiceCd=410&Type=search", "url2": null }, "geometry": { "type": "Point", "coordinates": [ 130.459174617196595, 33.556718436948621 ] } },
{ "type": "Feature", "properties": { "内容": "株式会社　介助　博多営業所【特定福祉用具販売】福岡県福岡市博多区吉塚5丁目11番5号", "url": "https://www.kaigokensaku.mhlw.go.jp/40/index.php?action_kouhyou_detail_004_kani=true&JigyosyoCd=4070904166-00&ServiceCd=410&Type=search", "url2": "http://www.kaisuke.co.jp/" }, "geometry": { "type": "Point", "coordinates": [ 130.430207399999972, 33.6045037 ] } },
{ "type": "Feature", "properties": { "内容": "株式会社ミタカ　福岡営業所【特定福祉用具販売】福岡市博多区昭南町３丁目４-２０", "url": "https://www.kaigokensaku.mhlw.go.jp/40/index.php?action_kouhyou_detail_004_kani=true&JigyosyoCd=4070904216-00&ServiceCd=410&Type=search", "url2": "http://www.t-mitaka.com" }, "geometry": { "type": "Point", "coordinates": [ 130.461873, 33.5378064 ] } },
{ "type": "Feature", "properties": { "内容": "株式会社サニクリーン九州　福祉用具サービス【特定福祉用具販売】福岡県福岡市博多区半道橋1-17-41", "url": "https://www.kaigokensaku.mhlw.go.jp/40/index.php?action_kouhyou_detail_004_kani=true&JigyosyoCd=4070904414-00&ServiceCd=410&Type=search", "url2": "http://www.skkyu.co.jp/" }, "geometry": { "type": "Point", "coordinates": [ 130.44044370000006, 33.5786648 ] } },
{ "type": "Feature", "properties": { "内容": "ケア・ルートサービス株式会社【特定福祉用具販売】福岡県福岡市博多区井相田1丁目10番40号", "url": "https://www.kaigokensaku.mhlw.go.jp/40/index.php?action_kouhyou_detail_004_kani=true&JigyosyoCd=4070904711-00&ServiceCd=410&Type=search", "url2": "http://www.careroot.co.jp" }, "geometry": { "type": "Point", "coordinates": [ 130.464343247052625, 33.557372480193926 ] } },
{ "type": "Feature", "properties": { "内容": "介福本舗　博多営業所【特定福祉用具販売】東那珂2丁目11番30号", "url": "https://www.kaigokensaku.mhlw.go.jp/40/index.php?action_kouhyou_detail_004_kani=true&JigyosyoCd=4070905197-00&ServiceCd=410&Type=search", "url2": "http://www.kaifukuhonpo.com/" }, "geometry": { "type": "Point", "coordinates": [ 130.447740399999986, 33.575786 ] } },
{ "type": "Feature", "properties": { "内容": "株式会社　ケイアイサービス【特定福祉用具販売】福岡県福岡市博多区上牟田1丁目11番25号ＫＩビル201", "url": "https://www.kaigokensaku.mhlw.go.jp/40/index.php?action_kouhyou_detail_004_kani=true&JigyosyoCd=4070903796-00&ServiceCd=410&Type=search", "url2": "http://www.kk-kis.jp" }, "geometry": { "type": "Point", "coordinates": [ 130.434243400000014, 33.5863272 ] } },
{ "type": "Feature", "properties": { "内容": "アップルハート福岡店【特定福祉用具販売】福岡市博多区井相田1-9-37オフィスパレア井相田C棟", "url": "https://www.kaigokensaku.mhlw.go.jp/40/index.php?action_kouhyou_detail_004_kani=true&JigyosyoCd=4073100028-00&ServiceCd=410&Type=search", "url2": "http://www.aso-group.co.jp/ams" }, "geometry": { "type": "Point", "coordinates": [ 130.462917400000038, 33.55869 ] } },
{ "type": "Feature", "properties": { "内容": "株式会社　みんなの介護サポート【特定福祉用具販売】福岡市博多区千代２丁目18-15", "url": "https://www.kaigokensaku.mhlw.go.jp/40/index.php?action_kouhyou_detail_004_kani=true&JigyosyoCd=4070804580-00&ServiceCd=410&Type=search", "url2": "http://min-support.com" }, "geometry": { "type": "Point", "coordinates": [ 130.413990600000034, 33.6004885 ] } },
{ "type": "Feature", "properties": { "内容": "生活ぷらす福岡支店【特定福祉用具販売】福岡県福岡市博多区博多駅前３丁目２９−１１小道ビル４階", "url": "https://www.kaigokensaku.mhlw.go.jp/40/index.php?action_kouhyou_detail_004_kani=true&JigyosyoCd=4070905361-00&ServiceCd=410&Type=search", "url2": null }, "geometry": { "type": "Point", "coordinates": [ 130.4137419, 33.5890916 ] } },
{ "type": "Feature", "properties": { "内容": "パナソニックエイジフリーショップ福岡中央【特定福祉用具販売】福岡県福岡市博多区諸岡２－６－２６", "url": "https://www.kaigokensaku.mhlw.go.jp/40/index.php?action_kouhyou_detail_004_kani=true&JigyosyoCd=4071002978-00&ServiceCd=410&Type=search", "url2": "http://sumai.panasonic.jp/agefree/" }, "geometry": { "type": "Point", "coordinates": [ 130.451421100000061, 33.559609 ] } },
{ "type": "Feature", "properties": { "内容": "あおぞらケアテクノロジー福岡【特定福祉用具販売】博多駅南6丁目13-21駅南ジェイティビル2F", "url": "https://www.kaigokensaku.mhlw.go.jp/40/index.php?action_kouhyou_detail_004_kani=true&JigyosyoCd=4070905387-00&ServiceCd=410&Type=search", "url2": "https://aozora-cg.com/" }, "geometry": { "type": "Point", "coordinates": [ 130.430062, 33.5758746 ] } },
{ "type": "Feature", "properties": { "内容": "ユーエイト【特定福祉用具販売】福岡県福岡市中央区伊崎3番12号", "url": "https://www.kaigokensaku.mhlw.go.jp/40/index.php?action_kouhyou_detail_004_kani=true&JigyosyoCd=4071003349-00&ServiceCd=410&Type=search", "url2": null }, "geometry": { "type": "Point", "coordinates": [ 130.37067, 33.5962017 ] } },
{ "type": "Feature", "properties": { "内容": "アトレ【特定福祉用具販売】福岡県福岡市中央区舞鶴３丁目2-31舞鶴栄光ビル502号室", "url": "https://www.kaigokensaku.mhlw.go.jp/40/index.php?action_kouhyou_detail_004_kani=true&JigyosyoCd=4071003463-00&ServiceCd=410&Type=search", "url2": null }, "geometry": { "type": "Point", "coordinates": [ 130.3882377, 33.5903044 ] } },
{ "type": "Feature", "properties": { "内容": "楽坊・介護ショップ【特定福祉用具販売】福岡県福岡市中央区清川1-3-1グッドタイムホーム4・南天神　1F", "url": "https://www.kaigokensaku.mhlw.go.jp/40/index.php?action_kouhyou_detail_004_kani=true&JigyosyoCd=4071003232-00&ServiceCd=410&Type=search", "url2": null }, "geometry": { "type": "Point", "coordinates": [ 130.408863099999962, 33.582378 ] } },
{ "type": "Feature", "properties": { "内容": "桜十字福祉用具【特定福祉用具販売】福岡市中央区渡辺通3-5-11桜十字メディカルスクエア", "url": "https://www.kaigokensaku.mhlw.go.jp/40/index.php?action_kouhyou_detail_004_kani=true&JigyosyoCd=4071002879-00&ServiceCd=410&Type=search", "url2": null }, "geometry": { "type": "Point", "coordinates": [ 130.4045542, 33.5852358 ] } },
{ "type": "Feature", "properties": { "内容": "株式会社　クレオ【特定福祉用具販売】福岡県福岡市中央区荒戸１丁目１番１６号", "url": "https://www.kaigokensaku.mhlw.go.jp/40/index.php?action_kouhyou_detail_004_kani=true&JigyosyoCd=4071002291-00&ServiceCd=410&Type=search", "url2": null }, "geometry": { "type": "Point", "coordinates": [ 130.37739780000004, 33.5905015 ] } },
{ "type": "Feature", "properties": { "内容": "福祉用具しんえい【特定福祉用具販売】福岡県福岡市中央区大名2丁目11番25号", "url": "https://www.kaigokensaku.mhlw.go.jp/40/index.php?action_kouhyou_detail_004_kani=true&JigyosyoCd=4071003380-00&ServiceCd=410&Type=search", "url2": "https://www.shin-ei-g.jp/fukushi/" }, "geometry": { "type": "Point", "coordinates": [ 130.3914433, 33.5901403 ] } },
{ "type": "Feature", "properties": { "内容": "西川株式会社／ネーブルハウス福岡事業所【特定福祉用具販売】天神1-14-4天神平和ビル1階", "url": "https://www.kaigokensaku.mhlw.go.jp/40/index.php?action_kouhyou_detail_004_kani=true&JigyosyoCd=4071003422-00&ServiceCd=410&Type=search", "url2": "https://nablehouse.co.jp" }, "geometry": { "type": "Point", "coordinates": [ 130.4009581, 33.5921101 ] } },
{ "type": "Feature", "properties": { "内容": "ケアサポート・ユッカ【特定福祉用具販売】福岡県福岡市中央区舞鶴2－1－10　天神フロントスクエア5階EF", "url": "https://www.kaigokensaku.mhlw.go.jp/40/index.php?action_kouhyou_detail_004_kani=true&JigyosyoCd=4071003729-00&ServiceCd=410&Type=search", "url2": null }, "geometry": { "type": "Point", "coordinates": [ 130.3917028, 33.5906736 ] } },
{ "type": "Feature", "properties": { "内容": "社会福祉法人グリーンコープ　グリーンコープふくし用品サポート福岡【特定福祉用具販売】唐人町3-2-2", "url": "https://www.kaigokensaku.mhlw.go.jp/40/index.php?action_kouhyou_detail_004_kani=true&JigyosyoCd=4071002622-00&ServiceCd=410&Type=search", "url2": "http://www.fukushi-greencoop.or.jp" }, "geometry": { "type": "Point", "coordinates": [ 130.3707297, 33.5929012 ] } },
{ "type": "Feature", "properties": { "内容": "ケアレンタル的場【特定福祉用具販売】福岡県福岡市南区的場2丁目22-15", "url": "https://www.kaigokensaku.mhlw.go.jp/40/index.php?action_kouhyou_detail_004_kani=true&JigyosyoCd=4071105615-00&ServiceCd=410&Type=search", "url2": null }, "geometry": { "type": "Point", "coordinates": [ 130.4329861, 33.5403758 ] } },
{ "type": "Feature", "properties": { "内容": "きくや介護事業部【特定福祉用具販売】大橋4-27-47", "url": "https://www.kaigokensaku.mhlw.go.jp/40/index.php?action_kouhyou_detail_004_kani=true&JigyosyoCd=4071101374-00&ServiceCd=410&Type=search", "url2": null }, "geometry": { "type": "Point", "coordinates": [ 130.427311800000012, 33.55417 ] } },
{ "type": "Feature", "properties": { "内容": "メディカルアシスト【特定福祉用具販売】福岡市南区野間2丁目7番1号", "url": "https://www.kaigokensaku.mhlw.go.jp/40/index.php?action_kouhyou_detail_004_kani=true&JigyosyoCd=4071103776-00&ServiceCd=410&Type=search", "url2": "https://www.miraizu.co.jp/ma/" }, "geometry": { "type": "Point", "coordinates": [ 130.415831799999978, 33.5613662 ] } },
{ "type": "Feature", "properties": { "内容": "としとランド福岡支店【特定福祉用具販売】福岡県福岡市南区塩原3丁目13番16号", "url": "https://www.kaigokensaku.mhlw.go.jp/40/index.php?action_kouhyou_detail_004_kani=true&JigyosyoCd=4071104709-00&ServiceCd=410&Type=search", "url2": null }, "geometry": { "type": "Point", "coordinates": [ 130.4274293, 33.5629721 ] } },
{ "type": "Feature", "properties": { "内容": "バリアフリータケウチ【特定福祉用具販売】大平寺2丁目8番13号", "url": "https://www.kaigokensaku.mhlw.go.jp/40/index.php?action_kouhyou_detail_004_kani=true&JigyosyoCd=4071102166-00&ServiceCd=410&Type=search", "url2": "http://www.sunoko-chouseikun.com" }, "geometry": { "type": "Point", "coordinates": [ 130.3913042, 33.5308358 ] } },
{ "type": "Feature", "properties": { "内容": "福祉用具　ひまわり【特定福祉用具販売】福岡市南区西長住1-8-2", "url": "https://www.kaigokensaku.mhlw.go.jp/40/index.php?action_kouhyou_detail_004_kani=true&JigyosyoCd=4071100426-00&ServiceCd=410&Type=search", "url2": "https://www.fukujincare.com/service/life.php#yougu" }, "geometry": { "type": "Point", "coordinates": [ 130.389225799999963, 33.553058900000011 ] } },
{ "type": "Feature", "properties": { "内容": "アクトヒューマンケア【特定福祉用具販売】老司２丁目6-36", "url": "https://www.kaigokensaku.mhlw.go.jp/40/index.php?action_kouhyou_detail_004_kani=true&JigyosyoCd=4071104030-00&ServiceCd=410&Type=search", "url2": "http://acthumancare.com/fukuoka/index.html" }, "geometry": { "type": "Point", "coordinates": [ 130.426101469311561, 33.532417833354401 ] } },
{ "type": "Feature", "properties": { "内容": "有限会社　アヴェイル【特定福祉用具販売】福岡市南区老司2丁目6-36-2", "url": "https://www.kaigokensaku.mhlw.go.jp/40/index.php?action_kouhyou_detail_004_kani=true&JigyosyoCd=4071104980-00&ServiceCd=410&Type=search", "url2": "https://avail.jimdofree.com/" }, "geometry": { "type": "Point", "coordinates": [ 130.426192664418068, 33.532668244618584 ] } },
{ "type": "Feature", "properties": { "内容": "福祉用具センター　かえで【特定福祉用具販売】福岡県福岡市南区三宅１丁目１５番１９号", "url": "https://www.kaigokensaku.mhlw.go.jp/40/index.php?action_kouhyou_detail_004_kani=true&JigyosyoCd=4071105177-00&ServiceCd=410&Type=search", "url2": null }, "geometry": { "type": "Point", "coordinates": [ 130.425489800000037, 33.551145300000016 ] } },
{ "type": "Feature", "properties": { "内容": "武翔【特定福祉用具販売】平和１丁目２番１８号", "url": "https://www.kaigokensaku.mhlw.go.jp/40/index.php?action_kouhyou_detail_004_kani=true&JigyosyoCd=4071105938-00&ServiceCd=410&Type=search", "url2": "take-show.jp" }, "geometry": { "type": "Point", "coordinates": [ 130.4007731, 33.571256 ] } },
{ "type": "Feature", "properties": { "内容": "株式会社　新和メディカル　福岡営業所【特定福祉用具販売】福岡県福岡市南区的場1丁目27-4", "url": "https://www.kaigokensaku.mhlw.go.jp/40/index.php?action_kouhyou_detail_004_kani=true&JigyosyoCd=4071100285-00&ServiceCd=410&Type=search", "url2": "http://shinwamedical.com/" }, "geometry": { "type": "Point", "coordinates": [ 130.434111499999972, 33.543441 ] } },
{ "type": "Feature", "properties": { "内容": "ダスキンヘルスレント博多南ステーション【特定福祉用具販売】福岡県福岡市南区横手２丁目７－２２", "url": "https://www.kaigokensaku.mhlw.go.jp/40/index.php?action_kouhyou_detail_004_kani=true&JigyosyoCd=4071102794-00&ServiceCd=410&Type=search", "url2": "http://healthrent.duskin.jp" }, "geometry": { "type": "Point", "coordinates": [ 130.436766496295149, 33.549044257129864 ] } },
{ "type": "Feature", "properties": { "内容": "株式会社ヤマシタ　福岡営業所【特定福祉用具販売】向野2-8-3", "url": "https://www.kaigokensaku.mhlw.go.jp/40/index.php?action_kouhyou_detail_004_kani=true&JigyosyoCd=4071106282-00&ServiceCd=410&Type=search", "url2": "https://www.yco.co.jp/" }, "geometry": { "type": "Point", "coordinates": [ 130.423788800000011, 33.5619114 ] } },
{ "type": "Feature", "properties": { "内容": "有限会社　建築　原田　福祉事業部【特定福祉用具販売】福岡県福岡市西区田尻二丁目33番6号", "url": "https://www.kaigokensaku.mhlw.go.jp/40/index.php?action_kouhyou_detail_004_kani=true&JigyosyoCd=4071201018-00&ServiceCd=410&Type=search", "url2": null }, "geometry": { "type": "Point", "coordinates": [ 130.246501712550298, 33.58211802230808 ] } },
{ "type": "Feature", "properties": { "内容": "プラスケア　西福岡【特定福祉用具販売】福岡県福岡市西区拾六町5丁目2番47号", "url": "https://www.kaigokensaku.mhlw.go.jp/40/index.php?action_kouhyou_detail_004_kani=true&JigyosyoCd=4071202388-00&ServiceCd=410&Type=search", "url2": "pluscare2002.co.jp" }, "geometry": { "type": "Point", "coordinates": [ 130.308422699999937, 33.5689399 ] } },
{ "type": "Feature", "properties": { "内容": "株式会社　介福本舗【特定福祉用具販売】小戸１丁目１６番２４号", "url": "https://www.kaigokensaku.mhlw.go.jp/40/index.php?action_kouhyou_detail_004_kani=true&JigyosyoCd=4071202743-00&ServiceCd=410&Type=search", "url2": "http://www.kaifukuhonpo.com/" }, "geometry": { "type": "Point", "coordinates": [ 130.318568759972493, 33.591045959424584 ] } },
{ "type": "Feature", "properties": { "内容": "エヴァ　福岡西【特定福祉用具販売】石丸2-27-21", "url": "https://www.kaigokensaku.mhlw.go.jp/40/index.php?action_kouhyou_detail_004_kani=true&JigyosyoCd=4071203386-00&ServiceCd=410&Type=search", "url2": null }, "geometry": { "type": "Point", "coordinates": [ 130.242968303704856, 33.57175694190974 ] } },
{ "type": "Feature", "properties": { "内容": "グランユニライフ・レンタルサービス【特定福祉用具販売】福岡県福岡市西区周船寺3-6-35グランヴィル鳳凰館福岡周船寺", "url": "https://www.kaigokensaku.mhlw.go.jp/40/index.php?action_kouhyou_detail_004_kani=true&JigyosyoCd=4071203816-00&ServiceCd=410&Type=search", "url2": null }, "geometry": { "type": "Point", "coordinates": [ 130.249093600000037, 33.574239400000032 ] } },
{ "type": "Feature", "properties": { "内容": "涼風ケア【特定福祉用具販売】拾六町2-4-1", "url": "https://www.kaigokensaku.mhlw.go.jp/40/index.php?action_kouhyou_detail_004_kani=true&JigyosyoCd=4071204087-00&ServiceCd=410&Type=search", "url2": null }, "geometry": { "type": "Point", "coordinates": [ 130.3108436, 33.5671569 ] } },
{ "type": "Feature", "properties": { "内容": "株式会社　新和メディカル　福岡西営業所【特定福祉用具販売】福岡県福岡市西区下山門１丁目20-4　3号室Lab.meinohama３号室", "url": "https://www.kaigokensaku.mhlw.go.jp/40/index.php?action_kouhyou_detail_004_kani=true&JigyosyoCd=4071204194-00&ServiceCd=410&Type=search", "url2": "http://shinwamedical.com/" }, "geometry": { "type": "Point", "coordinates": [ 130.316769, 33.5785391 ] } },
{ "type": "Feature", "properties": { "内容": "九州医療サ－ビス株式会社福岡本部【特定福祉用具販売】福岡県福岡市西区福重2-2-44", "url": "https://www.kaigokensaku.mhlw.go.jp/40/index.php?action_kouhyou_detail_004_kani=true&JigyosyoCd=4071403168-00&ServiceCd=410&Type=search", "url2": null }, "geometry": { "type": "Point", "coordinates": [ 130.320378441923225, 33.567770493689039 ] } },
{ "type": "Feature", "properties": { "内容": "ダスキンヘルスレント福岡西ステーション【特定福祉用具販売】福岡県福岡市西区今宿東1丁目20-3", "url": "https://www.kaigokensaku.mhlw.go.jp/40/index.php?action_kouhyou_detail_004_kani=true&JigyosyoCd=4071201372-00&ServiceCd=410&Type=search", "url2": "https://healthrent.duskin.jp" }, "geometry": { "type": "Point", "coordinates": [ 130.2746693, 33.5727807 ] } },
{ "type": "Feature", "properties": { "内容": "ベストケア西福岡【特定福祉用具販売】横浜3丁目36-3", "url": "https://www.kaigokensaku.mhlw.go.jp/40/index.php?action_kouhyou_detail_004_kani=true&JigyosyoCd=4071203865-00&ServiceCd=410&Type=search", "url2": "http://evahlife.jp/" }, "geometry": { "type": "Point", "coordinates": [ 130.259559099999933, 33.5815524 ] } },
{ "type": "Feature", "properties": { "内容": "株式会社　クローバー【特定福祉用具販売】福岡市城南区東油山2-3-3", "url": "https://www.kaigokensaku.mhlw.go.jp/40/index.php?action_kouhyou_detail_004_kani=true&JigyosyoCd=4071300364-00&ServiceCd=410&Type=search", "url2": "http://www.clover-w.co.jp" }, "geometry": { "type": "Point", "coordinates": [ 130.3800664628709, 33.539556448259255 ] } },
{ "type": "Feature", "properties": { "内容": "株式会社　ハミングバード【特定福祉用具販売】福岡県福岡市城南区堤2-20-6", "url": "https://www.kaigokensaku.mhlw.go.jp/40/index.php?action_kouhyou_detail_004_kani=true&JigyosyoCd=4071302642-00&ServiceCd=410&Type=search", "url2": "https://hbird.co.jp/" }, "geometry": { "type": "Point", "coordinates": [ 130.380470300000013, 33.542408700000017 ] } },
{ "type": "Feature", "properties": { "内容": "ルミナス福祉用具レンタル・販売【特定福祉用具販売】堤1-30-1", "url": "https://www.kaigokensaku.mhlw.go.jp/40/index.php?action_kouhyou_detail_004_kani=true&JigyosyoCd=4071303038-00&ServiceCd=410&Type=search", "url2": null }, "geometry": { "type": "Point", "coordinates": [ 130.3804943, 33.5448568 ] } },
{ "type": "Feature", "properties": { "内容": "有限会社ハートフル【特定福祉用具販売】福岡市早良区西新3-7-11-110西南ハイツ", "url": "https://www.kaigokensaku.mhlw.go.jp/40/index.php?action_kouhyou_detail_004_kani=true&JigyosyoCd=4071400750-00&ServiceCd=410&Type=search", "url2": "https://www.ha10ful.com" }, "geometry": { "type": "Point", "coordinates": [ 130.359054900000046, 33.5848768 ] } },
{ "type": "Feature", "properties": { "内容": "スター福祉用具センター【特定福祉用具販売】福岡市早良区原4丁目21番8号", "url": "https://www.kaigokensaku.mhlw.go.jp/40/index.php?action_kouhyou_detail_004_kani=true&JigyosyoCd=4071402137-00&ServiceCd=410&Type=search", "url2": "https://sf-kaigo.com/" }, "geometry": { "type": "Point", "coordinates": [ 130.338871596047966, 33.568236377994722 ] } },
{ "type": "Feature", "properties": { "内容": "タイヘイM&C福岡西営業所【特定福祉用具販売】福岡県福岡市早良区東入部6丁目16-8", "url": "https://www.kaigokensaku.mhlw.go.jp/40/index.php?action_kouhyou_detail_004_kani=true&JigyosyoCd=4071403242-00&ServiceCd=410&Type=search", "url2": "http://www.taihei-group.jp/" }, "geometry": { "type": "Point", "coordinates": [ 130.335475, 33.5196302 ] } },
{ "type": "Feature", "properties": { "内容": "株式会社　トーカイ福岡西営業所【特定福祉用具販売】福岡県福岡市早良区重留4丁目2番68号タツノコベースＡ号室", "url": "https://www.kaigokensaku.mhlw.go.jp/40/index.php?action_kouhyou_detail_004_kani=true&JigyosyoCd=4071405288-00&ServiceCd=410&Type=search", "url2": "www.tokai-corp.com" }, "geometry": { "type": "Point", "coordinates": [ 130.340920399999987, 33.530866 ] } },
{ "type": "Feature", "properties": { "内容": "太陽シルバーサービス株式会社　福岡西営業所【特定福祉用具販売】福岡県福岡市早良区小田部4丁目11-31", "url": "https://www.kaigokensaku.mhlw.go.jp/40/index.php?action_kouhyou_detail_004_kani=true&JigyosyoCd=4073500615-00&ServiceCd=410&Type=search", "url2": "http://www.taiyoss.co.jp" }, "geometry": { "type": "Point", "coordinates": [ 130.3292573, 33.5661014 ] } },
{ "type": "Feature", "properties": { "内容": "フランスベッド株式会社メディカル福岡西営業所【特定福祉用具販売】福岡県福岡市早良区西新5-15-51ホワイティ西新Ⅱ　101号室", "url": "https://www.kaigokensaku.mhlw.go.jp/40/index.php?action_kouhyou_detail_004_kani=true&JigyosyoCd=4071404026-00&ServiceCd=410&Type=search", "url2": "http://www.francebed.co.jp" }, "geometry": { "type": "Point", "coordinates": [ 130.355469099999937, 33.5824631 ] } },
{ "type": "Feature", "properties": { "内容": "C-PLUS福岡【特定福祉用具販売】福岡県福岡市早良区重留6-6-10", "url": "https://www.kaigokensaku.mhlw.go.jp/40/index.php?action_kouhyou_detail_004_kani=true&JigyosyoCd=4071405411-00&ServiceCd=410&Type=search", "url2": null }, "geometry": { "type": "Point", "coordinates": [ 130.339036599999986, 33.5304241 ] } },
{ "type": "Feature", "properties": { "内容": "パナソニックエイジフリーショップ大牟田【特定福祉用具販売】福岡県大牟田市大正町４丁目３番５西駅コーポ", "url": "https://www.kaigokensaku.mhlw.go.jp/40/index.php?action_kouhyou_detail_004_kani=true&JigyosyoCd=4071502712-00&ServiceCd=410&Type=search", "url2": null }, "geometry": { "type": "Point", "coordinates": [ 130.4409799, 33.0302092 ] } },
{ "type": "Feature", "properties": { "内容": "サンステップ　大牟田店　福祉用具貸与事業部【特定福祉用具販売】大牟田市不知火町1丁目5-4", "url": "https://www.kaigokensaku.mhlw.go.jp/40/index.php?action_kouhyou_detail_004_kani=true&JigyosyoCd=4071502001-00&ServiceCd=410&Type=search", "url2": "http://sun-step.co.jp/" }, "geometry": { "type": "Point", "coordinates": [ 130.446445839315771, 33.02871365459518 ] } },
{ "type": "Feature", "properties": { "内容": "株式会社　西日本医療センター【特定福祉用具販売】大牟田市不知火町2丁目10番地の7", "url": "https://www.kaigokensaku.mhlw.go.jp/40/index.php?action_kouhyou_detail_004_kani=true&JigyosyoCd=4071500401-00&ServiceCd=410&Type=search", "url2": "http://n-m-c.info" }, "geometry": { "type": "Point", "coordinates": [ 130.443851900000027, 33.0265652 ] } },
{ "type": "Feature", "properties": { "内容": "株式会社　快援隊介臨丸【特定福祉用具販売】福岡県大牟田市右京町２１番地１", "url": "https://www.kaigokensaku.mhlw.go.jp/40/index.php?action_kouhyou_detail_004_kani=true&JigyosyoCd=4071502613-00&ServiceCd=410&Type=search", "url2": "https://www.kairinmaru.co.jp" }, "geometry": { "type": "Point", "coordinates": [ 130.440193799999946, 33.0177076 ] } },
{ "type": "Feature", "properties": { "内容": "太陽シルバーサービス株式会社　大牟田営業所【特定福祉用具販売】大牟田市歴木446-1", "url": "https://www.kaigokensaku.mhlw.go.jp/40/index.php?action_kouhyou_detail_004_kani=true&JigyosyoCd=4071502449-00&ServiceCd=410&Type=search", "url2": "http://www.taiyoss.co.jp" }, "geometry": { "type": "Point", "coordinates": [ 130.475330100000065, 33.045211 ] } },
{ "type": "Feature", "properties": { "内容": "株式会社Ｓａｉｔａ【特定福祉用具販売】福岡県大牟田市久保田町2丁目2番地-5", "url": "https://www.kaigokensaku.mhlw.go.jp/40/index.php?action_kouhyou_detail_004_kani=true&JigyosyoCd=4071503066-00&ServiceCd=410&Type=search", "url2": null }, "geometry": { "type": "Point", "coordinates": [ 130.441893916074036, 33.027795587258552 ] } },
{ "type": "Feature", "properties": { "内容": "株式会社トーカイ　大牟田営業所【特定福祉用具販売】福岡県大牟田市大正町4丁目3番地５西駅ｺｰﾎﾟ", "url": "https://www.kaigokensaku.mhlw.go.jp/40/index.php?action_kouhyou_detail_004_kani=true&JigyosyoCd=4071503918-00&ServiceCd=410&Type=search", "url2": "http://www.tokai-corp.com/" }, "geometry": { "type": "Point", "coordinates": [ 130.440988899999979, 33.030199700000018 ] } },
{ "type": "Feature", "properties": { "内容": "ネクストプラス【特定福祉用具販売】福岡県久留米市中央町35番地18", "url": "https://www.kaigokensaku.mhlw.go.jp/40/index.php?action_kouhyou_detail_004_kani=true&JigyosyoCd=4071607479-00&ServiceCd=410&Type=search", "url2": "https://skymedical.jp/" }, "geometry": { "type": "Point", "coordinates": [ 130.5092237, 33.3174774 ] } },
{ "type": "Feature", "properties": { "内容": "アイエイレンタルサービス【特定福祉用具販売】福岡県久留米市津福本町1249-1", "url": "https://www.kaigokensaku.mhlw.go.jp/40/index.php?action_kouhyou_detail_004_kani=true&JigyosyoCd=4071604237-00&ServiceCd=410&Type=search", "url2": null }, "geometry": { "type": "Point", "coordinates": [ 130.5011371, 33.3035847 ] } },
{ "type": "Feature", "properties": { "内容": "株式会社すけっと　久留米営業所【特定福祉用具販売】御井旗崎5丁目3番地10", "url": "https://www.kaigokensaku.mhlw.go.jp/40/index.php?action_kouhyou_detail_004_kani=true&JigyosyoCd=4071607834-00&ServiceCd=410&Type=search", "url2": null }, "geometry": { "type": "Point", "coordinates": [ 130.5633919, 33.3148629 ] } },
{ "type": "Feature", "properties": { "内容": "Ｃｈｅｚ　Ｍｏｉ　福祉用具サ－ビス【特定福祉用具販売】東町３７－８", "url": "https://www.kaigokensaku.mhlw.go.jp/40/index.php?action_kouhyou_detail_004_kani=true&JigyosyoCd=4071604674-00&ServiceCd=410&Type=search", "url2": null }, "geometry": { "type": "Point", "coordinates": [ 130.5202554, 33.3134981 ] } },
{ "type": "Feature", "properties": { "内容": "有限会社アルブ【特定福祉用具販売】福岡県久留米市通町103-15", "url": "https://www.kaigokensaku.mhlw.go.jp/40/index.php?action_kouhyou_detail_004_kani=true&JigyosyoCd=4071600193-00&ServiceCd=410&Type=search", "url2": "https://www.arubu.com/" }, "geometry": { "type": "Point", "coordinates": [ 130.516264, 33.31637 ] } },
{ "type": "Feature", "properties": { "内容": "株式会社ｴｳﾞｧ・ﾗｲﾌ　ﾍﾞｽﾄｹｱ善導寺【特定福祉用具販売】福岡県久留米市善導寺町木塚446-4株式会社ｴｳﾞｧ・ﾗｲﾌ　ﾍﾞｽﾄｹｱ善導寺", "url": "https://www.kaigokensaku.mhlw.go.jp/40/index.php?action_kouhyou_detail_004_kani=true&JigyosyoCd=4071605788-00&ServiceCd=410&Type=search", "url2": "http://evahlife.jp/" }, "geometry": { "type": "Point", "coordinates": [ 130.598849500000028, 33.321254 ] } },
{ "type": "Feature", "properties": { "内容": "有限会社　アクア　久留米営業所【特定福祉用具販売】福岡県久留米市東合川7丁目10番33号", "url": "https://www.kaigokensaku.mhlw.go.jp/40/index.php?action_kouhyou_detail_004_kani=true&JigyosyoCd=4071607420-00&ServiceCd=410&Type=search", "url2": "https://aqua-care-support.jp/" }, "geometry": { "type": "Point", "coordinates": [ 130.55447190000001, 33.3227512 ] } },
{ "type": "Feature", "properties": { "内容": "ダスキンヘルスレント久留米ステーション【特定福祉用具販売】福岡県久留米市梅満町1594-1", "url": "https://www.kaigokensaku.mhlw.go.jp/40/index.php?action_kouhyou_detail_004_kani=true&JigyosyoCd=4071602769-00&ServiceCd=410&Type=search", "url2": "htt://healthrent.duskin.jp/" }, "geometry": { "type": "Point", "coordinates": [ 130.493114127786953, 33.306654128730216 ] } },
{ "type": "Feature", "properties": { "内容": "九州ホームケアサービス　株式会社【特定福祉用具販売】久留米市御井町1684-9", "url": "https://www.kaigokensaku.mhlw.go.jp/40/index.php?action_kouhyou_detail_004_kani=true&JigyosyoCd=4071600482-00&ServiceCd=410&Type=search", "url2": "http://k-ｈomecare.co.jp" }, "geometry": { "type": "Point", "coordinates": [ 130.5498533, 33.3074354 ] } },
{ "type": "Feature", "properties": { "内容": "株式会社　クローバー　久留米営業所【特定福祉用具販売】福岡県久留米市山本町豊田80番地5", "url": "https://www.kaigokensaku.mhlw.go.jp/40/index.php?action_kouhyou_detail_004_kani=true&JigyosyoCd=4071606364-00&ServiceCd=410&Type=search", "url2": "hpp://www.clover-w.co.jp/" }, "geometry": { "type": "Point", "coordinates": [ 130.553367, 33.3139932 ] } },
{ "type": "Feature", "properties": { "内容": "エヴァ久留米【特定福祉用具販売】福岡県久留米津福今町458番地5津福今町田中店舗", "url": "https://www.kaigokensaku.mhlw.go.jp/40/index.php?action_kouhyou_detail_004_kani=true&JigyosyoCd=4071606976-00&ServiceCd=410&Type=search", "url2": "https://www.evah-care.jp/" }, "geometry": { "type": "Point", "coordinates": [ 130.499569880377805, 33.292800984749725 ] } },
{ "type": "Feature", "properties": { "内容": "タイヘイＭ＆Ｃ久留米営業所【特定福祉用具販売】福岡県久留米市梅満町1610-1", "url": "https://www.kaigokensaku.mhlw.go.jp/40/index.php?action_kouhyou_detail_004_kani=true&JigyosyoCd=4071600441-00&ServiceCd=410&Type=search", "url2": "http://www.taihei-group.jp/" }, "geometry": { "type": "Point", "coordinates": [ 130.49425210000004, 33.3072151 ] } },
{ "type": "Feature", "properties": { "内容": "ケアサポート九州【特定福祉用具販売】久留米市国分町1437-1", "url": "https://www.kaigokensaku.mhlw.go.jp/40/index.php?action_kouhyou_detail_004_kani=true&JigyosyoCd=4071605051-00&ServiceCd=410&Type=search", "url2": "care-support.kurume@pony.ocn.ne.jp" }, "geometry": { "type": "Point", "coordinates": [ 130.529890883035705, 33.299727298647497 ] } },
{ "type": "Feature", "properties": { "内容": "ももゆめレンタルサービス【特定福祉用具販売】福岡県久留米市三潴町玉満3061-1-101", "url": "https://www.kaigokensaku.mhlw.go.jp/40/index.php?action_kouhyou_detail_004_kani=true&JigyosyoCd=4071607529-00&ServiceCd=410&Type=search", "url2": null }, "geometry": { "type": "Point", "coordinates": [ 130.4624537, 33.2521075 ] } },
{ "type": "Feature", "properties": { "内容": "介臨丸　久留米営業所【特定福祉用具販売】福岡県久留米市山川安居野3丁目14-13ｵﾌｨｽﾊﾟﾚｱ久留米IV　4号室", "url": "https://www.kaigokensaku.mhlw.go.jp/40/index.php?action_kouhyou_detail_004_kani=true&JigyosyoCd=4071607446-00&ServiceCd=410&Type=search", "url2": "https://www.kairinmaru.co.jp" }, "geometry": { "type": "Point", "coordinates": [ 130.5722427, 33.3157872 ] } },
{ "type": "Feature", "properties": { "内容": "西日本介護サービス株式会社【特定福祉用具販売】久留米市花畑２丁目１５－５", "url": "https://www.kaigokensaku.mhlw.go.jp/40/index.php?action_kouhyou_detail_004_kani=true&JigyosyoCd=4071600102-00&ServiceCd=410&Type=search", "url2": "http://www.nkaigo.co.jp" }, "geometry": { "type": "Point", "coordinates": [ 130.516863899999947, 33.3066958 ] } },
{ "type": "Feature", "properties": { "内容": "ベストケア久留米【特定福祉用具販売】久留米市御井旗崎4丁目4番37号", "url": "https://www.kaigokensaku.mhlw.go.jp/40/index.php?action_kouhyou_detail_004_kani=true&JigyosyoCd=4071603643-00&ServiceCd=410&Type=search", "url2": "http://evahlife.jp/" }, "geometry": { "type": "Point", "coordinates": [ 130.564332799999988, 33.3166791 ] } },
{ "type": "Feature", "properties": { "内容": "株式会社ビッグ・リバー【特定福祉用具販売】福岡県久留米市安武町住吉1364-1", "url": "https://www.kaigokensaku.mhlw.go.jp/40/index.php?action_kouhyou_detail_004_kani=true&JigyosyoCd=4071606166-00&ServiceCd=410&Type=search", "url2": null }, "geometry": { "type": "Point", "coordinates": [ 130.471964104002922, 33.28466299695863 ] } },
{ "type": "Feature", "properties": { "内容": "福祉用具Atlas【特定福祉用具販売】福岡県久留米市荒木町白口2324-3古賀第二ビル104", "url": "https://www.kaigokensaku.mhlw.go.jp/40/index.php?action_kouhyou_detail_004_kani=true&JigyosyoCd=4071607099-00&ServiceCd=410&Type=search", "url2": null }, "geometry": { "type": "Point", "coordinates": [ 130.4992962, 33.2753062 ] } },
{ "type": "Feature", "properties": { "内容": "ケアショップライフ朋【特定福祉用具販売】福岡県久留米市国分町1323-1", "url": "https://www.kaigokensaku.mhlw.go.jp/40/index.php?action_kouhyou_detail_004_kani=true&JigyosyoCd=4071607461-00&ServiceCd=410&Type=search", "url2": null }, "geometry": { "type": "Point", "coordinates": [ 130.5342169, 33.2995431 ] } },
{ "type": "Feature", "properties": { "内容": "かぶしきがいしゃまるこ　ふくしようぐじぎょうぶ【特定福祉用具販売】福岡県久留米市宮ノ陣4丁目30番5号", "url": "https://www.kaigokensaku.mhlw.go.jp/40/index.php?action_kouhyou_detail_004_kani=true&JigyosyoCd=4071604823-00&ServiceCd=410&Type=search", "url2": "https://marco-hc.co.jp/" }, "geometry": { "type": "Point", "coordinates": [ 130.5388206, 33.3334742 ] } },
{ "type": "Feature", "properties": { "内容": "株式会社　シルバーメイト【特定福祉用具販売】福岡県久留米市東合川７丁目１３番５５号", "url": "https://www.kaigokensaku.mhlw.go.jp/40/index.php?action_kouhyou_detail_004_kani=true&JigyosyoCd=4071600169-00&ServiceCd=410&Type=search", "url2": "silver-mate.jp" }, "geometry": { "type": "Point", "coordinates": [ 130.554875199999969, 33.3220453 ] } },
{ "type": "Feature", "properties": { "内容": "九州介護用品サービス【特定福祉用具販売】福岡県久留米市松ヶ枝町52-1", "url": "https://www.kaigokensaku.mhlw.go.jp/40/index.php?action_kouhyou_detail_004_kani=true&JigyosyoCd=4071600763-00&ServiceCd=410&Type=search", "url2": null }, "geometry": { "type": "Point", "coordinates": [ 130.504652070500185, 33.312028526092639 ] } },
{ "type": "Feature", "properties": { "内容": "株式会社スカイメディカルナーシング【特定福祉用具販売】福岡県久留米市中央町35-18", "url": "https://www.kaigokensaku.mhlw.go.jp/40/index.php?action_kouhyou_detail_004_kani=true&JigyosyoCd=4071607966-00&ServiceCd=410&Type=search", "url2": "https://skymedical.jp/" }, "geometry": { "type": "Point", "coordinates": [ 130.5092401, 33.3174717 ] } },
{ "type": "Feature", "properties": { "内容": "有限会社　直方メディカルサービス【特定福祉用具販売】福岡県直方市知古７９８番地１", "url": "https://www.kaigokensaku.mhlw.go.jp/40/index.php?action_kouhyou_detail_004_kani=true&JigyosyoCd=4071700068-00&ServiceCd=410&Type=search", "url2": "http://www.nogata-medical.com/" }, "geometry": { "type": "Point", "coordinates": [ 130.721262799999977, 33.7613179 ] } },
{ "type": "Feature", "properties": { "内容": "株式会社介護サービスわかば【特定福祉用具販売】福岡県直方市新町3丁目3番10号ここちビル2階", "url": "https://www.kaigokensaku.mhlw.go.jp/40/index.php?action_kouhyou_detail_004_kani=true&JigyosyoCd=4071700688-00&ServiceCd=410&Type=search", "url2": "http://www.q-san.co.jp/wakaba" }, "geometry": { "type": "Point", "coordinates": [ 130.726585592590396, 33.737379481175694 ] } },
{ "type": "Feature", "properties": { "内容": "株式会社きのした【特定福祉用具販売】福岡県飯塚市小正444-8", "url": "https://www.kaigokensaku.mhlw.go.jp/40/index.php?action_kouhyou_detail_004_kani=true&JigyosyoCd=4071803615-00&ServiceCd=410&Type=search", "url2": null }, "geometry": { "type": "Point", "coordinates": [ 130.662772600000039, 33.6292224 ] } },
{ "type": "Feature", "properties": { "内容": "ベストケア飯塚【特定福祉用具販売】福岡県飯塚市若菜256-124", "url": "https://www.kaigokensaku.mhlw.go.jp/40/index.php?action_kouhyou_detail_004_kani=true&JigyosyoCd=4071803433-00&ServiceCd=410&Type=search", "url2": null }, "geometry": { "type": "Point", "coordinates": [ 130.671385800000053, 33.6295615 ] } },
{ "type": "Feature", "properties": { "内容": "神崎建設（株）ゆーゆー福祉レンタル【特定福祉用具販売】飯塚市川島50", "url": "https://www.kaigokensaku.mhlw.go.jp/40/index.php?action_kouhyou_detail_004_kani=true&JigyosyoCd=4071800512-00&ServiceCd=410&Type=search", "url2": null }, "geometry": { "type": "Point", "coordinates": [ 130.69275540000001, 33.6541593 ] } },
{ "type": "Feature", "properties": { "内容": "株式会社クローバー飯塚営業所【特定福祉用具販売】福岡県飯塚市川津710", "url": "https://www.kaigokensaku.mhlw.go.jp/40/index.php?action_kouhyou_detail_004_kani=true&JigyosyoCd=4071803904-00&ServiceCd=410&Type=search", "url2": "http://www.clover-w.co.jp/company/" }, "geometry": { "type": "Point", "coordinates": [ 130.6824785, 33.6533771 ] } },
{ "type": "Feature", "properties": { "内容": "らそうむ福祉用具センター【特定福祉用具販売】福岡県飯塚市鯰田2425番地206", "url": "https://www.kaigokensaku.mhlw.go.jp/40/index.php?action_kouhyou_detail_004_kani=true&JigyosyoCd=4071803425-00&ServiceCd=410&Type=search", "url2": null }, "geometry": { "type": "Point", "coordinates": [ 130.6982887, 33.655862200000016 ] } },
{ "type": "Feature", "properties": { "内容": "株式会社　ワイエス【特定福祉用具販売】福岡県飯塚市大日寺８８６番地２０", "url": "https://www.kaigokensaku.mhlw.go.jp/40/index.php?action_kouhyou_detail_004_kani=true&JigyosyoCd=4071802294-00&ServiceCd=410&Type=search", "url2": "http://www.yskyushu.com" }, "geometry": { "type": "Point", "coordinates": [ 130.640928534489063, 33.642445194005376 ] } },
{ "type": "Feature", "properties": { "内容": "太陽シルバーサービス株式会社飯塚営業所【特定福祉用具販売】福岡県飯塚市枝国510番地7", "url": "https://www.kaigokensaku.mhlw.go.jp/40/index.php?action_kouhyou_detail_004_kani=true&JigyosyoCd=4071804183-00&ServiceCd=410&Type=search", "url2": "https://taiyoss.co.jp/" }, "geometry": { "type": "Point", "coordinates": [ 130.671936100000011, 33.6345663 ] } },
{ "type": "Feature", "properties": { "内容": "麻生メディカルサービス株式会社【特定福祉用具販売】福岡県飯塚市新飯塚18-5", "url": "https://www.kaigokensaku.mhlw.go.jp/40/index.php?action_kouhyou_detail_004_kani=true&JigyosyoCd=4071800165-00&ServiceCd=410&Type=search", "url2": "http://www.aso-group.co.jp/ams" }, "geometry": { "type": "Point", "coordinates": [ 130.690838623330848, 33.643106290044457 ] } },
{ "type": "Feature", "properties": { "内容": "有限会社スキップ【特定福祉用具販売】福岡県飯塚市有井352番地8", "url": "https://www.kaigokensaku.mhlw.go.jp/40/index.php?action_kouhyou_detail_004_kani=true&JigyosyoCd=4071801171-00&ServiceCd=410&Type=search", "url2": "https://skip-kaigo.com" }, "geometry": { "type": "Point", "coordinates": [ 130.720698699999957, 33.6461853 ] } },
{ "type": "Feature", "properties": { "内容": "福祉用具おおつか飯塚営業所【特定福祉用具販売】福岡県飯塚市忠隈503-2", "url": "https://www.kaigokensaku.mhlw.go.jp/40/index.php?action_kouhyou_detail_004_kani=true&JigyosyoCd=4071804324-00&ServiceCd=410&Type=search", "url2": "https://otsuka-we.jp/" }, "geometry": { "type": "Point", "coordinates": [ 130.6816359, 33.6190893 ] } },
{ "type": "Feature", "properties": { "内容": "有限会社マイルド薬局　介護ショップマイルド【特定福祉用具販売】福岡県飯塚市鯰田２３５９番地２", "url": "https://www.kaigokensaku.mhlw.go.jp/40/index.php?action_kouhyou_detail_004_kani=true&JigyosyoCd=4071800389-00&ServiceCd=410&Type=search", "url2": null }, "geometry": { "type": "Point", "coordinates": [ 130.698460599999947, 33.6581838 ] } },
{ "type": "Feature", "properties": { "内容": "くらし製作所【特定福祉用具販売】福岡県飯塚市川津77番地2キュート舞の浦1F", "url": "https://www.kaigokensaku.mhlw.go.jp/40/index.php?action_kouhyou_detail_004_kani=true&JigyosyoCd=4071804563-00&ServiceCd=410&Type=search", "url2": null }, "geometry": { "type": "Point", "coordinates": [ 130.6817843, 33.6559741 ] } },
{ "type": "Feature", "properties": { "内容": "暖家の丘福祉用具サービス【特定福祉用具販売】福岡県田川市大字糒824-20", "url": "https://www.kaigokensaku.mhlw.go.jp/40/index.php?action_kouhyou_detail_004_kani=true&JigyosyoCd=4071901237-00&ServiceCd=410&Type=search", "url2": "https://dankenooka.net" }, "geometry": { "type": "Point", "coordinates": [ 130.805494, 33.6566753 ] } },
{ "type": "Feature", "properties": { "内容": "ドリーム福祉用具センター【特定福祉用具販売】福岡県田川市大字糒1789番地1", "url": "https://www.kaigokensaku.mhlw.go.jp/40/index.php?action_kouhyou_detail_004_kani=true&JigyosyoCd=4071901609-00&ServiceCd=410&Type=search", "url2": null }, "geometry": { "type": "Point", "coordinates": [ 130.801956082265662, 33.662570788944222 ] } },
{ "type": "Feature", "properties": { "内容": "有限会社　ハ－トフルはしもと【特定福祉用具販売】福岡県田川市桜町13番36号", "url": "https://www.kaigokensaku.mhlw.go.jp/40/index.php?action_kouhyou_detail_004_kani=true&JigyosyoCd=4071900122-00&ServiceCd=410&Type=search", "url2": "http://heartfull-hashimoto.jp/" }, "geometry": { "type": "Point", "coordinates": [ 130.79590410000003, 33.6366154 ] } },
{ "type": "Feature", "properties": { "内容": "福祉用具あえる【特定福祉用具販売】福岡県田川市大字夏吉3062番地1", "url": "https://www.kaigokensaku.mhlw.go.jp/40/index.php?action_kouhyou_detail_004_kani=true&JigyosyoCd=4071903225-00&ServiceCd=410&Type=search", "url2": null }, "geometry": { "type": "Point", "coordinates": [ 130.809489570500176, 33.674854436687035 ] } },
{ "type": "Feature", "properties": { "内容": "福祉用具サポートセンター【特定福祉用具販売】福岡県田川市大字伊加利2195-40", "url": "https://www.kaigokensaku.mhlw.go.jp/40/index.php?action_kouhyou_detail_004_kani=true&JigyosyoCd=4071902300-00&ServiceCd=410&Type=search", "url2": null }, "geometry": { "type": "Point", "coordinates": [ 130.821627199999966, 33.6227762 ] } },
{ "type": "Feature", "properties": { "内容": "太陽シルバーサービス株式会社　田川営業所【特定福祉用具販売】田川市大字川宮１２００番地", "url": "https://www.kaigokensaku.mhlw.go.jp/40/index.php?action_kouhyou_detail_004_kani=true&JigyosyoCd=4071901971-00&ServiceCd=410&Type=search", "url2": "http://www.taiyoss.co.jp" }, "geometry": { "type": "Point", "coordinates": [ 130.789967700000034, 33.64927 ] } },
{ "type": "Feature", "properties": { "内容": "有限会社　みらい介護サービス【特定福祉用具販売】福岡県柳川市三橋町下百町24-2", "url": "https://www.kaigokensaku.mhlw.go.jp/40/index.php?action_kouhyou_detail_004_kani=true&JigyosyoCd=4072000294-00&ServiceCd=410&Type=search", "url2": "http://www.miraikaigo.com/" }, "geometry": { "type": "Point", "coordinates": [ 130.417718400000012, 33.1651306 ] } },
{ "type": "Feature", "properties": { "内容": "株式会社　サンコー【特定福祉用具販売】柳川市筑紫町４０６－１", "url": "https://www.kaigokensaku.mhlw.go.jp/40/index.php?action_kouhyou_detail_004_kani=true&JigyosyoCd=4072000237-00&ServiceCd=410&Type=search", "url2": "https://35inc.co.jp" }, "geometry": { "type": "Point", "coordinates": [ 130.397437399999944, 33.1653578 ] } },
{ "type": "Feature", "properties": { "内容": "ベストケア筑後【特定福祉用具販売】福岡県筑後市山ノ井302-1", "url": "https://www.kaigokensaku.mhlw.go.jp/40/index.php?action_kouhyou_detail_004_kani=true&JigyosyoCd=4072400940-00&ServiceCd=410&Type=search", "url2": "http://evahlife.jp/" }, "geometry": { "type": "Point", "coordinates": [ 130.501990299999989, 33.2080593 ] } },
{ "type": "Feature", "properties": { "内容": "介福本舗　筑後営業所【特定福祉用具販売】福岡県筑後市熊野1383-37", "url": "https://www.kaigokensaku.mhlw.go.jp/40/index.php?action_kouhyou_detail_004_kani=true&JigyosyoCd=4072400965-00&ServiceCd=410&Type=search", "url2": "http://www.kaifukuhonpo.com/" }, "geometry": { "type": "Point", "coordinates": [ 130.5027427, 33.2269506 ] } },
{ "type": "Feature", "properties": { "内容": "プラスケア　筑後【特定福祉用具販売】福岡県筑後市熊野１４９８番地１", "url": "https://www.kaigokensaku.mhlw.go.jp/40/index.php?action_kouhyou_detail_004_kani=true&JigyosyoCd=4072400643-00&ServiceCd=410&Type=search", "url2": "pluscare2002.co.jp" }, "geometry": { "type": "Point", "coordinates": [ 130.503647900000033, 33.2242983 ] } },
{ "type": "Feature", "properties": { "内容": "有限会社　ひだまり【特定福祉用具販売】福岡県大川市大字酒見499番地23", "url": "https://www.kaigokensaku.mhlw.go.jp/40/index.php?action_kouhyou_detail_004_kani=true&JigyosyoCd=4072500368-00&ServiceCd=410&Type=search", "url2": "https://www.hidamari-care.net/" }, "geometry": { "type": "Point", "coordinates": [ 130.382501899999966, 33.2088257 ] } },
{ "type": "Feature", "properties": { "内容": "株式会社ファーストケア【特定福祉用具販売】福岡県大川市大野島255-5", "url": "https://www.kaigokensaku.mhlw.go.jp/40/index.php?action_kouhyou_detail_004_kani=true&JigyosyoCd=4072500772-00&ServiceCd=410&Type=search", "url2": "https://www/firstcare0120.com/" }, "geometry": { "type": "Point", "coordinates": [ 130.353918317577069, 33.208102453683146 ] } },
{ "type": "Feature", "properties": { "内容": "サン福祉用具【特定福祉用具販売】福岡県行橋市南大橋一丁目1番25号", "url": "https://www.kaigokensaku.mhlw.go.jp/40/index.php?action_kouhyou_detail_004_kani=true&JigyosyoCd=4072601893-00&ServiceCd=410&Type=search", "url2": "http://hp.kaipoke.biz/fut/" }, "geometry": { "type": "Point", "coordinates": [ 130.986151, 33.7287371 ] } },
{ "type": "Feature", "properties": { "内容": "株式会社クローバー　行橋営業所【特定福祉用具販売】福岡県行橋市東大橋4丁目10-1", "url": "https://www.kaigokensaku.mhlw.go.jp/40/index.php?action_kouhyou_detail_004_kani=true&JigyosyoCd=4072601711-00&ServiceCd=410&Type=search", "url2": "http://www.clover-w.co.jp/" }, "geometry": { "type": "Point", "coordinates": [ 130.987862291953036, 33.739388284790671 ] } },
{ "type": "Feature", "properties": { "内容": "太陽シルバーサービス株式会社　行橋営業所【特定福祉用具販売】行橋市大字流末1327番地", "url": "https://www.kaigokensaku.mhlw.go.jp/40/index.php?action_kouhyou_detail_004_kani=true&JigyosyoCd=4072601802-00&ServiceCd=410&Type=search", "url2": "http://www.taiyoss.co.jp" }, "geometry": { "type": "Point", "coordinates": [ 130.964936099999932, 33.7014225 ] } },
{ "type": "Feature", "properties": { "内容": "株式会社　エヴァ・ライフ　ベストケア行橋営業所【特定福祉用具販売】福岡県行橋市行事2丁目4-22", "url": "https://www.kaigokensaku.mhlw.go.jp/40/index.php?action_kouhyou_detail_004_kani=true&JigyosyoCd=4072600770-00&ServiceCd=410&Type=search", "url2": "https://evahlife.jp" }, "geometry": { "type": "Point", "coordinates": [ 130.976736830461732, 33.739043379448134 ] } },
{ "type": "Feature", "properties": { "内容": "福の基【特定福祉用具販売】福岡県行橋市金屋340番地6", "url": "https://www.kaigokensaku.mhlw.go.jp/40/index.php?action_kouhyou_detail_004_kani=true&JigyosyoCd=4072700620-00&ServiceCd=410&Type=search", "url2": null }, "geometry": { "type": "Point", "coordinates": [ 130.990950218919011, 33.724569943618555 ] } },
{ "type": "Feature", "properties": { "内容": "たっちあっぷ株式会社【特定福祉用具販売】福岡県行橋市行事1丁目2番9号", "url": "https://www.kaigokensaku.mhlw.go.jp/40/index.php?action_kouhyou_detail_004_kani=true&JigyosyoCd=4072602156-00&ServiceCd=410&Type=search", "url2": null }, "geometry": { "type": "Point", "coordinates": [ 130.976581850787312, 33.734721355715962 ] } },
{ "type": "Feature", "properties": { "内容": "介護ショップさくらんぼ【特定福祉用具販売】福岡県豊前市大字薬師寺70番地1", "url": "https://www.kaigokensaku.mhlw.go.jp/40/index.php?action_kouhyou_detail_004_kani=true&JigyosyoCd=4072700661-00&ServiceCd=410&Type=search", "url2": null }, "geometry": { "type": "Point", "coordinates": [ 131.118102099999987, 33.5787034 ] } },
{ "type": "Feature", "properties": { "内容": "エルサポート【特定福祉用具販売】福岡県中間市土手ノ内3丁目8-25　B101", "url": "https://www.kaigokensaku.mhlw.go.jp/40/index.php?action_kouhyou_detail_004_kani=true&JigyosyoCd=4072801709-00&ServiceCd=410&Type=search", "url2": null }, "geometry": { "type": "Point", "coordinates": [ 130.715282699999989, 33.8091652 ] } },
{ "type": "Feature", "properties": { "内容": "ウエルパークヒルズ在宅介護サービスセンター【特定福祉用具販売】福岡県中間市通谷一丁目36番3号", "url": "https://www.kaigokensaku.mhlw.go.jp/40/index.php?action_kouhyou_detail_004_kani=true&JigyosyoCd=4072800040-00&ServiceCd=410&Type=search", "url2": "https://wellph.jp" }, "geometry": { "type": "Point", "coordinates": [ 130.731677499999932, 33.8237578 ] } },
{ "type": "Feature", "properties": { "内容": "アカンパニー【特定福祉用具販売】福岡県中間市朝霧4丁目21-1", "url": "https://www.kaigokensaku.mhlw.go.jp/40/index.php?action_kouhyou_detail_004_kani=true&JigyosyoCd=4075500936-00&ServiceCd=410&Type=search", "url2": "http://omg-co-ltd.com/" }, "geometry": { "type": "Point", "coordinates": [ 130.728265108573169, 33.815321505818119 ] } },
{ "type": "Feature", "properties": { "内容": "株式会社　すけっと【特定福祉用具販売】福岡県小郡市小郡1572番地1", "url": "https://www.kaigokensaku.mhlw.go.jp/40/index.php?action_kouhyou_detail_004_kani=true&JigyosyoCd=4072900493-00&ServiceCd=410&Type=search", "url2": null }, "geometry": { "type": "Point", "coordinates": [ 130.543742, 33.396542 ] } },
{ "type": "Feature", "properties": { "内容": "太陽シルバーサービス株式会社　久留米営業所【特定福祉用具販売】福岡県小郡市小郡97番地19オフィスパレア小郡Ⅰ（2号室+3号室）", "url": "https://www.kaigokensaku.mhlw.go.jp/40/index.php?action_kouhyou_detail_004_kani=true&JigyosyoCd=4076700279-00&ServiceCd=410&Type=search", "url2": "http://www.taiyoss.co.jp" }, "geometry": { "type": "Point", "coordinates": [ 130.553918289046891, 33.39974247175023 ] } },
{ "type": "Feature", "properties": { "内容": "株式会社つくしﾒﾃﾞｨｶﾙ【特定福祉用具販売】上古賀3-7-7", "url": "https://www.kaigokensaku.mhlw.go.jp/40/index.php?action_kouhyou_detail_004_kani=true&JigyosyoCd=4073000319-00&ServiceCd=410&Type=search", "url2": "https://www.tukushi.jp" }, "geometry": { "type": "Point", "coordinates": [ 130.52099, 33.4828264 ] } },
{ "type": "Feature", "properties": { "内容": "すたいる【特定福祉用具販売】福岡県筑紫野市大字筑紫813番地12", "url": "https://www.kaigokensaku.mhlw.go.jp/40/index.php?action_kouhyou_detail_004_kani=true&JigyosyoCd=4073101521-00&ServiceCd=410&Type=search", "url2": "https://www.gtk-sutairu.com/" }, "geometry": { "type": "Point", "coordinates": [ 130.546371771153531, 33.460272908715247 ] } },
{ "type": "Feature", "properties": { "内容": "レンタル　丸屋【特定福祉用具販売】春日市昇町３丁目１６４番地", "url": "https://www.kaigokensaku.mhlw.go.jp/40/index.php?action_kouhyou_detail_004_kani=true&JigyosyoCd=4071101309-00&ServiceCd=410&Type=search", "url2": "http://www.happy-kaigo.com" }, "geometry": { "type": "Point", "coordinates": [ 130.44512450000002, 33.5286623 ] } },
{ "type": "Feature", "properties": { "内容": "介護の太助　春日店【特定福祉用具販売】福岡県春日市小倉一丁目16番IDハウス101号室", "url": "https://www.kaigokensaku.mhlw.go.jp/40/index.php?action_kouhyou_detail_004_kani=true&JigyosyoCd=4073101463-00&ServiceCd=410&Type=search", "url2": "http://www.kaigo-tasuke.co.jp" }, "geometry": { "type": "Point", "coordinates": [ 130.457337300000063, 33.5340149 ] } },
{ "type": "Feature", "properties": { "内容": "株式会社　悠誠　ゆうゆうレンタルサービス【特定福祉用具販売】福岡県春日市春日2-27", "url": "https://www.kaigokensaku.mhlw.go.jp/40/index.php?action_kouhyou_detail_004_kani=true&JigyosyoCd=4073101083-00&ServiceCd=410&Type=search", "url2": "www.yuyu-group.co.jp" }, "geometry": { "type": "Point", "coordinates": [ 130.47055279999995, 33.5233524 ] } },
{ "type": "Feature", "properties": { "内容": "パナソニックエイジフリーショップ福岡筑紫野【特定福祉用具販売】福岡県大野城市仲畑4丁目4-1", "url": "https://www.kaigokensaku.mhlw.go.jp/40/index.php?action_kouhyou_detail_004_kani=true&JigyosyoCd=4073400840-00&ServiceCd=410&Type=search", "url2": "http://www.kaigoshop.net/chikushino/" }, "geometry": { "type": "Point", "coordinates": [ 130.46903921948271, 33.553643866094383 ] } },
{ "type": "Feature", "properties": { "内容": "太陽シルバーサービス株式会社　福岡南営業所【特定福祉用具販売】福岡県大野城市御笠川2-10-15", "url": "https://www.kaigokensaku.mhlw.go.jp/40/index.php?action_kouhyou_detail_004_kani=true&JigyosyoCd=4073200638-00&ServiceCd=410&Type=search", "url2": "http://www.taiyoss.co.jp" }, "geometry": { "type": "Point", "coordinates": [ 130.484450645688668, 33.541001261236758 ] } },
{ "type": "Feature", "properties": { "内容": "株式会社　ケア・サポート【特定福祉用具販売】大野城市川久保1丁目5番1号", "url": "https://www.kaigokensaku.mhlw.go.jp/40/index.php?action_kouhyou_detail_004_kani=true&JigyosyoCd=4073200232-00&ServiceCd=410&Type=search", "url2": null }, "geometry": { "type": "Point", "coordinates": [ 130.4846043, 33.5498695 ] } },
{ "type": "Feature", "properties": { "内容": "アイハウス【特定福祉用具販売】福岡県大野城市中１丁目５番２７オフィスパレア中１　B2", "url": "https://www.kaigokensaku.mhlw.go.jp/40/index.php?action_kouhyou_detail_004_kani=true&JigyosyoCd=4073201107-00&ServiceCd=410&Type=search", "url2": "http://www.ai-house.jp" }, "geometry": { "type": "Point", "coordinates": [ 130.480218599999944, 33.5524135 ] } },
{ "type": "Feature", "properties": { "内容": "スキップ南福岡店【特定福祉用具販売】福岡県大野城市仲畑2丁目10番27号", "url": "https://www.kaigokensaku.mhlw.go.jp/40/index.php?action_kouhyou_detail_004_kani=true&JigyosyoCd=4073201248-00&ServiceCd=410&Type=search", "url2": null }, "geometry": { "type": "Point", "coordinates": [ 130.4684863, 33.5576708 ] } },
{ "type": "Feature", "properties": { "内容": "アルク九州販売有限会社【特定福祉用具販売】福岡県大野城市瓦田4-6-1サンビュー落合橋3号", "url": "https://www.kaigokensaku.mhlw.go.jp/40/index.php?action_kouhyou_detail_004_kani=true&JigyosyoCd=4073400212-00&ServiceCd=410&Type=search", "url2": "http://www.aluku-web.com" }, "geometry": { "type": "Point", "coordinates": [ 130.4838318, 33.5352438 ] } },
{ "type": "Feature", "properties": { "内容": "シェリール福祉用具【特定福祉用具販売】福岡県大野城市御笠川6-5-24", "url": "https://www.kaigokensaku.mhlw.go.jp/40/index.php?action_kouhyou_detail_004_kani=true&JigyosyoCd=4073200810-00&ServiceCd=410&Type=search", "url2": "http://cherir-kaigo.com/" }, "geometry": { "type": "Point", "coordinates": [ 130.488681700000029, 33.5349436 ] } },
{ "type": "Feature", "properties": { "内容": "クローバー宗像営業所【特定福祉用具販売】福岡県宗像市日の里1-28105棟70号", "url": "https://www.kaigokensaku.mhlw.go.jp/40/index.php?action_kouhyou_detail_004_kani=true&JigyosyoCd=4073301576-00&ServiceCd=410&Type=search", "url2": "http://www.clover-w.co.jp/" }, "geometry": { "type": "Point", "coordinates": [ 130.531572200000028, 33.7921382 ] } },
{ "type": "Feature", "properties": { "内容": "大創リベラル　福祉用具事業所【特定福祉用具販売】宗像市ひかりケ丘１－８－１９", "url": "https://www.kaigokensaku.mhlw.go.jp/40/index.php?action_kouhyou_detail_004_kani=true&JigyosyoCd=4073600092-00&ServiceCd=410&Type=search", "url2": null }, "geometry": { "type": "Point", "coordinates": [ 130.538456534414337, 33.818421266544377 ] } },
{ "type": "Feature", "properties": { "内容": "ベストケア【特定福祉用具販売】福岡県福津市花見が丘1丁目6番20号", "url": "https://www.kaigokensaku.mhlw.go.jp/40/index.php?action_kouhyou_detail_004_kani=true&JigyosyoCd=4074500317-00&ServiceCd=410&Type=search", "url2": "evahlife.jp" }, "geometry": { "type": "Point", "coordinates": [ 130.478122, 33.7619941 ] } },
{ "type": "Feature", "properties": { "内容": "株式会社　かがし屋【特定福祉用具販売】福岡県うきは市吉井町清瀬477-4", "url": "https://www.kaigokensaku.mhlw.go.jp/40/index.php?action_kouhyou_detail_004_kani=true&JigyosyoCd=4077300137-00&ServiceCd=410&Type=search", "url2": null }, "geometry": { "type": "Point", "coordinates": [ 130.770172099999968, 33.339187 ] } },
{ "type": "Feature", "properties": { "内容": "有限会社おおつか　宮田介護用具サービス【特定福祉用具販売】福岡県宮若市宮田５３番地８", "url": "https://www.kaigokensaku.mhlw.go.jp/40/index.php?action_kouhyou_detail_004_kani=true&JigyosyoCd=4075500175-00&ServiceCd=410&Type=search", "url2": "http://otsuka-we.jp/" }, "geometry": { "type": "Point", "coordinates": [ 130.665243799999985, 33.7238786 ] } },
{ "type": "Feature", "properties": { "内容": "株式会社　グット・リンク　グット・リンク朝倉【特定福祉用具販売】福岡県朝倉市堤1052", "url": "https://www.kaigokensaku.mhlw.go.jp/40/index.php?action_kouhyou_detail_004_kani=true&JigyosyoCd=4076700295-00&ServiceCd=410&Type=search", "url2": null }, "geometry": { "type": "Point", "coordinates": [ 130.670522247684943, 33.419834068661565 ] } },
{ "type": "Feature", "properties": { "内容": "福祉用具貸与リアンド【特定福祉用具販売】福岡県朝倉市甘木1785-1-201", "url": "https://www.kaigokensaku.mhlw.go.jp/40/index.php?action_kouhyou_detail_004_kani=true&JigyosyoCd=4072201181-00&ServiceCd=410&Type=search", "url2": null }, "geometry": { "type": "Point", "coordinates": [ 130.656916200000012, 33.4211253 ] } },
{ "type": "Feature", "properties": { "内容": "スキップ朝倉店【特定福祉用具販売】福岡県朝倉市甘木1313番地1", "url": "https://www.kaigokensaku.mhlw.go.jp/40/index.php?action_kouhyou_detail_004_kani=true&JigyosyoCd=4072200605-00&ServiceCd=410&Type=search", "url2": "https://skip-kaigo.com" }, "geometry": { "type": "Point", "coordinates": [ 130.65379718239447, 33.418848077508905 ] } },
{ "type": "Feature", "properties": { "内容": "福祉用具サービス「やまびこ」【特定福祉用具販売】福岡件みやま市山川町河原内1224", "url": "https://www.kaigokensaku.mhlw.go.jp/40/index.php?action_kouhyou_detail_004_kani=true&JigyosyoCd=4078700822-00&ServiceCd=410&Type=search", "url2": "https://www.yamabiko-care.com/" }, "geometry": { "type": "Point", "coordinates": [ 130.5198282, 33.13736830000002 ] } },
{ "type": "Feature", "properties": { "内容": "サンステップ　福祉用具貸与事業部【特定福祉用具販売】みやま市瀬高町下庄705番地", "url": "https://www.kaigokensaku.mhlw.go.jp/40/index.php?action_kouhyou_detail_004_kani=true&JigyosyoCd=4078700137-00&ServiceCd=410&Type=search", "url2": "http://sun-step.co.jp/" }, "geometry": { "type": "Point", "coordinates": [ 130.473084906745953, 33.150925210513726 ] } },
{ "type": "Feature", "properties": { "内容": "アース福祉用具貸与事業部【特定福祉用具販売】志摩井田原59-10", "url": "https://www.kaigokensaku.mhlw.go.jp/40/index.php?action_kouhyou_detail_004_kani=true&JigyosyoCd=4073500805-00&ServiceCd=410&Type=search", "url2": null }, "geometry": { "type": "Point", "coordinates": [ 130.184561, 33.586919 ] } },
{ "type": "Feature", "properties": { "内容": "レンタル　丸屋　福岡西営業所【特定福祉用具販売】福岡県糸島市前原北3丁目8番7号", "url": "https://www.kaigokensaku.mhlw.go.jp/40/index.php?action_kouhyou_detail_004_kani=true&JigyosyoCd=4073501100-00&ServiceCd=410&Type=search", "url2": "https://rental-maruya.com" }, "geometry": { "type": "Point", "coordinates": [ 130.20213190000004, 33.565925 ] } },
{ "type": "Feature", "properties": { "内容": "伊都ライフケア【特定福祉用具販売】浦志2丁目21-17堤ビル", "url": "https://www.kaigokensaku.mhlw.go.jp/40/index.php?action_kouhyou_detail_004_kani=true&JigyosyoCd=4073501357-00&ServiceCd=410&Type=search", "url2": null }, "geometry": { "type": "Point", "coordinates": [ 130.210557736821443, 33.561820822709926 ] } },
{ "type": "Feature", "properties": { "内容": "株式会社　ヤエス　福岡営業所【特定福祉用具販売】福岡県那珂川市五郎丸1丁目149-2", "url": "https://www.kaigokensaku.mhlw.go.jp/40/index.php?action_kouhyou_detail_004_kani=true&JigyosyoCd=4073700215-00&ServiceCd=410&Type=search", "url2": "http://www.yaesu.org" }, "geometry": { "type": "Point", "coordinates": [ 130.428356600000029, 33.5124188 ] } },
{ "type": "Feature", "properties": { "内容": "福祉用具のまんまるさん【特定福祉用具販売】福岡県那珂川市市ノ瀬484-8", "url": "https://www.kaigokensaku.mhlw.go.jp/40/index.php?action_kouhyou_detail_004_kani=true&JigyosyoCd=4073700991-00&ServiceCd=410&Type=search", "url2": "marunoki-manmarus.jimdofree.com" }, "geometry": { "type": "Point", "coordinates": [ 130.428352600000011, 33.4560379 ] } },
{ "type": "Feature", "properties": { "内容": "九州医療サービス株式会社【特定福祉用具販売】福岡県那珂川市今光1丁目91", "url": "https://www.kaigokensaku.mhlw.go.jp/40/index.php?action_kouhyou_detail_004_kani=true&JigyosyoCd=4073700090-00&ServiceCd=410&Type=search", "url2": null }, "geometry": { "type": "Point", "coordinates": [ 130.430698, 33.5220819 ] } },
{ "type": "Feature", "properties": { "内容": "有限会社　アクア【特定福祉用具販売】福岡県那珂川市後野2丁目10番1号", "url": "https://www.kaigokensaku.mhlw.go.jp/40/index.php?action_kouhyou_detail_004_kani=true&JigyosyoCd=4073700348-00&ServiceCd=410&Type=search", "url2": null }, "geometry": { "type": "Point", "coordinates": [ 130.420974, 33.5087967 ] } },
{ "type": "Feature", "properties": { "内容": "ウェルファー・ケア【特定福祉用具販売】福岡県那珂川市中原５丁目５１番地", "url": "https://www.kaigokensaku.mhlw.go.jp/40/index.php?action_kouhyou_detail_004_kani=true&JigyosyoCd=4073700488-00&ServiceCd=410&Type=search", "url2": null }, "geometry": { "type": "Point", "coordinates": [ 130.438572300000033, 33.509586 ] } },
{ "type": "Feature", "properties": { "内容": "合同会社Ｋ－スタイル【特定福祉用具販売】福岡県那珂川市片縄北3丁目11-31", "url": "https://www.kaigokensaku.mhlw.go.jp/40/index.php?action_kouhyou_detail_004_kani=true&JigyosyoCd=4073700827-00&ServiceCd=410&Type=search", "url2": null }, "geometry": { "type": "Point", "coordinates": [ 130.4226835, 33.5233761 ] } },
{ "type": "Feature", "properties": { "内容": "ハンド【特定福祉用具販売】福岡県糟屋郡宇美町光正寺3-2-16アネックス宇美101", "url": "https://www.kaigokensaku.mhlw.go.jp/40/index.php?action_kouhyou_detail_004_kani=true&JigyosyoCd=4073800767-00&ServiceCd=410&Type=search", "url2": null }, "geometry": { "type": "Point", "coordinates": [ 130.5016549, 33.5771412 ] } },
{ "type": "Feature", "properties": { "内容": "株式会社きさく工房【特定福祉用具販売】福岡県糟屋郡宇美町障子岳南5丁目10番11号", "url": "https://www.kaigokensaku.mhlw.go.jp/40/index.php?action_kouhyou_detail_004_kani=true&JigyosyoCd=4073800239-00&ServiceCd=410&Type=search", "url2": "http://www.7a.biglobe.ne.jp/~kisaku" }, "geometry": { "type": "Point", "coordinates": [ 130.542759899999965, 33.5553665 ] } },
{ "type": "Feature", "properties": { "内容": "アップルハート福岡福祉用具センター【特定福祉用具販売】糟屋郡志免町南里11-5", "url": "https://www.kaigokensaku.mhlw.go.jp/40/index.php?action_kouhyou_detail_004_kani=true&JigyosyoCd=4070902244-00&ServiceCd=410&Type=search", "url2": "http//:www.aso.-group.co.jp/acs/bestablish.html" }, "geometry": { "type": "Point", "coordinates": [ 130.477687599999967, 33.5933502 ] } },
{ "type": "Feature", "properties": { "内容": "有限会社　ハートフル・トモヱ【特定福祉用具販売】遠賀郡遠賀町広渡1581番地", "url": "https://www.kaigokensaku.mhlw.go.jp/40/index.php?action_kouhyou_detail_004_kani=true&JigyosyoCd=4075200206-00&ServiceCd=410&Type=search", "url2": "http://www.heartfull-tomoe.com/" }, "geometry": { "type": "Point", "coordinates": [ 130.676412199999959, 33.8502673 ] } },
{ "type": "Feature", "properties": { "内容": "福祉用具おおつか　遠賀営業所【特定福祉用具販売】福岡県遠賀郡遠賀町大字今古賀520-3ミニモールおんがB棟", "url": "https://www.kaigokensaku.mhlw.go.jp/40/index.php?action_kouhyou_detail_004_kani=true&JigyosyoCd=4075200628-00&ServiceCd=410&Type=search", "url2": "http://otsuka-we.jp" }, "geometry": { "type": "Point", "coordinates": [ 130.667088240440791, 33.848269779506531 ] } },
{ "type": "Feature", "properties": { "内容": "有限会社　メイプル【特定福祉用具販売】福岡県嘉穂郡桂川町大字土師28-105", "url": "https://www.kaigokensaku.mhlw.go.jp/40/index.php?action_kouhyou_detail_004_kani=true&JigyosyoCd=4075700189-00&ServiceCd=410&Type=search", "url2": null }, "geometry": { "type": "Point", "coordinates": [ 130.697169, 33.579064 ] } },
{ "type": "Feature", "properties": { "内容": "ライフプラスりはなす【特定福祉用具販売】福岡県田川郡糸田町2253-1", "url": "https://www.kaigokensaku.mhlw.go.jp/40/index.php?action_kouhyou_detail_004_kani=true&JigyosyoCd=4079500411-00&ServiceCd=410&Type=search", "url2": "http://www.reha-nurse.com/" }, "geometry": { "type": "Point", "coordinates": [ 130.779504939950584, 33.65635113736171 ] } },
{ "type": "Feature", "properties": { "内容": "ＭＨ陽株式会社【特定福祉用具販売】福岡県田川郡福智町赤池139-13", "url": "https://www.kaigokensaku.mhlw.go.jp/40/index.php?action_kouhyou_detail_004_kani=true&JigyosyoCd=4079400877-00&ServiceCd=410&Type=search", "url2": "https://mhharu.wordpress.com" }, "geometry": { "type": "Point", "coordinates": [ 130.7729932, 33.6929411 ] } },
{ "type": "Feature", "properties": { "内容": "有限会社ケンコー　介護ショップ吉富【特定福祉用具販売】福岡県築上郡上毛町大字垂水351番地8", "url": "https://www.kaigokensaku.mhlw.go.jp/40/index.php?action_kouhyou_detail_004_kani=true&JigyosyoCd=4070000676-00&ServiceCd=410&Type=search", "url2": "http://www.kenko-kaigoshop.com" }, "geometry": { "type": "Point", "coordinates": [ 131.166958734204485, 33.58239101475845 ] } }
]
}
