{
"type": "FeatureCollection",
"name": "geo_40_大学",
"crs": { "type": "name", "properties": { "name": "urn:ogc:def:crs:EPSG::6668" } },
"features": [
{ "type": "Feature", "properties": { "P29_001": "40105", "P29_002": "F140110110574", "P29_003": "16007", "P29_004": "九州工業大学", "P29_005": "福岡県北九州市戸畑区仙水町1-1", "P29_006": "1", "P29_007": "0", "P29_008": "01", "P29_009": "戸畑キャンパス" }, "geometry": { "type": "Point", "coordinates": [ 130.83932185636786, 33.89416363455306 ] } },
{ "type": "Feature", "properties": { "P29_001": "40220", "P29_002": "F140110110583", "P29_003": "16007", "P29_004": "福岡教育大学", "P29_005": "福岡県宗像市赤間文教町1-1", "P29_006": "1", "P29_007": "0", "P29_008": "00", "P29_009": null }, "geometry": { "type": "Point", "coordinates": [ 130.594658474700225, 33.812075946007212 ] } },
{ "type": "Feature", "properties": { "P29_001": "40135", "P29_002": "F140110110592", "P29_003": "16007", "P29_004": "九州大学", "P29_005": "福岡県福岡市西区元岡744", "P29_006": "1", "P29_007": "0", "P29_008": "01", "P29_009": "伊都キャンパス" }, "geometry": { "type": "Point", "coordinates": [ 130.223468210017558, 33.59749420901062 ] } },
{ "type": "Feature", "properties": { "P29_001": "40107", "P29_002": "F140210110607", "P29_003": "16007", "P29_004": "北九州市立大学", "P29_005": "福岡県北九州市小倉南区北方4-2-1", "P29_006": "3", "P29_007": "0", "P29_008": "01", "P29_009": "北方キャンパス" }, "geometry": { "type": "Point", "coordinates": [ 130.878221003377718, 33.843030406620535 ] } },
{ "type": "Feature", "properties": { "P29_001": "40106", "P29_002": "F140210110616", "P29_003": "16007", "P29_004": "九州歯科大学", "P29_005": "福岡県北九州市小倉北区真鶴2-6-1", "P29_006": "3", "P29_007": "0", "P29_008": "00", "P29_009": null }, "geometry": { "type": "Point", "coordinates": [ 130.854149213842504, 33.872501394806399 ] } },
{ "type": "Feature", "properties": { "P29_001": "40131", "P29_002": "F140210110625", "P29_003": "16007", "P29_004": "福岡女子大学", "P29_005": "福岡県福岡市東区香住ケ丘1-1-1", "P29_006": "3", "P29_007": "0", "P29_008": "00", "P29_009": null }, "geometry": { "type": "Point", "coordinates": [ 130.438727135918782, 33.666251223625643 ] } },
{ "type": "Feature", "properties": { "P29_001": "40206", "P29_002": "F140210110634", "P29_003": "16007", "P29_004": "福岡県立大学", "P29_005": "福岡県田川市大字伊田4395", "P29_006": "2", "P29_007": "0", "P29_008": "00", "P29_009": null }, "geometry": { "type": "Point", "coordinates": [ 130.813799597263568, 33.650364581330173 ] } },
{ "type": "Feature", "properties": { "P29_001": "40109", "P29_002": "F140310110641", "P29_003": "16007", "P29_004": "九州共立大学", "P29_005": "福岡県北九州市八幡西区自由ケ丘1-8", "P29_006": "4", "P29_007": "0", "P29_008": "00", "P29_009": null }, "geometry": { "type": "Point", "coordinates": [ 130.705144492042365, 33.871844435724462 ] } },
{ "type": "Feature", "properties": { "P29_001": "40109", "P29_002": "F140310110650", "P29_003": "16007", "P29_004": "九州女子大学", "P29_005": "福岡県北九州市八幡西区自由ヶ丘1-1", "P29_006": "4", "P29_007": "0", "P29_008": "00", "P29_009": null }, "geometry": { "type": "Point", "coordinates": [ 130.705787853553602, 33.868312077922276 ] } },
{ "type": "Feature", "properties": { "P29_001": "40108", "P29_002": "F140310110669", "P29_003": "16007", "P29_004": "九州国際大学", "P29_005": "福岡県北九州市八幡東区平野1-6-1", "P29_006": "4", "P29_007": "0", "P29_008": "00", "P29_009": null }, "geometry": { "type": "Point", "coordinates": [ 130.792591179266395, 33.862610485497896 ] } },
{ "type": "Feature", "properties": { "P29_001": "40137", "P29_002": "F140310110678", "P29_003": "16007", "P29_004": "福岡歯科大学", "P29_005": "福岡県福岡市早良区田村2-15-1", "P29_006": "4", "P29_007": "0", "P29_008": "00", "P29_009": null }, "geometry": { "type": "Point", "coordinates": [ 130.332003588494501, 33.544830234747927 ] } },
{ "type": "Feature", "properties": { "P29_001": "40131", "P29_002": "F140310110687", "P29_003": "16007", "P29_004": "九州産業大学", "P29_005": "福岡県福岡市東区松香台2-3-1", "P29_006": "4", "P29_007": "0", "P29_008": "00", "P29_009": null }, "geometry": { "type": "Point", "coordinates": [ 130.444954560765069, 33.669100548751089 ] } },
{ "type": "Feature", "properties": { "P29_001": "40203", "P29_002": "F140310110696", "P29_003": "16007", "P29_004": "久留米大学", "P29_005": "福岡県久留米市旭町67", "P29_006": "4", "P29_007": "0", "P29_008": "01", "P29_009": "旭町キャンパス" }, "geometry": { "type": "Point", "coordinates": [ 130.511133975626478, 33.328727481597532 ] } },
{ "type": "Feature", "properties": { "P29_001": "40137", "P29_002": "F140310110703", "P29_003": "16007", "P29_004": "西南学院大学", "P29_005": "福岡県福岡市早良区西新6-2-92", "P29_006": "4", "P29_007": "0", "P29_008": "00", "P29_009": null }, "geometry": { "type": "Point", "coordinates": [ 130.354876072541543, 33.584660409566759 ] } },
{ "type": "Feature", "properties": { "P29_001": "40134", "P29_002": "F140310110712", "P29_003": "16007", "P29_004": "第一薬科大学", "P29_005": "福岡県福岡市南区玉川町22-1", "P29_006": "4", "P29_007": "0", "P29_008": "00", "P29_009": null }, "geometry": { "type": "Point", "coordinates": [ 130.419880130771332, 33.565560452478806 ] } },
{ "type": "Feature", "properties": { "P29_001": "40136", "P29_002": "F140310110721", "P29_003": "16007", "P29_004": "中村学園大学", "P29_005": "福岡県福岡市城南区別府5-7-1", "P29_006": "4", "P29_007": "0", "P29_008": "00", "P29_009": null }, "geometry": { "type": "Point", "coordinates": [ 130.366497312208168, 33.572408415958002 ] } },
{ "type": "Feature", "properties": { "P29_001": "40621", "P29_002": "F140310110730", "P29_003": "16007", "P29_004": "西日本工業大学", "P29_005": "福岡県京都郡苅田町新津1-11", "P29_006": "4", "P29_007": "0", "P29_008": "01", "P29_009": "おばせキャンパス" }, "geometry": { "type": "Point", "coordinates": [ 130.973608570958589, 33.75323911194991 ] } },
{ "type": "Feature", "properties": { "P29_001": "40136", "P29_002": "F140310110749", "P29_003": "16007", "P29_004": "福岡大学", "P29_005": "福岡県福岡市城南区七隈8-19-1", "P29_006": "4", "P29_007": "0", "P29_008": "00", "P29_009": null }, "geometry": { "type": "Point", "coordinates": [ 130.366687807238634, 33.549085777899386 ] } },
{ "type": "Feature", "properties": { "P29_001": "40131", "P29_002": "F140310110758", "P29_003": "16007", "P29_004": "福岡工業大学", "P29_005": "福岡県福岡市東区和白東3-30-1", "P29_006": "4", "P29_007": "0", "P29_008": "00", "P29_009": null }, "geometry": { "type": "Point", "coordinates": [ 130.439443515136901, 33.695511206462811 ] } },
{ "type": "Feature", "properties": { "P29_001": "40221", "P29_002": "F140310110767", "P29_003": "16007", "P29_004": "日本経済大学", "P29_005": "福岡県太宰府市五条3-11-25", "P29_006": "4", "P29_007": "0", "P29_008": "01", "P29_009": "福岡キャンパス" }, "geometry": { "type": "Point", "coordinates": [ 130.524619558060039, 33.506870821265935 ] } },
{ "type": "Feature", "properties": { "P29_001": "40203", "P29_002": "F140310110776", "P29_003": "16007", "P29_004": "久留米工業大学", "P29_005": "福岡県久留米市上津町2228-66", "P29_006": "4", "P29_007": "0", "P29_008": "00", "P29_009": null }, "geometry": { "type": "Point", "coordinates": [ 130.538361586669765, 33.265755362667988 ] } },
{ "type": "Feature", "properties": { "P29_001": "40109", "P29_002": "F140310110785", "P29_003": "16007", "P29_004": "産業医科大学", "P29_005": "福岡県北九州市八幡西区医生ケ丘1-1", "P29_006": "4", "P29_007": "0", "P29_008": "00", "P29_009": null }, "geometry": { "type": "Point", "coordinates": [ 130.71270327907888, 33.878866208315344 ] } },
{ "type": "Feature", "properties": { "P29_001": "40221", "P29_002": "F140310110794", "P29_003": "16007", "P29_004": "筑紫女学園大学", "P29_005": "福岡県太宰府市石坂2-12-1", "P29_006": "4", "P29_007": "0", "P29_008": "00", "P29_009": null }, "geometry": { "type": "Point", "coordinates": [ 130.537394194151801, 33.513238761989868 ] } },
{ "type": "Feature", "properties": { "P29_001": "40134", "P29_002": "F140310110801", "P29_003": "16007", "P29_004": "福岡女学院大学", "P29_005": "福岡県福岡市南区曰佐3-42-1", "P29_006": "4", "P29_007": "0", "P29_008": "00", "P29_009": null }, "geometry": { "type": "Point", "coordinates": [ 130.441318214604507, 33.533321474144159 ] } },
{ "type": "Feature", "properties": { "P29_001": "40106", "P29_002": "F140310110810", "P29_003": "16007", "P29_004": "西南女学院大学", "P29_005": "福岡県北九州市小倉北区井堀1-3-5", "P29_006": "4", "P29_007": "0", "P29_008": "00", "P29_009": null }, "geometry": { "type": "Point", "coordinates": [ 130.85015351797469, 33.884185418102042 ] } },
{ "type": "Feature", "properties": { "P29_001": "40221", "P29_002": "F140310110829", "P29_003": "16007", "P29_004": "九州情報大学", "P29_005": "福岡県太宰府市宰府6-3-1", "P29_006": "4", "P29_007": "0", "P29_008": "00", "P29_009": null }, "geometry": { "type": "Point", "coordinates": [ 130.541252848005428, 33.524974076914404 ] } },
{ "type": "Feature", "properties": { "P29_001": "40106", "P29_002": "F140310110838", "P29_003": "16007", "P29_004": "九州栄養福祉大学", "P29_005": "福岡県北九州市小倉北区下到津5-1-1", "P29_006": "4", "P29_007": "0", "P29_008": "01", "P29_009": "小倉北区キャンパス" }, "geometry": { "type": "Point", "coordinates": [ 130.857162896729307, 33.876552716544339 ] } },
{ "type": "Feature", "properties": { "P29_001": "40220", "P29_002": "F140310110847", "P29_003": "16007", "P29_004": "日本赤十字九州国際看護大学", "P29_005": "福岡県宗像市アスティ1-1", "P29_006": "4", "P29_007": "0", "P29_008": "00", "P29_009": null }, "geometry": { "type": "Point", "coordinates": [ 130.609999596276083, 33.796527756783611 ] } },
{ "type": "Feature", "properties": { "P29_001": "40203", "P29_002": "F140310110856", "P29_003": "16007", "P29_004": "聖マリア学院大学", "P29_005": "福岡県久留米市津福本町422", "P29_006": "4", "P29_007": "0", "P29_008": "00", "P29_009": null }, "geometry": { "type": "Point", "coordinates": [ 130.507949101978454, 33.30555726155027 ] } },
{ "type": "Feature", "properties": { "P29_001": "40131", "P29_002": "F140310110865", "P29_003": "16007", "P29_004": "サイバー大学", "P29_005": "福岡県福岡市東区香椎照葉3-2-1シーマークビル3階", "P29_006": "4", "P29_007": "0", "P29_008": "00", "P29_009": null }, "geometry": { "type": "Point", "coordinates": [ 130.42242835405591, 33.66286248817066 ] } },
{ "type": "Feature", "properties": { "P29_001": "40223", "P29_002": "F140310110874", "P29_003": "16007", "P29_004": "福岡女学院看護大学", "P29_005": "福岡県古賀市千鳥1-1-7", "P29_006": "4", "P29_007": "0", "P29_008": "00", "P29_009": null }, "geometry": { "type": "Point", "coordinates": [ 130.473497296054035, 33.741085583641265 ] } },
{ "type": "Feature", "properties": { "P29_001": "40229", "P29_002": "F140310110883", "P29_003": "16007", "P29_004": "保健医療経営大学", "P29_005": "福岡県みやま市瀬高町高柳字宮手960-4", "P29_006": "4", "P29_007": "0", "P29_008": "00", "P29_009": null }, "geometry": { "type": "Point", "coordinates": [ 130.459412949807813, 33.140958672816161 ] } },
{ "type": "Feature", "properties": { "P29_001": "40134", "P29_002": "F140310110892", "P29_003": "16007", "P29_004": "純真学園大学", "P29_005": "福岡県福岡市南区筑紫丘1-1-1", "P29_006": "4", "P29_007": "0", "P29_008": "00", "P29_009": null }, "geometry": { "type": "Point", "coordinates": [ 130.42039213933603, 33.558526035994575 ] } },
{ "type": "Feature", "properties": { "P29_001": "40137", "P29_002": "F140310110909", "P29_003": "16007", "P29_004": "福岡看護大学", "P29_005": "福岡県福岡市早良区田村2-15-1", "P29_006": "4", "P29_007": "0", "P29_008": "00", "P29_009": null }, "geometry": { "type": "Point", "coordinates": [ 130.333469140067677, 33.546144113214943 ] } },
{ "type": "Feature", "properties": { "P29_001": "40137", "P29_002": "F140310110918", "P29_003": "16007", "P29_004": "福岡国際医療福祉大学", "P29_005": "福岡県福岡市早良区百道浜3-6-40", "P29_006": "4", "P29_007": "0", "P29_008": "00", "P29_009": null }, "geometry": { "type": "Point", "coordinates": [ 130.349100211762959, 33.590870553920716 ] } },
{ "type": "Feature", "properties": { "P29_001": "40131", "P29_002": "F140310112006", "P29_003": "16007", "P29_004": "令和健康科学大学", "P29_005": "福岡県福岡市東区和白丘2-1-12", "P29_006": "4", "P29_007": "0", "P29_008": "00", "P29_009": null }, "geometry": { "type": "Point", "coordinates": [ 130.432730714340863, 33.691170392073033 ] } },
{ "type": "Feature", "properties": { "P29_001": "40212", "P29_002": "F109310101598", "P29_003": "16007", "P29_004": "国際医療福祉大学", "P29_005": "福岡県大川市榎津137-1", "P29_006": "4", "P29_007": "0", "P29_008": "03", "P29_009": "大川キャンパス" }, "geometry": { "type": "Point", "coordinates": [ 130.380178550386489, 33.203727328545845 ] } },
{ "type": "Feature", "properties": { "P29_001": "40202", "P29_002": "F113310103769", "P29_003": "16007", "P29_004": "帝京大学", "P29_005": "福岡県大牟田市岬町6-22", "P29_006": "4", "P29_007": "0", "P29_008": "04", "P29_009": "福岡キャンパス" }, "geometry": { "type": "Point", "coordinates": [ 130.422474091760478, 33.031898209933665 ] } },
{ "type": "Feature", "properties": { "P29_001": "40205", "P29_002": "F127310108116", "P29_003": "16007", "P29_004": "近畿大学", "P29_005": "福岡県飯塚市柏の森11-6", "P29_006": "4", "P29_007": "0", "P29_008": "06", "P29_009": "福岡キャンパス" }, "geometry": { "type": "Point", "coordinates": [ 130.713809296825303, 33.644777031283276 ] } },
{ "type": "Feature", "properties": { "P29_001": "40205", "P29_002": "F140110110574", "P29_003": "16007", "P29_004": "九州工業大学", "P29_005": "福岡県飯塚市川津680-4", "P29_006": "1", "P29_007": "0", "P29_008": "02", "P29_009": "飯塚キャンパス" }, "geometry": { "type": "Point", "coordinates": [ 130.672523242063249, 33.653481355376314 ] } },
{ "type": "Feature", "properties": { "P29_001": "40103", "P29_002": "F140110110574", "P29_003": "16007", "P29_004": "九州工業大学", "P29_005": "福岡県北九州市若松区ひびきの2-4", "P29_006": "1", "P29_007": "0", "P29_008": "03", "P29_009": "若松キャンパス" }, "geometry": { "type": "Point", "coordinates": [ 130.71, 33.889 ] } },
{ "type": "Feature", "properties": { "P29_001": "40131", "P29_002": "F140110110592", "P29_003": "16007", "P29_004": "九州大学", "P29_005": "福岡県福岡市東区馬出3-1-1", "P29_006": "1", "P29_007": "0", "P29_008": "02", "P29_009": "病院キャンパス" }, "geometry": { "type": "Point", "coordinates": [ 130.415695268122903, 33.610489689542199 ] } },
{ "type": "Feature", "properties": { "P29_001": "40134", "P29_002": "F140110110592", "P29_003": "16007", "P29_004": "九州大学", "P29_005": "福岡県福岡市南区塩原4-9-1", "P29_006": "1", "P29_007": "0", "P29_008": "03", "P29_009": "大橋キャンパス" }, "geometry": { "type": "Point", "coordinates": [ 130.430220893520527, 33.561106637212347 ] } },
{ "type": "Feature", "properties": { "P29_001": "40218", "P29_002": "F140110110592", "P29_003": "16007", "P29_004": "九州大学", "P29_005": "福岡県春日市春日公園6-1", "P29_006": "1", "P29_007": "0", "P29_008": "04", "P29_009": "筑紫キャンパス" }, "geometry": { "type": "Point", "coordinates": [ 130.476738520389347, 33.521642799115575 ] } },
{ "type": "Feature", "properties": { "P29_001": "40103", "P29_002": "F140210110607", "P29_003": "16007", "P29_004": "北九州市立大学", "P29_005": "福岡県北九州市若松区ひびきの1-1", "P29_006": "3", "P29_007": "0", "P29_008": "02", "P29_009": "ひびきのキャンパス" }, "geometry": { "type": "Point", "coordinates": [ 130.714, 33.89 ] } },
{ "type": "Feature", "properties": { "P29_001": "40203", "P29_002": "F140310110696", "P29_003": "16007", "P29_004": "久留米大学", "P29_005": "福岡県久留米市御井町1635", "P29_006": "4", "P29_007": "0", "P29_008": "02", "P29_009": "御井キャンパス" }, "geometry": { "type": "Point", "coordinates": [ 130.545683472050229, 33.307877205634263 ] } },
{ "type": "Feature", "properties": { "P29_001": "40106", "P29_002": "F140310110730", "P29_003": "16007", "P29_004": "西日本工業大学", "P29_005": "福岡県北九州市小倉北区室町1-2-11", "P29_006": "4", "P29_007": "0", "P29_008": "02", "P29_009": "小倉キャンパス" }, "geometry": { "type": "Point", "coordinates": [ 130.873699200147115, 33.88662515404144 ] } },
{ "type": "Feature", "properties": { "P29_001": "40107", "P29_002": "F140310110838", "P29_003": "16007", "P29_004": "九州栄養福祉大学", "P29_005": "福岡県北九州市小倉南区葛原高松1-5-1", "P29_006": "4", "P29_007": "0", "P29_008": "02", "P29_009": "小倉南区キャンパス" }, "geometry": { "type": "Point", "coordinates": [ 130.924375508313091, 33.848518516829088 ] } }
]
}
