{
"type": "FeatureCollection",
"name": "geo_40_専修学校",
"crs": { "type": "name", "properties": { "name": "urn:ogc:def:crs:EPSG::6668" } },
"features": [
{ "type": "Feature", "properties": { "P29_001": "40106", "P29_002": "H140310000105", "P29_003": "16016", "P29_004": "九州ビジネス専門学校", "P29_005": "福岡県北九州市小倉北区大門2-2-16", "P29_006": "4", "P29_007": "0", "P29_008": "00", "P29_009": null }, "geometry": { "type": "Point", "coordinates": [ 130.873150762019833, 33.88805901939417 ] } },
{ "type": "Feature", "properties": { "P29_001": "40131", "P29_002": "H140313000047", "P29_003": "16016", "P29_004": "福岡看護専門学校", "P29_005": "福岡県福岡市東区和白丘2-1-12", "P29_006": "4", "P29_007": "0", "P29_008": "00", "P29_009": null }, "geometry": { "type": "Point", "coordinates": [ 130.432625833782538, 33.691185880426524 ] } },
{ "type": "Feature", "properties": { "P29_001": "40132", "P29_002": "H140313000109", "P29_003": "16016", "P29_004": "専門学校九州デザイナー学院", "P29_005": "福岡県福岡市博多区博多駅前3-8-24", "P29_006": "4", "P29_007": "0", "P29_008": "00", "P29_009": null }, "geometry": { "type": "Point", "coordinates": [ 130.417229433681541, 33.588031320161434 ] } },
{ "type": "Feature", "properties": { "P29_001": "40132", "P29_002": "H140313000118", "P29_003": "16016", "P29_004": "専門学校九州スクール・オブ・ビジネス", "P29_005": "福岡県福岡市博多区博多駅前3-8-24", "P29_006": "4", "P29_007": "0", "P29_008": "00", "P29_009": null }, "geometry": { "type": "Point", "coordinates": [ 130.417235445319761, 33.587996801069799 ] } },
{ "type": "Feature", "properties": { "P29_001": "40132", "P29_002": "H140313000216", "P29_003": "16016", "P29_004": "福岡リゾートアンドスポーツ専門学校", "P29_005": "福岡県福岡市博多区比恵2-9", "P29_006": "4", "P29_007": "0", "P29_008": "00", "P29_009": null }, "geometry": { "type": "Point", "coordinates": [ 130.427630744997174, 33.585366725873627 ] } },
{ "type": "Feature", "properties": { "P29_001": "40132", "P29_002": "H140313000332", "P29_003": "16016", "P29_004": "福岡リハビリテーション専門学校", "P29_005": "福岡県福岡市博多区博多駅前3-29-17", "P29_006": "4", "P29_007": "0", "P29_008": "00", "P29_009": null }, "geometry": { "type": "Point", "coordinates": [ 130.413675816731342, 33.589312026631987 ] } },
{ "type": "Feature", "properties": { "P29_001": "40132", "P29_002": "H140313000350", "P29_003": "16016", "P29_004": "福岡ＥＣＯ動物海洋専門学校", "P29_005": "福岡県福岡市博多区大博町4-16", "P29_006": "4", "P29_007": "0", "P29_008": "00", "P29_009": null }, "geometry": { "type": "Point", "coordinates": [ 130.404861802569286, 33.602684822343214 ] } },
{ "type": "Feature", "properties": { "P29_001": "40132", "P29_002": "H140313000430", "P29_003": "16016", "P29_004": "福岡こども専門学校", "P29_005": "福岡県福岡市博多区博多駅東1-16-31", "P29_006": "4", "P29_007": "0", "P29_008": "00", "P29_009": null }, "geometry": { "type": "Point", "coordinates": [ 130.424120526263295, 33.59087366953964 ] } },
{ "type": "Feature", "properties": { "P29_001": "40132", "P29_002": "H140313000458", "P29_003": "16016", "P29_004": "福岡ホテル・観光＆ウェディング専門学校", "P29_005": "福岡県福岡市博多区石城町20-9", "P29_006": "4", "P29_007": "0", "P29_008": "00", "P29_009": null }, "geometry": { "type": "Point", "coordinates": [ 130.407173254530051, 33.605329640083553 ] } },
{ "type": "Feature", "properties": { "P29_001": "40133", "P29_002": "H140313000680", "P29_003": "16016", "P29_004": "福岡天神医療リハビリ専門学校", "P29_005": "福岡県福岡市中央区渡辺通り4-3-7", "P29_006": "4", "P29_007": "0", "P29_008": "00", "P29_009": null }, "geometry": { "type": "Point", "coordinates": [ 130.401894146518345, 33.583716425688493 ] } },
{ "type": "Feature", "properties": { "P29_001": "40203", "P29_002": "H140320300021", "P29_003": "16016", "P29_004": "久留米医師会看護専門学校", "P29_005": "福岡県久留米市櫛原町45", "P29_006": "4", "P29_007": "0", "P29_008": "00", "P29_009": null }, "geometry": { "type": "Point", "coordinates": [ 130.514993788447924, 33.318554289878598 ] } },
{ "type": "Feature", "properties": { "P29_001": "40203", "P29_002": "H140320300076", "P29_003": "16016", "P29_004": "専修学校久留米ゼミナール", "P29_005": "福岡県久留米市天神町2-56", "P29_006": "4", "P29_007": "0", "P29_008": "00", "P29_009": null }, "geometry": { "type": "Point", "coordinates": [ 130.522588585598641, 33.310428464728638 ] } },
{ "type": "Feature", "properties": { "P29_001": "40203", "P29_002": "H140320300085", "P29_003": "16016", "P29_004": "専門学校共生館国際福祉医療カレッジ", "P29_005": "福岡県久留米市天神町3-82-2", "P29_006": "4", "P29_007": "0", "P29_008": "00", "P29_009": null }, "geometry": { "type": "Point", "coordinates": [ 130.522049281837639, 33.310086548502895 ] } },
{ "type": "Feature", "properties": { "P29_001": "40205", "P29_002": "H140320500047", "P29_003": "16016", "P29_004": "九州歯科技工専門学校", "P29_005": "福岡県飯塚市大字横田字大森770-1", "P29_006": "4", "P29_007": "0", "P29_008": "00", "P29_009": null }, "geometry": { "type": "Point", "coordinates": [ 130.668221743917229, 33.648841786121196 ] } },
{ "type": "Feature", "properties": { "P29_001": "40207", "P29_002": "H140320700018", "P29_003": "16016", "P29_004": "柳川山門医師会看護高等専修学校", "P29_005": "福岡県柳川市三橋町蒲船津351", "P29_006": "4", "P29_007": "0", "P29_008": "00", "P29_009": null }, "geometry": { "type": "Point", "coordinates": [ 130.422286053890588, 33.165285229430381 ] } },
{ "type": "Feature", "properties": { "P29_001": "40216", "P29_002": "H140321600017", "P29_003": "16016", "P29_004": "平岡調理・製菓専門学校", "P29_005": "福岡県小郡市大保1451", "P29_006": "4", "P29_007": "0", "P29_008": "00", "P29_009": null }, "geometry": { "type": "Point", "coordinates": [ 130.556780532318982, 33.409414428381176 ] } },
{ "type": "Feature", "properties": { "P29_001": "40216", "P29_002": "H140321600035", "P29_003": "16016", "P29_004": "高尾看護専門学校", "P29_005": "福岡県小郡市小郡字堂の前1421-4", "P29_006": "4", "P29_007": "0", "P29_008": "00", "P29_009": null }, "geometry": { "type": "Point", "coordinates": [ 130.543977676842019, 33.391993765203679 ] } },
{ "type": "Feature", "properties": { "P29_001": "40621", "P29_002": "H140362100016", "P29_003": "16016", "P29_004": "北九州保育福祉専門学校", "P29_005": "福岡県京都郡苅田町上片島1575", "P29_006": "4", "P29_007": "0", "P29_008": "00", "P29_009": null }, "geometry": { "type": "Point", "coordinates": [ 130.95140678915422, 33.744293848650912 ] } },
{ "type": "Feature", "properties": { "P29_001": "40135", "P29_002": "H140110000010", "P29_003": "16016", "P29_004": "国立障害者リハビリテーションセンター自立支援局福岡視力障害センター", "P29_005": "福岡県福岡市西区今津4820", "P29_006": "1", "P29_007": "0", "P29_008": "00", "P29_009": null }, "geometry": { "type": "Point", "coordinates": [ 130.257681664309217, 33.60901004024074 ] } },
{ "type": "Feature", "properties": { "P29_001": "40105", "P29_002": "H140210000018", "P29_003": "16016", "P29_004": "北九州市立戸畑高等専修学校", "P29_005": "福岡県北九州市戸畑区沢見1-3-47", "P29_006": "3", "P29_007": "0", "P29_008": "00", "P29_009": null }, "geometry": { "type": "Point", "coordinates": [ 130.836582394680136, 33.89003430928048 ] } },
{ "type": "Feature", "properties": { "P29_001": "40101", "P29_002": "H140310000025", "P29_003": "16016", "P29_004": "浅井和裁専門学校", "P29_005": "福岡県北九州市門司区清見2-7-6", "P29_006": "4", "P29_007": "0", "P29_008": "00", "P29_009": null }, "geometry": { "type": "Point", "coordinates": [ 130.978491037584348, 33.953142529081241 ] } },
{ "type": "Feature", "properties": { "P29_001": "40105", "P29_002": "H140310000034", "P29_003": "16016", "P29_004": "北九州市戸畑看護専門学校", "P29_005": "福岡県北九州市戸畑区正津町2-10", "P29_006": "4", "P29_007": "0", "P29_008": "00", "P29_009": null }, "geometry": { "type": "Point", "coordinates": [ 130.830988412792721, 33.89111097415136 ] } },
{ "type": "Feature", "properties": { "P29_001": "40106", "P29_002": "H140310000052", "P29_003": "16016", "P29_004": "北九州市立看護専門学校", "P29_005": "福岡県北九州市小倉北区馬借2-1-1", "P29_006": "4", "P29_007": "0", "P29_008": "00", "P29_009": null }, "geometry": { "type": "Point", "coordinates": [ 130.878475512477166, 33.879759810446657 ] } },
{ "type": "Feature", "properties": { "P29_001": "40106", "P29_002": "H140310000061", "P29_003": "16016", "P29_004": "健和看護学院", "P29_005": "福岡県北九州市小倉北区大手町15-1", "P29_006": "4", "P29_007": "0", "P29_008": "00", "P29_009": null }, "geometry": { "type": "Point", "coordinates": [ 130.871088015699655, 33.875345405894038 ] } },
{ "type": "Feature", "properties": { "P29_001": "40106", "P29_002": "H140310000070", "P29_003": "16016", "P29_004": "美萩野臨床医学専門学校", "P29_005": "福岡県北九州市小倉北区片野新町1-3-1", "P29_006": "4", "P29_007": "0", "P29_008": "00", "P29_009": null }, "geometry": { "type": "Point", "coordinates": [ 130.884196265461497, 33.865293860994854 ] } },
{ "type": "Feature", "properties": { "P29_001": "40106", "P29_002": "H140310000089", "P29_003": "16016", "P29_004": "美萩野保健衛生学院", "P29_005": "福岡県北九州市小倉北区片野新町2-5-28", "P29_006": "4", "P29_007": "0", "P29_008": "00", "P29_009": null }, "geometry": { "type": "Point", "coordinates": [ 130.885716912227906, 33.862267117153138 ] } },
{ "type": "Feature", "properties": { "P29_001": "40106", "P29_002": "H140310000098", "P29_003": "16016", "P29_004": "専門学校九州テクノカレッジ", "P29_005": "福岡県北九州市小倉北区清水4-8-1", "P29_006": "4", "P29_007": "0", "P29_008": "00", "P29_009": null }, "geometry": { "type": "Point", "coordinates": [ 130.859836291770677, 33.870520158027901 ] } },
{ "type": "Feature", "properties": { "P29_001": "40106", "P29_002": "H140310000114", "P29_003": "16016", "P29_004": "北九州小倉看護専門学校", "P29_005": "福岡県北九州市小倉北区中島1-19-17", "P29_006": "4", "P29_007": "0", "P29_008": "00", "P29_009": null }, "geometry": { "type": "Point", "coordinates": [ 130.877859573904317, 33.876262009785478 ] } },
{ "type": "Feature", "properties": { "P29_001": "40106", "P29_002": "H140310000123", "P29_003": "16016", "P29_004": "和裁専門学校若葉学園", "P29_005": "福岡県北九州市小倉北区足立2-3-27", "P29_006": "4", "P29_007": "0", "P29_008": "00", "P29_009": null }, "geometry": { "type": "Point", "coordinates": [ 130.899137893321495, 33.867401057962859 ] } },
{ "type": "Feature", "properties": { "P29_001": "40106", "P29_002": "H140310000132", "P29_003": "16016", "P29_004": "北九州調理製菓専門学校", "P29_005": "福岡県北九州市小倉北区浅野2-18-28", "P29_006": "4", "P29_007": "0", "P29_008": "00", "P29_009": null }, "geometry": { "type": "Point", "coordinates": [ 130.887920417641396, 33.885929228995003 ] } },
{ "type": "Feature", "properties": { "P29_001": "40106", "P29_002": "H140310000141", "P29_003": "16016", "P29_004": "ＫＣＳ北九州情報専門学校", "P29_005": "福岡県北九州市小倉北区浅野2-4-1", "P29_006": "4", "P29_007": "0", "P29_008": "00", "P29_009": null }, "geometry": { "type": "Point", "coordinates": [ 130.879209757046056, 33.888878989563075 ] } },
{ "type": "Feature", "properties": { "P29_001": "40106", "P29_002": "H140310000150", "P29_003": "16016", "P29_004": "専修学校河合塾北九州校", "P29_005": "福岡県北九州市小倉北区室町2-10-8", "P29_006": "4", "P29_007": "0", "P29_008": "00", "P29_009": null }, "geometry": { "type": "Point", "coordinates": [ 130.873527870776826, 33.887191983356395 ] } },
{ "type": "Feature", "properties": { "P29_001": "40106", "P29_002": "H140310000169", "P29_003": "16016", "P29_004": "麻生公務員専門学校北九州校", "P29_005": "福岡県北九州市小倉北区室町3-2-62", "P29_006": "4", "P29_007": "0", "P29_008": "00", "P29_009": null }, "geometry": { "type": "Point", "coordinates": [ 130.872329002363813, 33.888365421025973 ] } },
{ "type": "Feature", "properties": { "P29_001": "40106", "P29_002": "H140310000178", "P29_003": "16016", "P29_004": "麻生情報ビジネス専門学校北九州校", "P29_005": "福岡県北九州市小倉北区浅野2-11-33", "P29_006": "4", "P29_007": "0", "P29_008": "00", "P29_009": null }, "geometry": { "type": "Point", "coordinates": [ 130.882302285822249, 33.889026845256438 ] } },
{ "type": "Feature", "properties": { "P29_001": "40106", "P29_002": "H140310000196", "P29_003": "16016", "P29_004": "北九州予備校小倉駅校", "P29_005": "福岡県北九州市小倉北区浅野1-3-27", "P29_006": "4", "P29_007": "0", "P29_008": "00", "P29_009": null }, "geometry": { "type": "Point", "coordinates": [ 130.880736416793809, 33.888193591665441 ] } },
{ "type": "Feature", "properties": { "P29_001": "40106", "P29_002": "H140310000203", "P29_003": "16016", "P29_004": "福岡美容専門学校北九州校", "P29_005": "福岡県北九州市小倉北区上富野1-5-59", "P29_006": "4", "P29_007": "0", "P29_008": "00", "P29_009": null }, "geometry": { "type": "Point", "coordinates": [ 130.897283270525605, 33.88405517595848 ] } },
{ "type": "Feature", "properties": { "P29_001": "40106", "P29_002": "H140310000212", "P29_003": "16016", "P29_004": "大原ビジネス公務員専門学校北九州校", "P29_005": "福岡県北九州市小倉北区京町3-9-20", "P29_006": "4", "P29_007": "0", "P29_008": "00", "P29_009": null }, "geometry": { "type": "Point", "coordinates": [ 130.884700167305112, 33.885861096336519 ] } },
{ "type": "Feature", "properties": { "P29_001": "40106", "P29_002": "H140310000221", "P29_003": "16016", "P29_004": "九州医療スポーツ専門学校", "P29_005": "福岡県北九州市小倉北区馬借1-1-2", "P29_006": "4", "P29_007": "0", "P29_008": "00", "P29_009": null }, "geometry": { "type": "Point", "coordinates": [ 130.877884308733996, 33.882515678648296 ] } },
{ "type": "Feature", "properties": { "P29_001": "40106", "P29_002": "H140310000230", "P29_003": "16016", "P29_004": "大原医療スポーツ製菓専門学校小倉校", "P29_005": "福岡県北九州市小倉北区京町3-15-4", "P29_006": "4", "P29_007": "0", "P29_008": "00", "P29_009": null }, "geometry": { "type": "Point", "coordinates": [ 130.885030667173567, 33.885674789875011 ] } },
{ "type": "Feature", "properties": { "P29_001": "40107", "P29_002": "H140310000249", "P29_003": "16016", "P29_004": "専門学校北九州自動車大学校", "P29_005": "福岡県北九州市小倉南区蜷田若園1-2-24", "P29_006": "4", "P29_007": "0", "P29_008": "00", "P29_009": null }, "geometry": { "type": "Point", "coordinates": [ 130.88821008730045, 33.844179071649187 ] } },
{ "type": "Feature", "properties": { "P29_001": "40107", "P29_002": "H140310000258", "P29_003": "16016", "P29_004": "小倉南看護専門学校", "P29_005": "福岡県北九州市小倉南区蒲生5-5-2", "P29_006": "4", "P29_007": "0", "P29_008": "00", "P29_009": null }, "geometry": { "type": "Point", "coordinates": [ 130.859798530948154, 33.837947838787656 ] } },
{ "type": "Feature", "properties": { "P29_001": "40107", "P29_002": "H140310000267", "P29_003": "16016", "P29_004": "西日本看護専門学校", "P29_005": "福岡県北九州市小倉南区湯川5-9-27", "P29_006": "4", "P29_007": "0", "P29_008": "00", "P29_009": null }, "geometry": { "type": "Point", "coordinates": [ 130.906138073972727, 33.843806968505227 ] } },
{ "type": "Feature", "properties": { "P29_001": "40107", "P29_002": "H140310000276", "P29_003": "16016", "P29_004": "小倉リハビリテーション学院", "P29_005": "福岡県北九州市小倉南区葛原東2-2-10", "P29_006": "4", "P29_007": "0", "P29_008": "00", "P29_009": null }, "geometry": { "type": "Point", "coordinates": [ 130.932292621431117, 33.840555848584074 ] } },
{ "type": "Feature", "properties": { "P29_001": "40107", "P29_002": "H140310000285", "P29_003": "16016", "P29_004": "専門学校北九州看護大学校", "P29_005": "福岡県北九州市小倉南区春ヶ丘10-15", "P29_006": "4", "P29_007": "0", "P29_008": "00", "P29_009": null }, "geometry": { "type": "Point", "coordinates": [ 130.883679634918423, 33.848182652548523 ] } },
{ "type": "Feature", "properties": { "P29_001": "40108", "P29_002": "H140310000294", "P29_003": "16016", "P29_004": "製鉄記念八幡看護専門学校", "P29_005": "福岡県北九州市八幡東区春の町1-1-1", "P29_006": "4", "P29_007": "0", "P29_008": "00", "P29_009": null }, "geometry": { "type": "Point", "coordinates": [ 130.807010688584711, 33.866102186714514 ] } },
{ "type": "Feature", "properties": { "P29_001": "40108", "P29_002": "H140310000301", "P29_003": "16016", "P29_004": "八幡医師会看護専門学院", "P29_005": "福岡県北九州市八幡東区平野2-1-1", "P29_006": "4", "P29_007": "0", "P29_008": "00", "P29_009": null }, "geometry": { "type": "Point", "coordinates": [ 130.792640311939209, 33.864142760841766 ] } },
{ "type": "Feature", "properties": { "P29_001": "40108", "P29_002": "H140310000310", "P29_003": "16016", "P29_004": "専門学校大原自動車工科大学校", "P29_005": "福岡県北九州市八幡東区宮の町1-1-1", "P29_006": "4", "P29_007": "0", "P29_008": "00", "P29_009": null }, "geometry": { "type": "Point", "coordinates": [ 130.831837257843034, 33.860846171089101 ] } },
{ "type": "Feature", "properties": { "P29_001": "40108", "P29_002": "H140310000329", "P29_003": "16016", "P29_004": "日本ウェルネススポーツ専門学校北九州校", "P29_005": "福岡県北九州市八幡東区勝山2-7-5", "P29_006": "4", "P29_007": "0", "P29_008": "00", "P29_009": null }, "geometry": { "type": "Point", "coordinates": [ 130.815059861944661, 33.851692494239444 ] } },
{ "type": "Feature", "properties": { "P29_001": "40109", "P29_002": "H140310000338", "P29_003": "16016", "P29_004": "北九州予備校黒崎校", "P29_005": "福岡県北九州市八幡西区黒崎3-12-21", "P29_006": "4", "P29_007": "0", "P29_008": "00", "P29_009": null }, "geometry": { "type": "Point", "coordinates": [ 130.76197958855272, 33.865573626891873 ] } },
{ "type": "Feature", "properties": { "P29_001": "40108", "P29_002": "H140310000347", "P29_003": "16016", "P29_004": "九州ＣＴＢ理容美容専門学校", "P29_005": "福岡県北九州市八幡東区西本町2-2-1", "P29_006": "4", "P29_007": "0", "P29_008": "00", "P29_009": null }, "geometry": { "type": "Point", "coordinates": [ 130.795477966682938, 33.867151150560893 ] } },
{ "type": "Feature", "properties": { "P29_001": "40106", "P29_002": "H140310000356", "P29_003": "16016", "P29_004": "北九州情報ITクリエイター専門学校", "P29_005": "福岡県北九州市小倉北区京町3-9-20", "P29_006": "4", "P29_007": "0", "P29_008": "00", "P29_009": null }, "geometry": { "type": "Point", "coordinates": [ 130.884818045591544, 33.885810369329668 ] } },
{ "type": "Feature", "properties": { "P29_001": "40131", "P29_002": "H140313000010", "P29_003": "16016", "P29_004": "福岡建設専門学校", "P29_005": "福岡県福岡市東区箱崎6-15-34", "P29_006": "4", "P29_007": "0", "P29_008": "00", "P29_009": null }, "geometry": { "type": "Point", "coordinates": [ 130.422899319940342, 33.625649834343754 ] } },
{ "type": "Feature", "properties": { "P29_001": "40131", "P29_002": "H140313000029", "P29_003": "16016", "P29_004": "原看護専門学校", "P29_005": "福岡県福岡市東区青葉6-40-7", "P29_006": "4", "P29_007": "0", "P29_008": "00", "P29_009": null }, "geometry": { "type": "Point", "coordinates": [ 130.469320177935458, 33.644559146836436 ] } },
{ "type": "Feature", "properties": { "P29_001": "40131", "P29_002": "H140313000038", "P29_003": "16016", "P29_004": "福岡外語専門学校", "P29_005": "福岡県福岡市東区馬出1-8-27", "P29_006": "4", "P29_007": "0", "P29_008": "00", "P29_009": null }, "geometry": { "type": "Point", "coordinates": [ 130.42133398114197, 33.608038310394498 ] } },
{ "type": "Feature", "properties": { "P29_001": "40131", "P29_002": "H140313000056", "P29_003": "16016", "P29_004": "福岡和白リハビリテーション学院", "P29_005": "福岡県福岡市東区和白丘2-1-13", "P29_006": "4", "P29_007": "0", "P29_008": "00", "P29_009": null }, "geometry": { "type": "Point", "coordinates": [ 130.432561057741708, 33.691207284441653 ] } },
{ "type": "Feature", "properties": { "P29_001": "40132", "P29_002": "H140313000065", "P29_003": "16016", "P29_004": "博多メディカル専門学校", "P29_005": "福岡県福岡市博多区千代4-32-1", "P29_006": "4", "P29_007": "0", "P29_008": "00", "P29_009": null }, "geometry": { "type": "Point", "coordinates": [ 130.418028883624459, 33.607982820530829 ] } },
{ "type": "Feature", "properties": { "P29_001": "40132", "P29_002": "H140313000074", "P29_003": "16016", "P29_004": "福岡国土建設専門学校", "P29_005": "福岡県福岡市博多区三筑2-7-8", "P29_006": "4", "P29_007": "0", "P29_008": "00", "P29_009": null }, "geometry": { "type": "Point", "coordinates": [ 130.454817391239686, 33.548822916740171 ] } },
{ "type": "Feature", "properties": { "P29_001": "40132", "P29_002": "H140313000083", "P29_003": "16016", "P29_004": "九州電気専門学校", "P29_005": "福岡県福岡市博多区住吉4-4-5", "P29_006": "4", "P29_007": "0", "P29_008": "00", "P29_009": null }, "geometry": { "type": "Point", "coordinates": [ 130.415056144707478, 33.583689591442678 ] } },
{ "type": "Feature", "properties": { "P29_001": "40132", "P29_002": "H140313000092", "P29_003": "16016", "P29_004": "専門学校日本デザイナー学院", "P29_005": "福岡県福岡市博多区博多駅前4-18-6", "P29_006": "4", "P29_007": "0", "P29_008": "00", "P29_009": null }, "geometry": { "type": "Point", "coordinates": [ 130.419881774967308, 33.584409015702789 ] } },
{ "type": "Feature", "properties": { "P29_001": "40132", "P29_002": "H140313000127", "P29_003": "16016", "P29_004": "九州観光専門学校", "P29_005": "福岡県福岡市博多区博多駅前3-8-24", "P29_006": "4", "P29_007": "0", "P29_008": "00", "P29_009": null }, "geometry": { "type": "Point", "coordinates": [ 130.417275941563844, 33.587961346522178 ] } },
{ "type": "Feature", "properties": { "P29_001": "40132", "P29_002": "H140313000145", "P29_003": "16016", "P29_004": "麻生情報ビジネス専門学校", "P29_005": "福岡県福岡市博多区博多駅南2-12-32", "P29_006": "4", "P29_007": "0", "P29_008": "00", "P29_009": null }, "geometry": { "type": "Point", "coordinates": [ 130.421167081235296, 33.583385103147045 ] } },
{ "type": "Feature", "properties": { "P29_001": "40132", "P29_002": "H140313000154", "P29_003": "16016", "P29_004": "公務員ビジネス専門学校", "P29_005": "福岡県福岡市博多区博多駅前3-29-8", "P29_006": "4", "P29_007": "0", "P29_008": "00", "P29_009": null }, "geometry": { "type": "Point", "coordinates": [ 130.413919792492294, 33.589272463139906 ] } },
{ "type": "Feature", "properties": { "P29_001": "40132", "P29_002": "H140313000163", "P29_003": "16016", "P29_004": "福岡医療秘書福祉専門学校", "P29_005": "福岡県福岡市博多区博多駅東1-16-22", "P29_006": "4", "P29_007": "0", "P29_008": "00", "P29_009": null }, "geometry": { "type": "Point", "coordinates": [ 130.419857114979749, 33.58508855459624 ] } },
{ "type": "Feature", "properties": { "P29_001": "40132", "P29_002": "H140313000172", "P29_003": "16016", "P29_004": "専門学校第一自動車大学校", "P29_005": "福岡県福岡市博多区東光2-14-12", "P29_006": "4", "P29_007": "0", "P29_008": "00", "P29_009": null }, "geometry": { "type": "Point", "coordinates": [ 130.428307248954241, 33.595162598963157 ] } },
{ "type": "Feature", "properties": { "P29_001": "40132", "P29_002": "H140313000181", "P29_003": "16016", "P29_004": "大原簿記ビジネス専門学校福岡校", "P29_005": "福岡県福岡市博多区上川端町14-13", "P29_006": "4", "P29_007": "0", "P29_008": "00", "P29_009": null }, "geometry": { "type": "Point", "coordinates": [ 130.40756746603688, 33.59550311641491 ] } },
{ "type": "Feature", "properties": { "P29_001": "40132", "P29_002": "H140313000190", "P29_003": "16016", "P29_004": "麻生外語観光＆ブライダル専門学校", "P29_005": "福岡県福岡市博多区博多駅南1-14-17", "P29_006": "4", "P29_007": "0", "P29_008": "00", "P29_009": null }, "geometry": { "type": "Point", "coordinates": [ 130.421687067695075, 33.583742959122624 ] } },
{ "type": "Feature", "properties": { "P29_001": "40132", "P29_002": "H140313000207", "P29_003": "16016", "P29_004": "専修学校代々木ゼミナール福岡校", "P29_005": "福岡県福岡市博多区博多駅前4-2-25", "P29_006": "4", "P29_007": "0", "P29_008": "00", "P29_009": null }, "geometry": { "type": "Point", "coordinates": [ 130.417968055397949, 33.586753842804285 ] } },
{ "type": "Feature", "properties": { "P29_001": "40132", "P29_002": "H140313000225", "P29_003": "16016", "P29_004": "福岡デザイン＆テクノロジー専門学校", "P29_005": "福岡県福岡市博多区石城町21-2", "P29_006": "4", "P29_007": "0", "P29_008": "00", "P29_009": null }, "geometry": { "type": "Point", "coordinates": [ 130.407721994585955, 33.604860757627513 ] } },
{ "type": "Feature", "properties": { "P29_001": "40132", "P29_002": "H140313000234", "P29_003": "16016", "P29_004": "医療ビジネス専門学校", "P29_005": "福岡県福岡市博多区博多駅前3-28-11", "P29_006": "4", "P29_007": "0", "P29_008": "00", "P29_009": null }, "geometry": { "type": "Point", "coordinates": [ 130.414556830988829, 33.589328724002044 ] } },
{ "type": "Feature", "properties": { "P29_001": "40132", "P29_002": "H140313000243", "P29_003": "16016", "P29_004": "麻生医療福祉専門学校福岡校", "P29_005": "福岡県福岡市博多区博多駅南2-12-29", "P29_006": "4", "P29_007": "0", "P29_008": "00", "P29_009": null }, "geometry": { "type": "Point", "coordinates": [ 130.420897173009365, 33.583478256377809 ] } },
{ "type": "Feature", "properties": { "P29_001": "40132", "P29_002": "H140313000252", "P29_003": "16016", "P29_004": "専門学校九州ビジュアルアーツ", "P29_005": "福岡県福岡市博多区博多駅前3-8-24", "P29_006": "4", "P29_007": "0", "P29_008": "00", "P29_009": null }, "geometry": { "type": "Point", "coordinates": [ 130.417193316596723, 33.588027752785685 ] } },
{ "type": "Feature", "properties": { "P29_001": "40132", "P29_002": "H140313000261", "P29_003": "16016", "P29_004": "麻生建築＆デザイン専門学校", "P29_005": "福岡県福岡市博多区博多駅南1-11-13", "P29_006": "4", "P29_007": "0", "P29_008": "00", "P29_009": null }, "geometry": { "type": "Point", "coordinates": [ 130.421195672770551, 33.585023633972547 ] } },
{ "type": "Feature", "properties": { "P29_001": "40132", "P29_002": "H140313000270", "P29_003": "16016", "P29_004": "福岡スクールオブミュージック＆ダンス専門学校", "P29_005": "福岡県福岡市博多区石城町21-2", "P29_006": "4", "P29_007": "0", "P29_008": "00", "P29_009": null }, "geometry": { "type": "Point", "coordinates": [ 130.407772671232436, 33.60471503277148 ] } },
{ "type": "Feature", "properties": { "P29_001": "40132", "P29_002": "H140313000289", "P29_003": "16016", "P29_004": "北九州予備校博多駅校", "P29_005": "福岡県福岡市博多区博多駅前1-21-4", "P29_006": "4", "P29_007": "0", "P29_008": "00", "P29_009": null }, "geometry": { "type": "Point", "coordinates": [ 130.418675733236398, 33.59342175404543 ] } },
{ "type": "Feature", "properties": { "P29_001": "40132", "P29_002": "H140313000298", "P29_003": "16016", "P29_004": "福岡ビューティーアート専門学校", "P29_005": "福岡県福岡市博多区博多駅東1-16-28", "P29_006": "4", "P29_007": "0", "P29_008": "00", "P29_009": null }, "geometry": { "type": "Point", "coordinates": [ 130.424314456539548, 33.590806871731644 ] } },
{ "type": "Feature", "properties": { "P29_001": "40132", "P29_002": "H140313000305", "P29_003": "16016", "P29_004": "専門学校麻生リハビリテーション大学校", "P29_005": "福岡県福岡市博多区東比恵3-2-1", "P29_006": "4", "P29_007": "0", "P29_008": "00", "P29_009": null }, "geometry": { "type": "Point", "coordinates": [ 130.43147235215568, 33.589493249333636 ] } },
{ "type": "Feature", "properties": { "P29_001": "40132", "P29_002": "H140313000314", "P29_003": "16016", "P29_004": "大原スポーツ公務員専門学校福岡校", "P29_005": "福岡県福岡市博多区上川端町14-13", "P29_006": "4", "P29_007": "0", "P29_008": "00", "P29_009": null }, "geometry": { "type": "Point", "coordinates": [ 130.407576279366708, 33.595457923263353 ] } },
{ "type": "Feature", "properties": { "P29_001": "40132", "P29_002": "H140313000323", "P29_003": "16016", "P29_004": "福岡医健・スポーツ専門学校", "P29_005": "福岡県福岡市博多区石城町7-30", "P29_006": "4", "P29_007": "0", "P29_008": "00", "P29_009": null }, "geometry": { "type": "Point", "coordinates": [ 130.406864898260324, 33.604762531696075 ] } },
{ "type": "Feature", "properties": { "P29_001": "40132", "P29_002": "H140313000341", "P29_003": "16016", "P29_004": "専門学校福岡ビジョナリーアーツ", "P29_005": "福岡県福岡市博多区博多駅前3-16-3", "P29_006": "4", "P29_007": "0", "P29_008": "00", "P29_009": null }, "geometry": { "type": "Point", "coordinates": [ 130.413384658121885, 33.588934436812465 ] } },
{ "type": "Feature", "properties": { "P29_001": "40132", "P29_002": "H140313000369", "P29_003": "16016", "P29_004": "福岡ベルエポック美容専門学校", "P29_005": "福岡県福岡市博多区大博町4-17", "P29_006": "4", "P29_007": "0", "P29_008": "00", "P29_009": null }, "geometry": { "type": "Point", "coordinates": [ 130.40497264581478, 33.602912415629739 ] } },
{ "type": "Feature", "properties": { "P29_001": "40132", "P29_002": "H140313000378", "P29_003": "16016", "P29_004": "麻生公務員専門学校福岡校", "P29_005": "福岡県福岡市博多区博多駅南1-14-14", "P29_006": "4", "P29_007": "0", "P29_008": "00", "P29_009": null }, "geometry": { "type": "Point", "coordinates": [ 130.421715711017015, 33.58397353642647 ] } },
{ "type": "Feature", "properties": { "P29_001": "40132", "P29_002": "H140313000387", "P29_003": "16016", "P29_004": "大原保育医療福祉専門学校福岡校", "P29_005": "福岡県福岡市博多区上川端町13-19", "P29_006": "4", "P29_007": "0", "P29_008": "00", "P29_009": null }, "geometry": { "type": "Point", "coordinates": [ 130.407300862809649, 33.595345401539078 ] } },
{ "type": "Feature", "properties": { "P29_001": "40132", "P29_002": "H140313000396", "P29_003": "16016", "P29_004": "専門学校麻生工科自動車大学校", "P29_005": "福岡県福岡市博多区東比恵2-8-28", "P29_006": "4", "P29_007": "0", "P29_008": "00", "P29_009": null }, "geometry": { "type": "Point", "coordinates": [ 130.428093648721529, 33.591562086733241 ] } },
{ "type": "Feature", "properties": { "P29_001": "40132", "P29_002": "H140313000403", "P29_003": "16016", "P29_004": "専門学校公務員ゼミナール", "P29_005": "福岡県福岡市博多区博多駅南2-14-5", "P29_006": "4", "P29_007": "0", "P29_008": "00", "P29_009": null }, "geometry": { "type": "Point", "coordinates": [ 130.421695530567177, 33.581736691295184 ] } },
{ "type": "Feature", "properties": { "P29_001": "40132", "P29_002": "H140313000412", "P29_003": "16016", "P29_004": "福岡キャリナリー農業・食テクノロジー専門学校", "P29_005": "福岡県福岡市博多区石城町20-9", "P29_006": "4", "P29_007": "0", "P29_008": "00", "P29_009": null }, "geometry": { "type": "Point", "coordinates": [ 130.40718836059196, 33.605273602126097 ] } },
{ "type": "Feature", "properties": { "P29_001": "40132", "P29_002": "H140313000421", "P29_003": "16016", "P29_004": "国際アニメーション専門学校", "P29_005": "福岡県福岡市博多区博多駅前2-13-23", "P29_006": "4", "P29_007": "0", "P29_008": "00", "P29_009": null }, "geometry": { "type": "Point", "coordinates": [ 130.41521300619047, 33.590876334471865 ] } },
{ "type": "Feature", "properties": { "P29_001": "40132", "P29_002": "H140313000449", "P29_003": "16016", "P29_004": "福岡ウェディング＆ブライダル専門学校", "P29_005": "福岡県福岡市博多区博多駅東1-10-39", "P29_006": "4", "P29_007": "0", "P29_008": "00", "P29_009": null }, "geometry": { "type": "Point", "coordinates": [ 130.423397487705955, 33.591506167673906 ] } },
{ "type": "Feature", "properties": { "P29_001": "40132", "P29_002": "H140313000467", "P29_003": "16016", "P29_004": "福岡スクールオブミュージック高等専修学校", "P29_005": "福岡県福岡市博多区石城町20-39", "P29_006": "4", "P29_007": "0", "P29_008": "00", "P29_009": null }, "geometry": { "type": "Point", "coordinates": [ 130.40747659843359, 33.604752386294706 ] } },
{ "type": "Feature", "properties": { "P29_001": "40132", "P29_002": "H140313000476", "P29_003": "16016", "P29_004": "ＡＳＯポップカルチャー専門学校", "P29_005": "福岡県福岡市博多区博多駅南1-13-14", "P29_006": "4", "P29_007": "0", "P29_008": "00", "P29_009": null }, "geometry": { "type": "Point", "coordinates": [ 130.421129624583529, 33.583771550708299 ] } },
{ "type": "Feature", "properties": { "P29_001": "40133", "P29_002": "H140313000485", "P29_003": "16016", "P29_004": "ＫＣＳ福岡情報専門学校", "P29_005": "福岡県福岡市中央区春吉1-11-18", "P29_006": "4", "P29_007": "0", "P29_008": "00", "P29_009": null }, "geometry": { "type": "Point", "coordinates": [ 130.408855459210997, 33.584119494360721 ] } },
{ "type": "Feature", "properties": { "P29_001": "40133", "P29_002": "H140313000494", "P29_003": "16016", "P29_004": "専門学校福岡カレッジ・オブ・ビジネス", "P29_005": "福岡県福岡市中央区大濠2-8-13", "P29_006": "4", "P29_007": "0", "P29_008": "00", "P29_009": null }, "geometry": { "type": "Point", "coordinates": [ 130.372025061425347, 33.586260492202562 ] } },
{ "type": "Feature", "properties": { "P29_001": "40133", "P29_002": "H140313000500", "P29_003": "16016", "P29_004": "香蘭ファッションデザイン専門学校", "P29_005": "福岡県福岡市中央区大手門2-10-5", "P29_006": "4", "P29_007": "0", "P29_008": "00", "P29_009": null }, "geometry": { "type": "Point", "coordinates": [ 130.384871732299075, 33.590862604755579 ] } },
{ "type": "Feature", "properties": { "P29_001": "40133", "P29_002": "H140313000519", "P29_003": "16016", "P29_004": "九州英数学舘", "P29_005": "福岡県福岡市中央区舞鶴1-5-30", "P29_006": "4", "P29_007": "0", "P29_008": "00", "P29_009": null }, "geometry": { "type": "Point", "coordinates": [ 130.393116801679639, 33.593550105818579 ] } },
{ "type": "Feature", "properties": { "P29_001": "40133", "P29_002": "H140313000528", "P29_003": "16016", "P29_004": "福岡調理師専門学校", "P29_005": "福岡県福岡市中央区天神3-6-35", "P29_006": "4", "P29_007": "0", "P29_008": "00", "P29_009": null }, "geometry": { "type": "Point", "coordinates": [ 130.396097839097678, 33.593274887855799 ] } },
{ "type": "Feature", "properties": { "P29_001": "40133", "P29_002": "H140313000537", "P29_003": "16016", "P29_004": "専門学校ライセンスカレッジ", "P29_005": "福岡県福岡市中央区天神1-3-38", "P29_006": "4", "P29_007": "0", "P29_008": "00", "P29_009": null }, "geometry": { "type": "Point", "coordinates": [ 130.402656696736017, 33.589471766345589 ] } },
{ "type": "Feature", "properties": { "P29_001": "40133", "P29_002": "H140313000546", "P29_003": "16016", "P29_004": "福岡歯科衛生専門学校", "P29_005": "福岡県福岡市中央区大名1-12-43", "P29_006": "4", "P29_007": "0", "P29_008": "00", "P29_009": null }, "geometry": { "type": "Point", "coordinates": [ 130.394560435391156, 33.587994874786517 ] } },
{ "type": "Feature", "properties": { "P29_001": "40133", "P29_002": "H140313000555", "P29_003": "16016", "P29_004": "中村調理製菓専門学校", "P29_005": "福岡県福岡市中央区平尾2-1-21", "P29_006": "4", "P29_007": "0", "P29_008": "00", "P29_009": null }, "geometry": { "type": "Point", "coordinates": [ 130.403084793885483, 33.575826402092233 ] } },
{ "type": "Feature", "properties": { "P29_001": "40133", "P29_002": "H140313000564", "P29_003": "16016", "P29_004": "専門学校コンピュータ教育学院", "P29_005": "福岡県福岡市中央区天神4-5-5", "P29_006": "4", "P29_007": "0", "P29_008": "00", "P29_009": null }, "geometry": { "type": "Point", "coordinates": [ 130.398886971007414, 33.594629820284609 ] } },
{ "type": "Feature", "properties": { "P29_001": "40133", "P29_002": "H140313000582", "P29_003": "16016", "P29_004": "Ｆ・Ｃフチガミ医療福祉専門学校", "P29_005": "福岡県福岡市中央区今泉1-4-18", "P29_006": "4", "P29_007": "0", "P29_008": "00", "P29_009": null }, "geometry": { "type": "Point", "coordinates": [ 130.399534380400098, 33.583992269076134 ] } },
{ "type": "Feature", "properties": { "P29_001": "40133", "P29_002": "H140313000591", "P29_003": "16016", "P29_004": "中村国際ホテル専門学校", "P29_005": "福岡県福岡市中央区平尾2-1-21", "P29_006": "4", "P29_007": "0", "P29_008": "00", "P29_009": null }, "geometry": { "type": "Point", "coordinates": [ 130.402954797270525, 33.575914021467689 ] } },
{ "type": "Feature", "properties": { "P29_001": "40133", "P29_002": "H140313000608", "P29_003": "16016", "P29_004": "大村美容ファッション専門学校", "P29_005": "福岡県福岡市中央区黒門2-6", "P29_006": "4", "P29_007": "0", "P29_008": "00", "P29_009": null }, "geometry": { "type": "Point", "coordinates": [ 130.372919116606141, 33.589658467426212 ] } },
{ "type": "Feature", "properties": { "P29_001": "40133", "P29_002": "H140313000617", "P29_003": "16016", "P29_004": "専門学校西鉄国際ビジネスカレッジ", "P29_005": "福岡県福岡市中央区平尾1-13-32", "P29_006": "4", "P29_007": "0", "P29_008": "00", "P29_009": null }, "geometry": { "type": "Point", "coordinates": [ 130.400958118501023, 33.577862434809511 ] } },
{ "type": "Feature", "properties": { "P29_001": "40133", "P29_002": "H140313000626", "P29_003": "16016", "P29_004": "専修学校河合塾福岡校", "P29_005": "福岡県福岡市中央区渡辺通4-2-11", "P29_006": "4", "P29_007": "0", "P29_008": "00", "P29_009": null }, "geometry": { "type": "Point", "coordinates": [ 130.402144721587433, 33.584221467296317 ] } },
{ "type": "Feature", "properties": { "P29_001": "40133", "P29_002": "H140313000635", "P29_003": "16016", "P29_004": "ＩＬＰお茶の水医療福祉専門学校", "P29_005": "福岡県福岡市中央区大名1-9-51", "P29_006": "4", "P29_007": "0", "P29_008": "00", "P29_009": null }, "geometry": { "type": "Point", "coordinates": [ 130.393021586891336, 33.587685845915189 ] } },
{ "type": "Feature", "properties": { "P29_001": "40133", "P29_002": "H140313000644", "P29_003": "16016", "P29_004": "福岡デザイン専門学校", "P29_005": "福岡県福岡市中央区赤坂1-10-10", "P29_006": "4", "P29_007": "0", "P29_008": "00", "P29_009": null }, "geometry": { "type": "Point", "coordinates": [ 130.390313172755782, 33.58848769575787 ] } },
{ "type": "Feature", "properties": { "P29_001": "40133", "P29_002": "H140313000653", "P29_003": "16016", "P29_004": "福岡有朋高等専修学校", "P29_005": "福岡県福岡市中央区大手門1-3-7", "P29_006": "4", "P29_007": "0", "P29_008": "00", "P29_009": null }, "geometry": { "type": "Point", "coordinates": [ 130.384875633404903, 33.589373405246789 ] } },
{ "type": "Feature", "properties": { "P29_001": "40132", "P29_002": "H140313000662", "P29_003": "16016", "P29_004": "麻生美容専門学校", "P29_005": "福岡県福岡市博多区博多駅南1-13-16", "P29_006": "4", "P29_007": "0", "P29_008": "00", "P29_009": null }, "geometry": { "type": "Point", "coordinates": [ 130.420843191364185, 33.58379460843868 ] } },
{ "type": "Feature", "properties": { "P29_001": "40133", "P29_002": "H140313000671", "P29_003": "16016", "P29_004": "福岡美容専門学校福岡校", "P29_005": "福岡県福岡市中央区荒戸2-3-12", "P29_006": "4", "P29_007": "0", "P29_008": "00", "P29_009": null }, "geometry": { "type": "Point", "coordinates": [ 130.376175916665147, 33.592078759064613 ] } },
{ "type": "Feature", "properties": { "P29_001": "40133", "P29_002": "H140313000699", "P29_003": "16016", "P29_004": "専門学校東京国際ビジネスカレッジ福岡校", "P29_005": "福岡県福岡市中央区平尾1-7-1", "P29_006": "4", "P29_007": "0", "P29_008": "00", "P29_009": null }, "geometry": { "type": "Point", "coordinates": [ 130.402011208216493, 33.5779950586507 ] } },
{ "type": "Feature", "properties": { "P29_001": "40133", "P29_002": "H140313000706", "P29_003": "16016", "P29_004": "駿台予備学校福岡校", "P29_005": "福岡県福岡市中央区舞鶴1-2-5", "P29_006": "4", "P29_007": "0", "P29_008": "00", "P29_009": null }, "geometry": { "type": "Point", "coordinates": [ 130.393598763280551, 33.591191602221315 ] } },
{ "type": "Feature", "properties": { "P29_001": "40133", "P29_002": "H140313000715", "P29_003": "16016", "P29_004": "福岡理容美容専門学校", "P29_005": "福岡県福岡市中央区大名2-2-9", "P29_006": "4", "P29_007": "0", "P29_008": "00", "P29_009": null }, "geometry": { "type": "Point", "coordinates": [ 130.392741922323921, 33.587941711564056 ] } },
{ "type": "Feature", "properties": { "P29_001": "40133", "P29_002": "H140313000724", "P29_003": "16016", "P29_004": "専門学校ＥＳＰエンタテインメント福岡", "P29_005": "福岡県福岡市中央区舞鶴3-1-6", "P29_006": "4", "P29_007": "0", "P29_008": "00", "P29_009": null }, "geometry": { "type": "Point", "coordinates": [ 130.389409867767171, 33.590409294394505 ] } },
{ "type": "Feature", "properties": { "P29_001": "40134", "P29_002": "H140313000733", "P29_003": "16016", "P29_004": "福岡県私設病院協会看護学校", "P29_005": "福岡県福岡市南区那の川1-5-27", "P29_006": "4", "P29_007": "0", "P29_008": "00", "P29_009": null }, "geometry": { "type": "Point", "coordinates": [ 130.417307800992518, 33.575298512910294 ] } },
{ "type": "Feature", "properties": { "P29_001": "40134", "P29_002": "H140313000742", "P29_003": "16016", "P29_004": "西日本アカデミー航空専門学校", "P29_005": "福岡県福岡市南区大橋4-13-27", "P29_006": "4", "P29_007": "0", "P29_008": "00", "P29_009": null }, "geometry": { "type": "Point", "coordinates": [ 130.42666821626176, 33.556467016481164 ] } },
{ "type": "Feature", "properties": { "P29_001": "40134", "P29_002": "H140313000751", "P29_003": "16016", "P29_004": "専門学校コンピュータ教育学院メディアコミュニケーション", "P29_005": "福岡県福岡市南区向野2-10-30", "P29_006": "4", "P29_007": "0", "P29_008": "00", "P29_009": null }, "geometry": { "type": "Point", "coordinates": [ 130.422239699568394, 33.562080913366913 ] } },
{ "type": "Feature", "properties": { "P29_001": "40134", "P29_002": "H140313000760", "P29_003": "16016", "P29_004": "国際エステティック専門学校", "P29_005": "福岡県福岡市南区大橋2-25-3", "P29_006": "4", "P29_007": "0", "P29_008": "00", "P29_009": null }, "geometry": { "type": "Point", "coordinates": [ 130.431898996460234, 33.555269836597475 ] } },
{ "type": "Feature", "properties": { "P29_001": "40134", "P29_002": "H140313000779", "P29_003": "16016", "P29_004": "専門学校国際貢献専門大学校", "P29_005": "福岡県福岡市南区塩原4-17-7", "P29_006": "4", "P29_007": "0", "P29_008": "00", "P29_009": null }, "geometry": { "type": "Point", "coordinates": [ 130.43057163216136, 33.558582830371193 ] } },
{ "type": "Feature", "properties": { "P29_001": "40132", "P29_002": "H140313000788", "P29_003": "16016", "P29_004": "福岡介護福祉専門学校", "P29_005": "福岡県福岡市博多区千代1-30-25", "P29_006": "4", "P29_007": "0", "P29_008": "00", "P29_009": null }, "geometry": { "type": "Point", "coordinates": [ 130.419889999713661, 33.603691530555537 ] } },
{ "type": "Feature", "properties": { "P29_001": "40137", "P29_002": "H140313000797", "P29_003": "16016", "P29_004": "福岡市医師会看護専門学校", "P29_005": "福岡県福岡市早良区百道浜1-6-9", "P29_006": "4", "P29_007": "0", "P29_008": "00", "P29_009": null }, "geometry": { "type": "Point", "coordinates": [ 130.356602291079412, 33.592087437458801 ] } },
{ "type": "Feature", "properties": { "P29_001": "40137", "P29_002": "H140313000804", "P29_003": "16016", "P29_004": "福岡医療専門学校", "P29_005": "福岡県福岡市早良区祖原3-1", "P29_006": "4", "P29_007": "0", "P29_008": "00", "P29_009": null }, "geometry": { "type": "Point", "coordinates": [ 130.358669639100384, 33.58030664675104 ] } },
{ "type": "Feature", "properties": { "P29_001": "40132", "P29_002": "H140313000822", "P29_003": "16016", "P29_004": "愛和システムエンジニア専門学校", "P29_005": "福岡県福岡市博多区博多駅前4-21-11", "P29_006": "4", "P29_007": "0", "P29_008": "00", "P29_009": null }, "geometry": { "type": "Point", "coordinates": [ 130.418063221721582, 33.584804558099457 ] } },
{ "type": "Feature", "properties": { "P29_001": "40133", "P29_002": "H140313000831", "P29_003": "16016", "P29_004": "高等専修学校Ｃ＆Ｓ学院", "P29_005": "福岡県福岡市中央区大手門2-9-24", "P29_006": "4", "P29_007": "0", "P29_008": "00", "P29_009": null }, "geometry": { "type": "Point", "coordinates": [ 130.386389060505394, 33.591105761765341 ] } },
{ "type": "Feature", "properties": { "P29_001": "40132", "P29_002": "H140313000840", "P29_003": "16016", "P29_004": "専門学校愛心国際ビジネスカレッジ", "P29_005": "福岡県福岡市博多区堅粕3-13-21", "P29_006": "4", "P29_007": "0", "P29_008": "00", "P29_009": null }, "geometry": { "type": "Point", "coordinates": [ 130.422742965579971, 33.598304451259992 ] } },
{ "type": "Feature", "properties": { "P29_001": "40132", "P29_002": "H140313000859", "P29_003": "16016", "P29_004": "東アジア情報専門学校", "P29_005": "福岡県福岡市博多区美野島1-19-11", "P29_006": "4", "P29_007": "0", "P29_008": "00", "P29_009": null }, "geometry": { "type": "Point", "coordinates": [ 130.416096790768734, 33.579538331296646 ] } },
{ "type": "Feature", "properties": { "P29_001": "40132", "P29_002": "H140313000868", "P29_003": "16016", "P29_004": "福岡情報ＩＴクリエイター専門学校", "P29_005": "福岡県福岡市博多区上川端町14-16", "P29_006": "4", "P29_007": "0", "P29_008": "00", "P29_009": null }, "geometry": { "type": "Point", "coordinates": [ 130.407448486084235, 33.59554554263881 ] } },
{ "type": "Feature", "properties": { "P29_001": "40131", "P29_002": "H140313000877", "P29_003": "16016", "P29_004": "グローバルクリエイター専門学校", "P29_005": "福岡県福岡市東区箱崎4-8-15", "P29_006": "4", "P29_007": "0", "P29_008": "00", "P29_009": null }, "geometry": { "type": "Point", "coordinates": [ 130.418245736568224, 33.620222153903384 ] } },
{ "type": "Feature", "properties": { "P29_001": "40133", "P29_002": "H140313000886", "P29_003": "16016", "P29_004": "大村グローバルビジネス専門学校", "P29_005": "福岡県福岡市中央区黒門4-41", "P29_006": "4", "P29_007": "0", "P29_008": "00", "P29_009": null }, "geometry": { "type": "Point", "coordinates": [ 130.372776502501409, 33.589170863766427 ] } },
{ "type": "Feature", "properties": { "P29_001": "40131", "P29_002": "H140313000895", "P29_003": "16016", "P29_004": "専門学校グローバル人材育成カレッジ", "P29_005": "福岡県福岡市東区香椎駅前2-1-15", "P29_006": "4", "P29_007": "0", "P29_008": "00", "P29_009": null }, "geometry": { "type": "Point", "coordinates": [ 130.438792409254205, 33.657890211571249 ] } },
{ "type": "Feature", "properties": { "P29_001": "40202", "P29_002": "H140320200013", "P29_003": "16016", "P29_004": "大牟田医師会看護専門学校", "P29_005": "福岡県大牟田市不知火町3-104", "P29_006": "4", "P29_007": "0", "P29_008": "00", "P29_009": null }, "geometry": { "type": "Point", "coordinates": [ 130.441593620278439, 33.025192113761129 ] } },
{ "type": "Feature", "properties": { "P29_001": "40202", "P29_002": "H140320200022", "P29_003": "16016", "P29_004": "専修学校紫苑学院", "P29_005": "福岡県大牟田市本町3-5-20", "P29_006": "4", "P29_007": "0", "P29_008": "00", "P29_009": null }, "geometry": { "type": "Point", "coordinates": [ 130.442728561361264, 33.031675259231569 ] } },
{ "type": "Feature", "properties": { "P29_001": "40203", "P29_002": "H140320300012", "P29_003": "16016", "P29_004": "久留米大学医学部附属臨床検査専門学校", "P29_005": "福岡県久留米市旭町67", "P29_006": "4", "P29_007": "0", "P29_008": "00", "P29_009": null }, "geometry": { "type": "Point", "coordinates": [ 130.511192430087561, 33.328558420481478 ] } },
{ "type": "Feature", "properties": { "P29_001": "40203", "P29_002": "H140320300030", "P29_003": "16016", "P29_004": "専門学校久留米ドレスメーカー女学院", "P29_005": "福岡県久留米市本町18-27", "P29_006": "4", "P29_007": "0", "P29_008": "00", "P29_009": null }, "geometry": { "type": "Point", "coordinates": [ 130.506798861128033, 33.309656327626008 ] } },
{ "type": "Feature", "properties": { "P29_001": "40203", "P29_002": "H140320300049", "P29_003": "16016", "P29_004": "久留米電子ビジネス専門学校", "P29_005": "福岡県久留米市天神町57", "P29_006": "4", "P29_007": "0", "P29_008": "00", "P29_009": null }, "geometry": { "type": "Point", "coordinates": [ 130.522626795179576, 33.310313354650006 ] } },
{ "type": "Feature", "properties": { "P29_001": "40203", "P29_002": "H140320300058", "P29_003": "16016", "P29_004": "久留米歯科衛生専門学校", "P29_005": "福岡県久留米市櫛原町98", "P29_006": "4", "P29_007": "0", "P29_008": "00", "P29_009": null }, "geometry": { "type": "Point", "coordinates": [ 130.515956847477753, 33.32083150637132 ] } },
{ "type": "Feature", "properties": { "P29_001": "40203", "P29_002": "H140320300067", "P29_003": "16016", "P29_004": "福岡南美容専門学校", "P29_005": "福岡県久留米市花畑1-1-1", "P29_006": "4", "P29_007": "0", "P29_008": "00", "P29_009": null }, "geometry": { "type": "Point", "coordinates": [ 130.512899844614395, 33.307910961306952 ] } },
{ "type": "Feature", "properties": { "P29_001": "40203", "P29_002": "H140320300094", "P29_003": "16016", "P29_004": "古賀国際看護学院", "P29_005": "福岡県久留米市宮ノ陣3-7-47", "P29_006": "4", "P29_007": "0", "P29_008": "00", "P29_009": null }, "geometry": { "type": "Point", "coordinates": [ 130.540916979576906, 33.333975219177617 ] } },
{ "type": "Feature", "properties": { "P29_001": "40204", "P29_002": "H140320400020", "P29_003": "16016", "P29_004": "直方看護専修学校", "P29_005": "福岡県直方市山部808-13", "P29_006": "4", "P29_007": "0", "P29_008": "00", "P29_009": null }, "geometry": { "type": "Point", "coordinates": [ 130.717506129649792, 33.743812419856582 ] } },
{ "type": "Feature", "properties": { "P29_001": "40205", "P29_002": "H140320500010", "P29_003": "16016", "P29_004": "飯塚文化専門学校", "P29_005": "福岡県飯塚市飯塚13-20", "P29_006": "4", "P29_007": "0", "P29_008": "00", "P29_009": null }, "geometry": { "type": "Point", "coordinates": [ 130.684749168837214, 33.636434821054479 ] } },
{ "type": "Feature", "properties": { "P29_001": "40205", "P29_002": "H140320500029", "P29_003": "16016", "P29_004": "飯塚理容美容専門学校", "P29_005": "福岡県飯塚市立岩1748", "P29_006": "4", "P29_007": "0", "P29_008": "00", "P29_009": null }, "geometry": { "type": "Point", "coordinates": [ 130.691460058110266, 33.651501723028893 ] } },
{ "type": "Feature", "properties": { "P29_001": "40205", "P29_002": "H140320500038", "P29_003": "16016", "P29_004": "飯塚医師会看護高等専修学校", "P29_005": "福岡県飯塚市吉原町1-1", "P29_006": "4", "P29_007": "0", "P29_008": "00", "P29_009": null }, "geometry": { "type": "Point", "coordinates": [ 130.685728249278611, 33.641264283782988 ] } },
{ "type": "Feature", "properties": { "P29_001": "40205", "P29_002": "H140320500056", "P29_003": "16016", "P29_004": "専門学校麻生看護大学校", "P29_005": "福岡県飯塚市芳雄町3-83", "P29_006": "4", "P29_007": "0", "P29_008": "00", "P29_009": null }, "geometry": { "type": "Point", "coordinates": [ 130.68977075979609, 33.642400192065899 ] } },
{ "type": "Feature", "properties": { "P29_001": "40206", "P29_002": "H140320600019", "P29_003": "16016", "P29_004": "田川看護高等専修学校", "P29_005": "福岡県田川市大字伊田2735-23", "P29_006": "4", "P29_007": "0", "P29_008": "00", "P29_009": null }, "geometry": { "type": "Point", "coordinates": [ 130.8141138216142, 33.640578021156351 ] } },
{ "type": "Feature", "properties": { "P29_001": "40207", "P29_002": "H140320700027", "P29_003": "16016", "P29_004": "専門学校柳川リハビリテーション学院", "P29_005": "福岡県柳川市上宮永町116-1", "P29_006": "4", "P29_007": "0", "P29_008": "00", "P29_009": null }, "geometry": { "type": "Point", "coordinates": [ 130.404585521591542, 33.154438444316717 ] } },
{ "type": "Feature", "properties": { "P29_001": "40207", "P29_002": "H140320700036", "P29_003": "16016", "P29_004": "ハリウッドワールド美容専門学校", "P29_005": "福岡県柳川市三橋町柳河55-1", "P29_006": "4", "P29_007": "0", "P29_008": "00", "P29_009": null }, "geometry": { "type": "Point", "coordinates": [ 130.413442394337011, 33.172402298183528 ] } },
{ "type": "Feature", "properties": { "P29_001": "40210", "P29_002": "H140321000013", "P29_003": "16016", "P29_004": "八女筑後看護専門学校", "P29_005": "福岡県八女市本村656-1", "P29_006": "4", "P29_007": "0", "P29_008": "00", "P29_009": null }, "geometry": { "type": "Point", "coordinates": [ 130.558023343791064, 33.218320960004945 ] } },
{ "type": "Feature", "properties": { "P29_001": "40210", "P29_002": "H140321000022", "P29_003": "16016", "P29_004": "樋口文化専門学校", "P29_005": "福岡県八女市大字本町2-58-3", "P29_006": "4", "P29_007": "0", "P29_008": "00", "P29_009": null }, "geometry": { "type": "Point", "coordinates": [ 130.562359974629231, 33.208979152747808 ] } },
{ "type": "Feature", "properties": { "P29_001": "40212", "P29_002": "H140321200011", "P29_003": "16016", "P29_004": "大川看護福祉専門学校", "P29_005": "福岡県大川市酒見391-5", "P29_006": "4", "P29_007": "0", "P29_008": "00", "P29_009": null }, "geometry": { "type": "Point", "coordinates": [ 130.383151227676791, 33.210738726170213 ] } },
{ "type": "Feature", "properties": { "P29_001": "40213", "P29_002": "H140321300010", "P29_003": "16016", "P29_004": "京都医師会看護高等専修学校", "P29_005": "福岡県行橋市東大橋2-9-2", "P29_006": "4", "P29_007": "0", "P29_008": "00", "P29_009": null }, "geometry": { "type": "Point", "coordinates": [ 130.989192992220268, 33.73783397223864 ] } },
{ "type": "Feature", "properties": { "P29_001": "40214", "P29_002": "H140321400019", "P29_003": "16016", "P29_004": "豊前築上医師会看護高等専修学校", "P29_005": "福岡県豊前市八屋1522-2", "P29_006": "4", "P29_007": "0", "P29_008": "00", "P29_009": null }, "geometry": { "type": "Point", "coordinates": [ 131.120424817684352, 33.614788015953707 ] } },
{ "type": "Feature", "properties": { "P29_001": "40216", "P29_002": "H140321600026", "P29_003": "16016", "P29_004": "平岡栄養士専門学校", "P29_005": "福岡県小郡市大保1452", "P29_006": "4", "P29_007": "0", "P29_008": "00", "P29_009": null }, "geometry": { "type": "Point", "coordinates": [ 130.55730380729949, 33.409198884077739 ] } },
{ "type": "Feature", "properties": { "P29_001": "40216", "P29_002": "H140321600044", "P29_003": "16016", "P29_004": "平岡介護福祉専門学校", "P29_005": "福岡県小郡市大保1433", "P29_006": "4", "P29_007": "0", "P29_008": "00", "P29_009": null }, "geometry": { "type": "Point", "coordinates": [ 130.557327125428031, 33.409473751239695 ] } },
{ "type": "Feature", "properties": { "P29_001": "40219", "P29_002": "H140321900014", "P29_003": "16016", "P29_004": "西鉄自動車整備専門学校", "P29_005": "福岡県大野城市山田3-12-1", "P29_006": "4", "P29_007": "0", "P29_008": "00", "P29_009": null }, "geometry": { "type": "Point", "coordinates": [ 130.477712109440546, 33.547004263769857 ] } },
{ "type": "Feature", "properties": { "P29_001": "40221", "P29_002": "H140322100010", "P29_003": "16016", "P29_004": "筑紫看護高等専修学校", "P29_005": "福岡県太宰府市国分3-13-1", "P29_006": "4", "P29_007": "0", "P29_008": "00", "P29_009": null }, "geometry": { "type": "Point", "coordinates": [ 130.502006945256454, 33.518947943456091 ] } },
{ "type": "Feature", "properties": { "P29_001": "40224", "P29_002": "H140322400017", "P29_003": "16016", "P29_004": "福間看護高等専修学校", "P29_005": "福岡県福津市花見が浜1-5-1", "P29_006": "4", "P29_007": "0", "P29_008": "00", "P29_009": null }, "geometry": { "type": "Point", "coordinates": [ 130.47566918813888, 33.76132071190613 ] } },
{ "type": "Feature", "properties": { "P29_001": "40224", "P29_002": "H140322400026", "P29_003": "16016", "P29_004": "宗像看護専門学校", "P29_005": "福岡県福津市宮司2-11-20", "P29_006": "4", "P29_007": "0", "P29_008": "00", "P29_009": null }, "geometry": { "type": "Point", "coordinates": [ 130.482329077799704, 33.77246081399305 ] } },
{ "type": "Feature", "properties": { "P29_001": "40228", "P29_002": "H140322800013", "P29_003": "16016", "P29_004": "あさくら看護学校", "P29_005": "福岡県朝倉市頓田294-1", "P29_006": "4", "P29_007": "0", "P29_008": "00", "P29_009": null }, "geometry": { "type": "Point", "coordinates": [ 130.672722902834948, 33.413989206087486 ] } },
{ "type": "Feature", "properties": { "P29_001": "40382", "P29_002": "H140338200015", "P29_003": "16016", "P29_004": "遠賀中間医師会立遠賀中央看護助産学校", "P29_005": "福岡県遠賀郡水巻町下二西2-1-33", "P29_006": "4", "P29_007": "0", "P29_008": "00", "P29_009": null }, "geometry": { "type": "Point", "coordinates": [ 130.693117610534557, 33.849548161152647 ] } },
{ "type": "Feature", "properties": { "P29_001": "40382", "P29_002": "H140338200024", "P29_003": "16016", "P29_004": "福岡水巻看護助産学校", "P29_005": "福岡県遠賀郡水巻町立屋敷1-14-51", "P29_006": "4", "P29_007": "0", "P29_008": "00", "P29_009": null }, "geometry": { "type": "Point", "coordinates": [ 130.687049599636481, 33.85189459500031 ] } },
{ "type": "Feature", "properties": { "P29_001": "40544", "P29_002": "H140354400010", "P29_003": "16016", "P29_004": "専門学校久留米自動車工科大学校", "P29_005": "福岡県八女郡広川町新代1428-21", "P29_006": "4", "P29_007": "0", "P29_008": "00", "P29_009": null }, "geometry": { "type": "Point", "coordinates": [ 130.541594097023847, 33.253216498849646 ] } },
{ "type": "Feature", "properties": { "P29_001": "40544", "P29_002": "H140354400029", "P29_003": "16016", "P29_004": "専門学校久留米リハビリテーション学院", "P29_005": "福岡県八女郡広川町大字水原1541", "P29_006": "4", "P29_007": "0", "P29_008": "00", "P29_009": null }, "geometry": { "type": "Point", "coordinates": [ 130.589439059228539, 33.243770169075717 ] } },
{ "type": "Feature", "properties": { "P29_001": "40621", "P29_002": "H140362100025", "P29_003": "16016", "P29_004": "北九州リハビリテーション学院", "P29_005": "福岡県京都郡苅田町上片島1575", "P29_006": "4", "P29_007": "0", "P29_008": "00", "P29_009": null }, "geometry": { "type": "Point", "coordinates": [ 130.951384929068666, 33.744284307536532 ] } },
{ "type": "Feature", "properties": { "P29_001": "40621", "P29_002": "H140362100034", "P29_003": "16016", "P29_004": "おばせ看護学院", "P29_005": "福岡県京都郡苅田町新津1598", "P29_006": "4", "P29_007": "0", "P29_008": "00", "P29_009": null }, "geometry": { "type": "Point", "coordinates": [ 130.970792950195147, 33.752461504574931 ] } }
]
}
