{
"type": "FeatureCollection",
"name": "geo_40_義務教育学校",
"crs": { "type": "name", "properties": { "name": "urn:ogc:def:crs:EPSG::6668" } },
"features": [
{ "type": "Feature", "properties": { "P29_001": "40210", "P29_002": "C240221000015", "P29_003": "16014", "P29_004": "八女市立上陽北ぜい学園", "P29_005": "福岡県八女市上陽町北川内910", "P29_006": "3", "P29_007": "1", "P29_008": "00", "P29_009": null }, "geometry": { "type": "Point", "coordinates": [ 130.646051620005153, 33.238280774086292 ] } },
{ "type": "Feature", "properties": { "P29_001": "40210", "P29_002": "C240221000024", "P29_003": "16014", "P29_004": "矢部清流学園", "P29_005": "福岡県八女市矢部村北矢部11047-2", "P29_006": "3", "P29_007": "1", "P29_008": "00", "P29_009": null }, "geometry": { "type": "Point", "coordinates": [ 130.816014373661545, 33.153929199778823 ] } },
{ "type": "Feature", "properties": { "P29_001": "40220", "P29_002": "C240222000013", "P29_003": "16014", "P29_004": "宗像市立大島学園", "P29_005": "福岡県宗像市大島1163-1", "P29_006": "3", "P29_007": "1", "P29_008": "00", "P29_009": null }, "geometry": { "type": "Point", "coordinates": [ 130.432828111220971, 33.902490504174757 ] } },
{ "type": "Feature", "properties": { "P29_001": "40601", "P29_002": "C240260100012", "P29_003": "16014", "P29_004": "香春思永館", "P29_005": "福岡県田川郡香春町大字高野1431", "P29_006": "3", "P29_007": "1", "P29_008": "00", "P29_009": null }, "geometry": { "type": "Point", "coordinates": [ 130.852503447373749, 33.663694203222896 ] } },
{ "type": "Feature", "properties": { "P29_001": "40610", "P29_002": "C240261000011", "P29_003": "16014", "P29_004": "金田義務教育学校", "P29_005": "福岡県田川郡福智町金田1283", "P29_006": "3", "P29_007": "1", "P29_008": "00", "P29_009": null }, "geometry": { "type": "Point", "coordinates": [ 130.772278075475697, 33.684080714506841 ] } },
{ "type": "Feature", "properties": { "P29_001": "40227", "P29_002": "C240222700016", "P29_003": "16014", "P29_004": "嘉麻市立碓井義務教育学校", "P29_005": "福岡県嘉麻市上臼井868", "P29_006": "3", "P29_007": "1", "P29_008": "00", "P29_009": null }, "geometry": { "type": "Point", "coordinates": [ 130.706798511348808, 33.557764853254845 ] } },
{ "type": "Feature", "properties": { "P29_001": "40227", "P29_002": "C240222700025", "P29_003": "16014", "P29_004": "嘉麻市立稲築東義務教育学校", "P29_005": "福岡県嘉麻市平1536", "P29_006": "3", "P29_007": "1", "P29_008": "00", "P29_009": null }, "geometry": { "type": "Point", "coordinates": [ 130.731632086923582, 33.599092028671784 ] } },
{ "type": "Feature", "properties": { "P29_001": "40227", "P29_002": "C240222700034", "P29_003": "16014", "P29_004": "嘉麻市立稲築西義務教育学校", "P29_005": "福岡県嘉麻市口春629", "P29_006": "3", "P29_007": "1", "P29_008": "00", "P29_009": null }, "geometry": { "type": "Point", "coordinates": [ 130.716693745488584, 33.602650462541988 ] } }
]
}
