{
"type": "FeatureCollection",
"name": "geo_40_訪問入浴介護",
"crs": { "type": "name", "properties": { "name": "urn:ogc:def:crs:OGC:1.3:CRS84" } },
"features": [
{ "type": "Feature", "properties": { "内容": "アサヒサンクリーン在宅介護センター戸畑【訪問入浴介護】北九州市戸畑区沖台2-11-16TLCビル2階B号", "url": "https://www.kaigokensaku.mhlw.go.jp/40/index.php?action_kouhyou_detail_004_kani=true&JigyosyoCd=4070301496-00&ServiceCd=120&Type=search", "url2": "http://www.asahi-sun-clean.co.jp" }, "geometry": { "type": "Point", "coordinates": [ 130.8216291, 33.8930659 ] } },
{ "type": "Feature", "properties": { "内容": "アップルハート小倉訪問入浴センター【訪問入浴介護】福岡県北九州市小倉北区片野2-2-16", "url": "https://www.kaigokensaku.mhlw.go.jp/40/index.php?action_kouhyou_detail_004_kani=true&JigyosyoCd=4070503273-00&ServiceCd=120&Type=search", "url2": "http://www.aso-kaigo.jp/" }, "geometry": { "type": "Point", "coordinates": [ 130.883620492624431, 33.868648340959105 ] } },
{ "type": "Feature", "properties": { "内容": "ニチイケアセンター小倉【訪問入浴介護】福岡県北九州市小倉北区木町１丁目５－６", "url": "https://www.kaigokensaku.mhlw.go.jp/40/index.php?action_kouhyou_detail_004_kani=true&JigyosyoCd=4070400280-00&ServiceCd=120&Type=search", "url2": "http://www,nichiigakkan,co,jp" }, "geometry": { "type": "Point", "coordinates": [ 130.866728, 33.8726742 ] } },
{ "type": "Feature", "properties": { "内容": "セントケア北九州【訪問入浴介護】福岡県北九州市小倉北区上富野5丁目7-6", "url": "https://www.kaigokensaku.mhlw.go.jp/40/index.php?action_kouhyou_detail_004_kani=true&JigyosyoCd=4070403706-00&ServiceCd=120&Type=search", "url2": "https://www.saint-care.com/center/938/" }, "geometry": { "type": "Point", "coordinates": [ 130.904583, 33.8842376 ] } },
{ "type": "Feature", "properties": { "内容": "小倉医師会訪問入浴サービスセンター【訪問入浴介護】福岡県北九州市小倉南区春ケ丘10-14小倉医師会介護サービス総合センター", "url": "https://www.kaigokensaku.mhlw.go.jp/40/index.php?action_kouhyou_detail_004_kani=true&JigyosyoCd=4070400587-00&ServiceCd=120&Type=search", "url2": "http://www.kokura-med.or.jp" }, "geometry": { "type": "Point", "coordinates": [ 130.884426082334102, 33.848285765459835 ] } },
{ "type": "Feature", "properties": { "内容": "ジケイホームヘルプ　そねホット【訪問入浴介護】北九州市小倉南区葛原本町6丁目10-3", "url": "https://www.kaigokensaku.mhlw.go.jp/40/index.php?action_kouhyou_detail_004_kani=true&JigyosyoCd=4070500055-00&ServiceCd=120&Type=search", "url2": "http://www.jikeikai.jp/" }, "geometry": { "type": "Point", "coordinates": [ 130.925004100000024, 33.8407597 ] } },
{ "type": "Feature", "properties": { "内容": "アサヒサンクリーン在宅介護センター小倉南【訪問入浴介護】福岡県北九州市小倉南区重住一丁目2番13号", "url": "https://www.kaigokensaku.mhlw.go.jp/40/index.php?action_kouhyou_detail_004_kani=true&JigyosyoCd=4070503687-00&ServiceCd=120&Type=search", "url2": "http://www.asahi-sun-clean.co.jp" }, "geometry": { "type": "Point", "coordinates": [ 130.88759959999993, 33.854457 ] } },
{ "type": "Feature", "properties": { "内容": "アサヒサンクリーン在宅介護センター八幡西【訪問入浴介護】北九州市八幡西区鷹の巣三丁目4-1堀ビル１階", "url": "https://www.kaigokensaku.mhlw.go.jp/40/index.php?action_kouhyou_detail_004_kani=true&JigyosyoCd=4070704715-00&ServiceCd=120&Type=search", "url2": "http://www.asahi-sun-clean.co.jp" }, "geometry": { "type": "Point", "coordinates": [ 130.744225599999965, 33.8560669 ] } },
{ "type": "Feature", "properties": { "内容": "アースサポート北九州【訪問入浴介護】福岡県北九州市八幡西区永犬丸4丁目6番30号", "url": "https://www.kaigokensaku.mhlw.go.jp/40/index.php?action_kouhyou_detail_004_kani=true&JigyosyoCd=4070701570-00&ServiceCd=120&Type=search", "url2": "http://www.earthsupport.co.jp" }, "geometry": { "type": "Point", "coordinates": [ 130.733103284655726, 33.84179127857432 ] } },
{ "type": "Feature", "properties": { "内容": "アップルハート八幡西訪問入浴センター【訪問入浴介護】福岡県北九州市八幡西区本城４丁目６－６", "url": "https://www.kaigokensaku.mhlw.go.jp/40/index.php?action_kouhyou_detail_004_kani=true&JigyosyoCd=4070704194-00&ServiceCd=120&Type=search", "url2": "http://www.aso-kaigo.jp" }, "geometry": { "type": "Point", "coordinates": [ 130.736304218060241, 33.884063085492606 ] } },
{ "type": "Feature", "properties": { "内容": "アップルハート福岡東訪問入浴センター【訪問入浴介護】福岡県福岡市東区唐原1丁目2-42　2F", "url": "https://www.kaigokensaku.mhlw.go.jp/40/index.php?action_kouhyou_detail_004_kani=true&JigyosyoCd=4070802428-00&ServiceCd=120&Type=search", "url2": "http://www.aso-kaigo.jp" }, "geometry": { "type": "Point", "coordinates": [ 130.440048664170831, 33.674428483555197 ] } },
{ "type": "Feature", "properties": { "内容": "アサヒサンクリーン在宅介護センター福岡東【訪問入浴介護】福岡県福岡市東区筥松二丁目6番9-102号", "url": "https://www.kaigokensaku.mhlw.go.jp/40/index.php?action_kouhyou_detail_004_kani=true&JigyosyoCd=4070802493-00&ServiceCd=120&Type=search", "url2": "http://www.asahi-sun-clean.co.jp" }, "geometry": { "type": "Point", "coordinates": [ 130.427693788346716, 33.616131778846608 ] } },
{ "type": "Feature", "properties": { "内容": "アースサポート福岡【訪問入浴介護】福岡県福岡市博多区吉塚5丁目11番30号", "url": "https://www.kaigokensaku.mhlw.go.jp/40/index.php?action_kouhyou_detail_004_kani=true&JigyosyoCd=4070900404-00&ServiceCd=120&Type=search", "url2": "http://www.earthsupport.co.jp" }, "geometry": { "type": "Point", "coordinates": [ 130.430326799999989, 33.6038538 ] } },
{ "type": "Feature", "properties": { "内容": "パナソニック　エイジフリーケアセンター福岡・訪問入浴【訪問入浴介護】福岡県福岡市博多区諸岡2丁目6-26", "url": "https://www.kaigokensaku.mhlw.go.jp/40/index.php?action_kouhyou_detail_004_kani=true&JigyosyoCd=4071000279-00&ServiceCd=120&Type=search", "url2": "http://www.net-kaigo.com" }, "geometry": { "type": "Point", "coordinates": [ 130.451355591873835, 33.559776825676117 ] } },
{ "type": "Feature", "properties": { "内容": "アサヒサンクリーン在宅介護センター福岡中央【訪問入浴介護】福岡県福岡市中央区地行2丁目1-15西武アメニティビル1F", "url": "https://www.kaigokensaku.mhlw.go.jp/40/index.php?action_kouhyou_detail_004_kani=true&JigyosyoCd=4071002135-00&ServiceCd=120&Type=search", "url2": "https://www.asahi-sun-clean.co.jp/" }, "geometry": { "type": "Point", "coordinates": [ 130.365282100000087, 33.5877155 ] } },
{ "type": "Feature", "properties": { "内容": "アサヒサンクリーン在宅介護センター福岡南【訪問入浴介護】福岡市南区清水3丁目12-7クレール清原102号室", "url": "https://www.kaigokensaku.mhlw.go.jp/40/index.php?action_kouhyou_detail_004_kani=true&JigyosyoCd=4071100301-00&ServiceCd=120&Type=search", "url2": "http://www.asahi-sun-clean.co.jp" }, "geometry": { "type": "Point", "coordinates": [ 130.422516161517933, 33.569289133280883 ] } },
{ "type": "Feature", "properties": { "内容": "サイカイケア福岡【訪問入浴介護】福岡県福岡市南区三宅１丁目２番１２号　コーポすみれ302号コーポすみれ302号", "url": "https://www.kaigokensaku.mhlw.go.jp/40/index.php?action_kouhyou_detail_004_kani=true&JigyosyoCd=4071105359-00&ServiceCd=120&Type=search", "url2": null }, "geometry": { "type": "Point", "coordinates": [ 130.428164639860199, 33.551620278238531 ] } },
{ "type": "Feature", "properties": { "内容": "アサヒサンクリーン在宅介護センター福岡西【訪問入浴介護】福岡県福岡市西区周船寺3丁目19-12ブレス学研都市101", "url": "https://www.kaigokensaku.mhlw.go.jp/40/index.php?action_kouhyou_detail_004_kani=true&JigyosyoCd=4071201984-00&ServiceCd=120&Type=search", "url2": "http://www/asahi-sun-clean.co.jp" }, "geometry": { "type": "Point", "coordinates": [ 130.252072665440437, 33.576434068940884 ] } },
{ "type": "Feature", "properties": { "内容": "アースサポート福岡西【訪問入浴介護】福岡県福岡市早良区室見1丁目3番7号", "url": "https://www.kaigokensaku.mhlw.go.jp/40/index.php?action_kouhyou_detail_004_kani=true&JigyosyoCd=4071402541-00&ServiceCd=120&Type=search", "url2": "http://www.earthsupport.co.jp" }, "geometry": { "type": "Point", "coordinates": [ 130.341584, 33.5809553 ] } },
{ "type": "Feature", "properties": { "内容": "ARKA訪問入浴サービスセンター福岡【訪問入浴介護】百道浜2丁目1-22福岡SRPセンタービル301", "url": "https://www.kaigokensaku.mhlw.go.jp/40/index.php?action_kouhyou_detail_004_kani=true&JigyosyoCd=4071405403-00&ServiceCd=120&Type=search", "url2": "https://www.aiai-hospital.com/?slid=412fd957af324e0985d25adafdf3e19e-1859" }, "geometry": { "type": "Point", "coordinates": [ 130.3558064, 33.593009 ] } },
{ "type": "Feature", "properties": { "内容": "アサヒサンクリーン在宅介護センター大牟田【訪問入浴介護】福岡県大牟田市本町１丁目３番地３", "url": "https://www.kaigokensaku.mhlw.go.jp/40/index.php?action_kouhyou_detail_004_kani=true&JigyosyoCd=4071503363-00&ServiceCd=120&Type=search", "url2": "http://www.asahi-sun-clean.co.jp/" }, "geometry": { "type": "Point", "coordinates": [ 130.446237900000028, 33.034684 ] } },
{ "type": "Feature", "properties": { "内容": "社会福祉法人　大牟田市社会福祉協議会【訪問入浴介護】福岡県大牟田市瓦町９番地３　大牟田市総合福祉センター内", "url": "https://www.kaigokensaku.mhlw.go.jp/40/index.php?action_kouhyou_detail_004_kani=true&JigyosyoCd=4071500021-00&ServiceCd=120&Type=search", "url2": "http://www.omshakyo-kizuna.com/" }, "geometry": { "type": "Point", "coordinates": [ 130.463161899999932, 33.0352842 ] } },
{ "type": "Feature", "properties": { "内容": "訪問入浴介護　さくら【訪問入浴介護】福岡県久留米市田主丸町石垣1291‐6", "url": "https://www.kaigokensaku.mhlw.go.jp/40/index.php?action_kouhyou_detail_004_kani=true&JigyosyoCd=4077400028-00&ServiceCd=120&Type=search", "url2": "http://hijirikai.com" }, "geometry": { "type": "Point", "coordinates": [ 130.706490499999973, 33.3263702 ] } },
{ "type": "Feature", "properties": { "内容": "訪問入浴サービスふじの郷【訪問入浴介護】福岡県久留米市白山町字垣添３９０番２１", "url": "https://www.kaigokensaku.mhlw.go.jp/40/index.php?action_kouhyou_detail_004_kani=true&JigyosyoCd=4071602637-00&ServiceCd=120&Type=search", "url2": "http://www.fujinosato0801.com/" }, "geometry": { "type": "Point", "coordinates": [ 130.501176799999939, 33.3134007 ] } },
{ "type": "Feature", "properties": { "内容": "訪問入浴サービスくましろ【訪問入浴介護】福岡県久留米市北野町八重亀391番地1グループホームくましろ", "url": "https://www.kaigokensaku.mhlw.go.jp/40/index.php?action_kouhyou_detail_004_kani=true&JigyosyoCd=4077600148-00&ServiceCd=120&Type=search", "url2": "http://kumashiro-hospital.or.jp" }, "geometry": { "type": "Point", "coordinates": [ 130.624774500000058, 33.3553489 ] } },
{ "type": "Feature", "properties": { "内容": "アサヒサンクリーン在宅介護センター久留米【訪問入浴介護】福岡県久留米市御井旗崎3-9-13オフィスパレア久留米Ⅲ　A1号", "url": "https://www.kaigokensaku.mhlw.go.jp/40/index.php?action_kouhyou_detail_004_kani=true&JigyosyoCd=4071603940-00&ServiceCd=120&Type=search", "url2": "http://www.asahi-sun-clean.co.jp" }, "geometry": { "type": "Point", "coordinates": [ 130.560627211422258, 33.316504021100009 ] } },
{ "type": "Feature", "properties": { "内容": "アップルハート　久留米訪問入浴センター【訪問入浴介護】福岡県久留米市長門石3-1-37古賀貸事務所　1Ｆ", "url": "https://www.kaigokensaku.mhlw.go.jp/40/index.php?action_kouhyou_detail_004_kani=true&JigyosyoCd=4071603338-00&ServiceCd=120&Type=search", "url2": "http:/www.aso-group.co.jp/acs/-6k" }, "geometry": { "type": "Point", "coordinates": [ 130.488287200000059, 33.327916 ] } },
{ "type": "Feature", "properties": { "内容": "とうしん訪問入浴センター【訪問入浴介護】福岡県直方市大字頓野3223番地3ソルマート２１－１０６号", "url": "https://www.kaigokensaku.mhlw.go.jp/40/index.php?action_kouhyou_detail_004_kani=true&JigyosyoCd=4071702155-00&ServiceCd=120&Type=search", "url2": "https://toshin-care.com/" }, "geometry": { "type": "Point", "coordinates": [ 130.740786807374917, 33.739315059270247 ] } },
{ "type": "Feature", "properties": { "内容": "アップルハート筑豊訪問入浴センター【訪問入浴介護】福岡県直方市頓野1106-5", "url": "https://www.kaigokensaku.mhlw.go.jp/40/index.php?action_kouhyou_detail_004_kani=true&JigyosyoCd=4071701223-00&ServiceCd=120&Type=search", "url2": "http://www.aso-kaigo.jp/" }, "geometry": { "type": "Point", "coordinates": [ 130.755929766934173, 33.759308017965843 ] } },
{ "type": "Feature", "properties": { "内容": "アサヒサンクリーン在宅介護センター飯塚【訪問入浴介護】福岡県飯塚市堀池117-2堀池テナント1階", "url": "https://www.kaigokensaku.mhlw.go.jp/40/index.php?action_kouhyou_detail_004_kani=true&JigyosyoCd=4071802468-00&ServiceCd=120&Type=search", "url2": "iizuka@asahi-sun-clean.co.jp" }, "geometry": { "type": "Point", "coordinates": [ 130.683421319391186, 33.627056927813314 ] } },
{ "type": "Feature", "properties": { "内容": "アップルハートありあけ訪問入浴センター【訪問入浴介護】福岡県柳川市三橋町久末128-1諸藤ウエストテナントＣ-1", "url": "https://www.kaigokensaku.mhlw.go.jp/40/index.php?action_kouhyou_detail_004_kani=true&JigyosyoCd=4071502399-00&ServiceCd=120&Type=search", "url2": "http:/www.aso-group.co.jp/acs/-6k" }, "geometry": { "type": "Point", "coordinates": [ 130.448370551511545, 33.167644169325783 ] } },
{ "type": "Feature", "properties": { "内容": "はぴねす訪問入浴【訪問入浴介護】福岡県八女市本村字平塚３６２番地３", "url": "https://www.kaigokensaku.mhlw.go.jp/40/index.php?action_kouhyou_detail_004_kani=true&JigyosyoCd=4072301569-00&ServiceCd=120&Type=search", "url2": null }, "geometry": { "type": "Point", "coordinates": [ 130.563370651898197, 33.213841035569359 ] } },
{ "type": "Feature", "properties": { "内容": "八女の里ヘルパーステーション　さわやか入浴介護【訪問入浴介護】柳島863番地", "url": "https://www.kaigokensaku.mhlw.go.jp/40/index.php?action_kouhyou_detail_004_kani=true&JigyosyoCd=4072300207-00&ServiceCd=120&Type=search", "url2": "http://www.yame-sato.com/" }, "geometry": { "type": "Point", "coordinates": [ 130.607430599999986, 33.2161032 ] } },
{ "type": "Feature", "properties": { "内容": "アップルハート京築訪問入浴センター【訪問入浴介護】福岡県行橋市大字道場寺1620-1　１F", "url": "https://www.kaigokensaku.mhlw.go.jp/40/index.php?action_kouhyou_detail_004_kani=true&JigyosyoCd=4072601208-00&ServiceCd=120&Type=search", "url2": "keitiku-nyuyoku-p01＠aso-group.co.jp" }, "geometry": { "type": "Point", "coordinates": [ 131.010032099999989, 33.70019 ] } },
{ "type": "Feature", "properties": { "内容": "ひと息の村訪問入浴サービス【訪問入浴介護】福岡県行橋市行事７丁目２５－３ひと息の村", "url": "https://www.kaigokensaku.mhlw.go.jp/40/index.php?action_kouhyou_detail_004_kani=true&JigyosyoCd=4072600416-00&ServiceCd=120&Type=search", "url2": "http://hospice-at-home.jp" }, "geometry": { "type": "Point", "coordinates": [ 130.9659183, 33.7366436 ] } },
{ "type": "Feature", "properties": { "内容": "とうしん遠賀訪問入浴センター【訪問入浴介護】福岡県中間市東中間二丁目４番５号メゾン・ボーD２０３号", "url": "https://www.kaigokensaku.mhlw.go.jp/40/index.php?action_kouhyou_detail_004_kani=true&JigyosyoCd=4072801626-00&ServiceCd=120&Type=search", "url2": "https://toshin-care.com/" }, "geometry": { "type": "Point", "coordinates": [ 130.718045153967296, 33.819993336023728 ] } },
{ "type": "Feature", "properties": { "内容": "しらさぎ苑訪問入浴サービス【訪問入浴介護】福岡県小郡市花聳883番地1", "url": "https://www.kaigokensaku.mhlw.go.jp/40/index.php?action_kouhyou_detail_004_kani=true&JigyosyoCd=4072900238-00&ServiceCd=120&Type=search", "url2": "http://www.chouseikai.jp" }, "geometry": { "type": "Point", "coordinates": [ 130.543489099999988, 33.4199806 ] } },
{ "type": "Feature", "properties": { "内容": "アサヒサンクリーン在宅介護センター春日【訪問入浴介護】春日市春日原南町4-11feliz春日1F", "url": "https://www.kaigokensaku.mhlw.go.jp/40/index.php?action_kouhyou_detail_004_kani=true&JigyosyoCd=4073100796-00&ServiceCd=120&Type=search", "url2": "http://www.asahi-sun-clean.co.jp" }, "geometry": { "type": "Point", "coordinates": [ 130.471149599999961, 33.533768200000011 ] } },
{ "type": "Feature", "properties": { "内容": "社会福祉法人　大野城市社会福祉協議会【訪問入浴介護】福岡県大野城市曙町２丁目３番２号大野城市総合福祉センター", "url": "https://www.kaigokensaku.mhlw.go.jp/40/index.php?action_kouhyou_detail_004_kani=true&JigyosyoCd=4073200018-00&ServiceCd=120&Type=search", "url2": "http://www.onojo-vc.jp/" }, "geometry": { "type": "Point", "coordinates": [ 130.479928801134292, 33.534939759517364 ] } },
{ "type": "Feature", "properties": { "内容": "バスくる訪問入浴【訪問入浴介護】福岡県宗像市石丸2丁目9番28号", "url": "https://www.kaigokensaku.mhlw.go.jp/40/index.php?action_kouhyou_detail_004_kani=true&JigyosyoCd=4073302004-00&ServiceCd=120&Type=search", "url2": null }, "geometry": { "type": "Point", "coordinates": [ 130.595136, 33.8073382 ] } },
{ "type": "Feature", "properties": { "内容": "アップルハート宗像訪問入浴センター【訪問入浴介護】宗像市栄町1-12", "url": "https://www.kaigokensaku.mhlw.go.jp/40/index.php?action_kouhyou_detail_004_kani=true&JigyosyoCd=4073300859-00&ServiceCd=120&Type=search", "url2": null }, "geometry": { "type": "Point", "coordinates": [ 130.568631362670885, 33.80783375603896 ] } },
{ "type": "Feature", "properties": { "内容": "アップルハート福岡南訪問入浴センター【訪問入浴介護】福岡県太宰府市長浦台１丁目5-2", "url": "https://www.kaigokensaku.mhlw.go.jp/40/index.php?action_kouhyou_detail_004_kani=true&JigyosyoCd=4073200588-00&ServiceCd=120&Type=search", "url2": "https://www.aso-kaigo.jp/" }, "geometry": { "type": "Point", "coordinates": [ 130.491540850299685, 33.505695824064695 ] } },
{ "type": "Feature", "properties": { "内容": "訪問入浴ひめの【訪問入浴介護】福岡県八女郡広川町大字新代2316", "url": "https://www.kaigokensaku.mhlw.go.jp/40/index.php?action_kouhyou_detail_004_kani=true&JigyosyoCd=4078400431-00&ServiceCd=120&Type=search", "url2": null }, "geometry": { "type": "Point", "coordinates": [ 130.553000613491804, 33.237320344746806 ] } }
]
}
