{
"type": "FeatureCollection",
"name": "geo_40_小規模多機能型居宅介護",
"crs": { "type": "name", "properties": { "name": "urn:ogc:def:crs:OGC:1.3:CRS84" } },
"features": [
{ "type": "Feature", "properties": { "内容": "さわやか大積館【小規模多機能型居宅介護】福岡県北九州市門司区大積１１７５－８", "url": "https://www.kaigokensaku.mhlw.go.jp/40/index.php?action_kouhyou_detail_004_kani=true&JigyosyoCd=4090100084-00&ServiceCd=730&Type=search", "url2": "http://www.sawayakaclub.jp" }, "geometry": { "type": "Point", "coordinates": [ 130.991629699999976, 33.92849 ] } },
{ "type": "Feature", "properties": { "内容": "ケアホームなごみ吉志【小規模多機能型居宅介護】福岡県北九州市門司区吉志１丁目８番４２号", "url": "https://www.kaigokensaku.mhlw.go.jp/40/index.php?action_kouhyou_detail_004_kani=true&JigyosyoCd=4090100019-00&ServiceCd=730&Type=search", "url2": null }, "geometry": { "type": "Point", "coordinates": [ 130.971471949143222, 33.8684216 ] } },
{ "type": "Feature", "properties": { "内容": "小規模多機能ホーム　好日苑大里の郷【小規模多機能型居宅介護】福岡県北九州市門司区大里戸ノ上4丁目1番40号", "url": "https://www.kaigokensaku.mhlw.go.jp/40/index.php?action_kouhyou_detail_004_kani=true&JigyosyoCd=4090100282-00&ServiceCd=730&Type=search", "url2": "http://www.koujitsuen.com/dairinosato/shisetsu.html" }, "geometry": { "type": "Point", "coordinates": [ 130.945967900000028, 33.9025476 ] } },
{ "type": "Feature", "properties": { "内容": "にぎわい広場リラ【小規模多機能型居宅介護】福岡県北九州市門司区小森江３丁目3-26", "url": "https://www.kaigokensaku.mhlw.go.jp/40/index.php?action_kouhyou_detail_004_kani=true&JigyosyoCd=4090100530-00&ServiceCd=730&Type=search", "url2": null }, "geometry": { "type": "Point", "coordinates": [ 130.940007400000013, 33.9183754 ] } },
{ "type": "Feature", "properties": { "内容": "ケアホームいやし【小規模多機能型居宅介護】福岡県北九州市門司区柄杓田１６２番地１７号", "url": "https://www.kaigokensaku.mhlw.go.jp/40/index.php?action_kouhyou_detail_004_kani=true&JigyosyoCd=4090100381-00&ServiceCd=730&Type=search", "url2": "https://www.instagram.com/carehomeiyashi" }, "geometry": { "type": "Point", "coordinates": [ 130.997649166934281, 33.906825301868679 ] } },
{ "type": "Feature", "properties": { "内容": "小規模多機能きしの森【小規模多機能型居宅介護】福岡県北九州市門司区吉志7丁目20-30", "url": "https://www.kaigokensaku.mhlw.go.jp/40/index.php?action_kouhyou_detail_004_kani=true&JigyosyoCd=4090100407-00&ServiceCd=730&Type=search", "url2": null }, "geometry": { "type": "Point", "coordinates": [ 130.9675542, 33.8702938 ] } },
{ "type": "Feature", "properties": { "内容": "小規模多機能ホーム　ベイサイドわかまつ【小規模多機能型居宅介護】福岡県北九州市若松区浜町1-19-1", "url": "https://www.kaigokensaku.mhlw.go.jp/40/index.php?action_kouhyou_detail_004_kani=true&JigyosyoCd=4090200157-00&ServiceCd=730&Type=search", "url2": "http://www.kiyoukai.or.jp/" }, "geometry": { "type": "Point", "coordinates": [ 130.81457869999997, 33.9064588 ] } },
{ "type": "Feature", "properties": { "内容": "小規模多機能型居宅介護　ひびきの虹色館【小規模多機能型居宅介護】若松区ひびきの南一丁目2番３号", "url": "https://www.kaigokensaku.mhlw.go.jp/40/index.php?action_kouhyou_detail_004_kani=true&JigyosyoCd=4090200090-00&ServiceCd=730&Type=search", "url2": "www.honjyoukai.com" }, "geometry": { "type": "Point", "coordinates": [ 130.7153376, 33.8887528 ] } },
{ "type": "Feature", "properties": { "内容": "小規模多機能型居宅介護　プロムナードとばた【小規模多機能型居宅介護】福岡県北九州市戸畑区金比羅町4番40号", "url": "https://www.kaigokensaku.mhlw.go.jp/40/index.php?action_kouhyou_detail_004_kani=true&JigyosyoCd=4090300064-00&ServiceCd=730&Type=search", "url2": "http://www.iwakifukushikai.jp" }, "geometry": { "type": "Point", "coordinates": [ 130.841654799999986, 33.8787343 ] } },
{ "type": "Feature", "properties": { "内容": "さわやか小規模多機能中原館【小規模多機能型居宅介護】福岡県北九州市戸畑区中原西三丁目８番１２号株式会社さわやか倶楽部　さわやかなかばる館", "url": "https://www.kaigokensaku.mhlw.go.jp/40/index.php?action_kouhyou_detail_004_kani=true&JigyosyoCd=4090300106-00&ServiceCd=730&Type=search", "url2": "http：∥www.nakabaru@sawayakaclub.jp" }, "geometry": { "type": "Point", "coordinates": [ 130.84322748161469, 33.898638487934328 ] } },
{ "type": "Feature", "properties": { "内容": "医療法人池園医院　ちろりん村小規模多機能型居宅介護事業所【小規模多機能型居宅介護】福岡県北九州市戸畑区中原西３丁目２番１０号医療法人池園医院　ちろりん村　２階", "url": "https://www.kaigokensaku.mhlw.go.jp/40/index.php?action_kouhyou_detail_004_kani=true&JigyosyoCd=4090300130-00&ServiceCd=730&Type=search", "url2": "https://ikezono.jp/" }, "geometry": { "type": "Point", "coordinates": [ 130.842728253967266, 33.895423517500795 ] } },
{ "type": "Feature", "properties": { "内容": "あい・しょうきぼたきのうとばた【小規模多機能型居宅介護】菅原二丁目９番９号", "url": "https://www.kaigokensaku.mhlw.go.jp/40/index.php?action_kouhyou_detail_004_kani=true&JigyosyoCd=4090300122-00&ServiceCd=730&Type=search", "url2": "https://i-sogofukushi.com" }, "geometry": { "type": "Point", "coordinates": [ 135.529698300000064, 34.7389444 ] } },
{ "type": "Feature", "properties": { "内容": "ふれあいの家　黄金　多機能サポートセンター【小規模多機能型居宅介護】福岡県北九州市小倉北区黄金1－9－12", "url": "https://www.kaigokensaku.mhlw.go.jp/40/index.php?action_kouhyou_detail_004_kani=true&JigyosyoCd=4090400161-00&ServiceCd=730&Type=search", "url2": "http://www.kyoueikosan.co.jp/fureai" }, "geometry": { "type": "Point", "coordinates": [ 130.878681454106072, 33.870589189554742 ] } },
{ "type": "Feature", "properties": { "内容": "小規模多機能型居宅介護　おむすび苑【小規模多機能型居宅介護】北九州市小倉北区赤坂1丁目7番18号", "url": "https://www.kaigokensaku.mhlw.go.jp/40/index.php?action_kouhyou_detail_004_kani=true&JigyosyoCd=4090400195-00&ServiceCd=730&Type=search", "url2": "http://wonder2002.co.jp/omusubi/" }, "geometry": { "type": "Point", "coordinates": [ 130.905185699999947, 33.8876012 ] } },
{ "type": "Feature", "properties": { "内容": "小規模多機能ケア　都の杜【小規模多機能型居宅介護】北九州市小倉北区都1丁目12番12号１F", "url": "https://www.kaigokensaku.mhlw.go.jp/40/index.php?action_kouhyou_detail_004_kani=true&JigyosyoCd=4090400187-00&ServiceCd=730&Type=search", "url2": "http://www.fujicare.co.jp" }, "geometry": { "type": "Point", "coordinates": [ 130.84850308836053, 33.879041585493837 ] } },
{ "type": "Feature", "properties": { "内容": "小規模多機能ホーム三萩野【小規模多機能型居宅介護】北九州市小倉北区白銀2丁目11－4", "url": "https://www.kaigokensaku.mhlw.go.jp/40/index.php?action_kouhyou_detail_004_kani=true&JigyosyoCd=4090400237-00&ServiceCd=730&Type=search", "url2": "http://n-sato.com/" }, "geometry": { "type": "Point", "coordinates": [ 130.877190150926253, 33.868003832123485 ] } },
{ "type": "Feature", "properties": { "内容": "医療法人　北愛会　小規模多機能ホーム　桜ハウス【小規模多機能型居宅介護】福岡県北九州市小倉北区上富野4-12-42", "url": "https://www.kaigokensaku.mhlw.go.jp/40/index.php?action_kouhyou_detail_004_kani=true&JigyosyoCd=4090400336-00&ServiceCd=730&Type=search", "url2": "http://hoku-i.jp/" }, "geometry": { "type": "Point", "coordinates": [ 130.9041664, 33.8851542 ] } },
{ "type": "Feature", "properties": { "内容": "小規模多機能ホーム　ゆ～じん【小規模多機能型居宅介護】福岡県北九州市小倉北区清水五丁目11番35号ねむの郷2階", "url": "https://www.kaigokensaku.mhlw.go.jp/40/index.php?action_kouhyou_detail_004_kani=true&JigyosyoCd=4090400393-00&ServiceCd=730&Type=search", "url2": "http://www.ohgokai.or.jp" }, "geometry": { "type": "Point", "coordinates": [ 130.853201200000058, 33.8703633 ] } },
{ "type": "Feature", "properties": { "内容": "小規模多機能型居宅介護たのしい家小倉北【小規模多機能型居宅介護】福岡県北九州市小倉北区中井5丁目３－１１", "url": "https://www.kaigokensaku.mhlw.go.jp/40/index.php?action_kouhyou_detail_004_kani=true&JigyosyoCd=4090400476-00&ServiceCd=730&Type=search", "url2": null }, "geometry": { "type": "Point", "coordinates": [ 130.846597555901553, 33.88937205051549 ] } },
{ "type": "Feature", "properties": { "内容": "小規模多機能ホーム霧ヶ丘【小規模多機能型居宅介護】福岡県北九州市小倉北区霧ヶ丘3丁目16-4", "url": "https://www.kaigokensaku.mhlw.go.jp/40/index.php?action_kouhyou_detail_004_kani=true&JigyosyoCd=4090400518-00&ServiceCd=730&Type=search", "url2": "cskokura.fukuoka.jp/" }, "geometry": { "type": "Point", "coordinates": [ 130.8978846, 33.8511215 ] } },
{ "type": "Feature", "properties": { "内容": "小規模多機能の家ハッピー田原【小規模多機能型居宅介護】福岡県北九州市小倉南区田原１丁目７－２６", "url": "https://www.kaigokensaku.mhlw.go.jp/40/index.php?action_kouhyou_detail_004_kani=true&JigyosyoCd=4090500176-00&ServiceCd=730&Type=search", "url2": "http://happy-arrow.jp/" }, "geometry": { "type": "Point", "coordinates": [ 130.9313846, 33.8287002 ] } },
{ "type": "Feature", "properties": { "内容": "社会福祉法人　双葉会　小規模多機能ホーム　ふたばのみのり【小規模多機能型居宅介護】福岡県北九州市小倉南区高野3丁目11番1号", "url": "https://www.kaigokensaku.mhlw.go.jp/40/index.php?action_kouhyou_detail_004_kani=true&JigyosyoCd=4090500408-00&ServiceCd=730&Type=search", "url2": "http://www.futaba-kai.or.jp" }, "geometry": { "type": "Point", "coordinates": [ 130.8525942, 33.8289683 ] } },
{ "type": "Feature", "properties": { "内容": "ひろき苑小規模多機能【小規模多機能型居宅介護】北九州市小倉南区蒲生1丁目6-20", "url": "https://www.kaigokensaku.mhlw.go.jp/40/index.php?action_kouhyou_detail_004_kani=true&JigyosyoCd=4090500200-00&ServiceCd=730&Type=search", "url2": "http:/www.kawamura-fs.com/" }, "geometry": { "type": "Point", "coordinates": [ 130.866012299999966, 33.8446859 ] } },
{ "type": "Feature", "properties": { "内容": "小規模多機能型居宅介護　こもれびサロン【小規模多機能型居宅介護】福岡県北九州市小倉南区蜷田若園３－３－２４", "url": "https://www.kaigokensaku.mhlw.go.jp/40/index.php?action_kouhyou_detail_004_kani=true&JigyosyoCd=4090500218-00&ServiceCd=730&Type=search", "url2": "http:/www.kanclinic.com" }, "geometry": { "type": "Point", "coordinates": [ 130.893640900000037, 33.8448194 ] } },
{ "type": "Feature", "properties": { "内容": "小規模多機能ホームそね【小規模多機能型居宅介護】福岡県北九州市小倉南区中曽根4-1-3-1F", "url": "https://www.kaigokensaku.mhlw.go.jp/40/index.php?action_kouhyou_detail_004_kani=true&JigyosyoCd=4090500226-00&ServiceCd=730&Type=search", "url2": "http://cskokura.fukuoka.jp/shotaki-sone/" }, "geometry": { "type": "Point", "coordinates": [ 130.940540331148242, 33.827520395575888 ] } },
{ "type": "Feature", "properties": { "内容": "小規模多機能型居宅介護　ふたばのその【小規模多機能型居宅介護】福岡県北九州市小倉南区徳吉西1丁目20番15号", "url": "https://www.kaigokensaku.mhlw.go.jp/40/index.php?action_kouhyou_detail_004_kani=true&JigyosyoCd=4090500267-00&ServiceCd=730&Type=search", "url2": "futabanosono1st@futaba-kai.or.jp" }, "geometry": { "type": "Point", "coordinates": [ 130.857702499999959, 33.8168559 ] } },
{ "type": "Feature", "properties": { "内容": "小規模多機能ホーム　好日苑　徳力の郷【小規模多機能型居宅介護】福岡県北九州市小倉南区南方3-5-6", "url": "https://www.kaigokensaku.mhlw.go.jp/40/index.php?action_kouhyou_detail_004_kani=true&JigyosyoCd=4090500382-00&ServiceCd=730&Type=search", "url2": "https://www.koujitsuen.com/tokuriki/" }, "geometry": { "type": "Point", "coordinates": [ 130.862269742102626, 33.832880374279995 ] } },
{ "type": "Feature", "properties": { "内容": "小規模多機能ＣＡＦＥ未来【小規模多機能型居宅介護】福岡県北九州市小倉南区志井6丁目２番５号", "url": "https://www.kaigokensaku.mhlw.go.jp/40/index.php?action_kouhyou_detail_004_kani=true&JigyosyoCd=4090500606-00&ServiceCd=730&Type=search", "url2": "https://rakurakuservice.wixsite.com/rakuraku" }, "geometry": { "type": "Point", "coordinates": [ 130.8761791, 33.8155333 ] } },
{ "type": "Feature", "properties": { "内容": "ふくし生協小規模多機能ほばしら【小規模多機能型居宅介護】福岡県北九州市八幡東区尾倉１－１４－２５", "url": "https://www.kaigokensaku.mhlw.go.jp/40/index.php?action_kouhyou_detail_004_kani=true&JigyosyoCd=4090600141-00&ServiceCd=730&Type=search", "url2": "http://www.fukushiseikyou.jp/" }, "geometry": { "type": "Point", "coordinates": [ 130.800122900000019, 33.8628048 ] } },
{ "type": "Feature", "properties": { "内容": "ニチイケアセンター東田【小規模多機能型居宅介護】福岡県北九州市八幡東区東田1-3-11", "url": "https://www.kaigokensaku.mhlw.go.jp/40/index.php?action_kouhyou_detail_004_kani=true&JigyosyoCd=4090600117-00&ServiceCd=730&Type=search", "url2": "http://www.nichiigakkan.co.jp" }, "geometry": { "type": "Point", "coordinates": [ 130.795673099999931, 33.869493 ] } },
{ "type": "Feature", "properties": { "内容": "セカンドホームわかば【小規模多機能型居宅介護】香月西二丁目9番3号", "url": "https://www.kaigokensaku.mhlw.go.jp/40/index.php?action_kouhyou_detail_004_kani=true&JigyosyoCd=4090700271-00&ServiceCd=730&Type=search", "url2": "http://kenbikai.org" }, "geometry": { "type": "Point", "coordinates": [ 130.732482117196696, 33.803842847449545 ] } },
{ "type": "Feature", "properties": { "内容": "グリーンコープ小規模多機能ホームおひらき・和(のどか)【小規模多機能型居宅介護】北九州市八幡西区御開3丁目40-47", "url": "https://www.kaigokensaku.mhlw.go.jp/40/index.php?action_kouhyou_detail_004_kani=true&JigyosyoCd=4090700677-00&ServiceCd=730&Type=search", "url2": "http://www.fukushi-greencoop.or.jp" }, "geometry": { "type": "Point", "coordinates": [ 130.734302699999944, 33.8872646 ] } },
{ "type": "Feature", "properties": { "内容": "いきいき倶楽部【小規模多機能型居宅介護】福岡県北九州市八幡西区東折尾町16-10", "url": "https://www.kaigokensaku.mhlw.go.jp/40/index.php?action_kouhyou_detail_004_kani=true&JigyosyoCd=4090700115-00&ServiceCd=730&Type=search", "url2": "http://www.kaigo-ikik.com" }, "geometry": { "type": "Point", "coordinates": [ 130.720169, 33.8628584 ] } },
{ "type": "Feature", "properties": { "内容": "小機模多機能ケアリング八千代館【小規模多機能型居宅介護】北九州市八幡西区八千代町９－３０", "url": "https://www.kaigokensaku.mhlw.go.jp/40/index.php?action_kouhyou_detail_004_kani=true&JigyosyoCd=4090700438-00&ServiceCd=730&Type=search", "url2": "http://www.caring.jp/" }, "geometry": { "type": "Point", "coordinates": [ 130.773986299999933, 33.8633266 ] } },
{ "type": "Feature", "properties": { "内容": "小規模多機能型居宅介護事業所　駅前ふくち【小規模多機能型居宅介護】福岡県北九州市八幡西区陣原3丁目23番18号", "url": "https://www.kaigokensaku.mhlw.go.jp/40/index.php?action_kouhyou_detail_004_kani=true&JigyosyoCd=4090700123-00&ServiceCd=730&Type=search", "url2": "http://www.fukuchikai.jp" }, "geometry": { "type": "Point", "coordinates": [ 130.741527122234743, 33.868145716784255 ] } },
{ "type": "Feature", "properties": { "内容": "医療法人　西田医院　湧水館　小規模多機能センター【小規模多機能型居宅介護】福岡県北九州市八幡西区木屋瀬東一丁目７番２８号", "url": "https://www.kaigokensaku.mhlw.go.jp/40/index.php?action_kouhyou_detail_004_kani=true&JigyosyoCd=4090700164-00&ServiceCd=730&Type=search", "url2": "http://yamaura.yuusuikan.com/" }, "geometry": { "type": "Point", "coordinates": [ 130.730622572187485, 33.781082896482758 ] } },
{ "type": "Feature", "properties": { "内容": "喫茶去庵【小規模多機能型居宅介護】福岡県北九州市八幡西区森下町27-38", "url": "https://www.kaigokensaku.mhlw.go.jp/40/index.php?action_kouhyou_detail_004_kani=true&JigyosyoCd=4090700206-00&ServiceCd=730&Type=search", "url2": "http://www.moyai.or.jp/" }, "geometry": { "type": "Point", "coordinates": [ 130.741881299999932, 33.8490663 ] } },
{ "type": "Feature", "properties": { "内容": "サンウェル瀬板【小規模多機能型居宅介護】福岡県北九州市八幡西区則松東二丁目１番１２号", "url": "https://www.kaigokensaku.mhlw.go.jp/40/index.php?action_kouhyou_detail_004_kani=true&JigyosyoCd=4090700255-00&ServiceCd=730&Type=search", "url2": "https://sunwell-kaigo.com/" }, "geometry": { "type": "Point", "coordinates": [ 130.723680564973364, 33.856125661343498 ] } },
{ "type": "Feature", "properties": { "内容": "小規模多機能型サポートセンター本城【小規模多機能型居宅介護】北九州市八幡西区本城東6丁目1-16", "url": "https://www.kaigokensaku.mhlw.go.jp/40/index.php?action_kouhyou_detail_004_kani=true&JigyosyoCd=4090700289-00&ServiceCd=730&Type=search", "url2": "http://www.hibiki.or.jp" }, "geometry": { "type": "Point", "coordinates": [ 130.730066787696813, 33.87423428760097 ] } },
{ "type": "Feature", "properties": { "内容": "小規模多機能ホームやまびこ【小規模多機能型居宅介護】北九州市八幡西区町上津役西2丁目11-23", "url": "https://www.kaigokensaku.mhlw.go.jp/40/index.php?action_kouhyou_detail_004_kani=true&JigyosyoCd=4090700297-00&ServiceCd=730&Type=search", "url2": "http://yamabiko-npo.jp" }, "geometry": { "type": "Point", "coordinates": [ 130.747656600000028, 33.8240636 ] } },
{ "type": "Feature", "properties": { "内容": "きたふく小規模多機能ホーム「自悠の庵」幸神【小規模多機能型居宅介護】北九州市八幡西区幸神2丁目6-51階", "url": "https://www.kaigokensaku.mhlw.go.jp/40/index.php?action_kouhyou_detail_004_kani=true&JigyosyoCd=4090700388-00&ServiceCd=730&Type=search", "url2": "https://kitafuku.co.jp" }, "geometry": { "type": "Point", "coordinates": [ 130.766304, 33.8518471 ] } },
{ "type": "Feature", "properties": { "内容": "医療法人西田医院湧水館小規模多機能センターサテライト【小規模多機能型居宅介護】福岡県北九州市八幡西区木屋瀬東一丁目８番１号", "url": "https://www.kaigokensaku.mhlw.go.jp/40/index.php?action_kouhyou_detail_004_kani=true&JigyosyoCd=4090700495-00&ServiceCd=730&Type=search", "url2": "http://yuusuikan.com/" }, "geometry": { "type": "Point", "coordinates": [ 130.729863481275999, 33.780326056273509 ] } },
{ "type": "Feature", "properties": { "内容": "小規模多機能ホーム　足水の里【小規模多機能型居宅介護】福岡県北九州市八幡西区上上津役５－８－１", "url": "https://www.kaigokensaku.mhlw.go.jp/40/index.php?action_kouhyou_detail_004_kani=true&JigyosyoCd=4090700792-00&ServiceCd=730&Type=search", "url2": null }, "geometry": { "type": "Point", "coordinates": [ 130.761782700000026, 33.8264914 ] } },
{ "type": "Feature", "properties": { "内容": "小規模多機能ホームきらめき上の原【小規模多機能型居宅介護】上の原二丁目17番11号", "url": "https://www.kaigokensaku.mhlw.go.jp/40/index.php?action_kouhyou_detail_004_kani=true&JigyosyoCd=4090700362-00&ServiceCd=730&Type=search", "url2": "www.pro-kirameki.com" }, "geometry": { "type": "Point", "coordinates": [ 130.7537112, 33.837418 ] } },
{ "type": "Feature", "properties": { "内容": "小規模多機能　クレアール【小規模多機能型居宅介護】北九州市八幡西区岸の浦二丁目２-３５サービス付き高齢者向け住宅　クレアール黒崎　１Ｆ", "url": "https://www.kaigokensaku.mhlw.go.jp/40/index.php?action_kouhyou_detail_004_kani=true&JigyosyoCd=4090700552-00&ServiceCd=730&Type=search", "url2": "https://mukauno-sato.com" }, "geometry": { "type": "Point", "coordinates": [ 130.763840100000039, 33.860618300000034 ] } },
{ "type": "Feature", "properties": { "内容": "さくらコミュニティLifeyou【小規模多機能型居宅介護】福岡県北九州市八幡西区木屋瀬東2-5-35", "url": "https://www.kaigokensaku.mhlw.go.jp/40/index.php?action_kouhyou_detail_004_kani=true&JigyosyoCd=4090701048-00&ServiceCd=730&Type=search", "url2": null }, "geometry": { "type": "Point", "coordinates": [ 130.729482362565648, 33.778926483170494 ] } },
{ "type": "Feature", "properties": { "内容": "小規模多機能ホームきらめき本城【小規模多機能型居宅介護】福岡県北九州市八幡西区本城1丁目20-20きらめき本城ビル2階", "url": "https://www.kaigokensaku.mhlw.go.jp/40/index.php?action_kouhyou_detail_004_kani=true&JigyosyoCd=4090701063-00&ServiceCd=730&Type=search", "url2": "https://www.pro-kirameki.com/" }, "geometry": { "type": "Point", "coordinates": [ 130.728804104893499, 33.881978941701192 ] } },
{ "type": "Feature", "properties": { "内容": "小規模多機能型居宅介護ももいろハート【小規模多機能型居宅介護】千早1丁目17-16", "url": "https://www.kaigokensaku.mhlw.go.jp/40/index.php?action_kouhyou_detail_004_kani=true&JigyosyoCd=4090800527-00&ServiceCd=730&Type=search", "url2": "www.friendpeach.or.jp" }, "geometry": { "type": "Point", "coordinates": [ 130.430427799999961, 33.6500596 ] } },
{ "type": "Feature", "properties": { "内容": "みんなの家　青葉の里【小規模多機能型居宅介護】福岡県福岡市東区土井４丁目５番１６号高齢者複合施設　みんなの家　青葉の里　1F", "url": "https://www.kaigokensaku.mhlw.go.jp/40/index.php?action_kouhyou_detail_004_kani=true&JigyosyoCd=4090800097-00&ServiceCd=730&Type=search", "url2": "http://www.homecareservice.co.jp/" }, "geometry": { "type": "Point", "coordinates": [ 130.467126099999973, 33.6351344 ] } },
{ "type": "Feature", "properties": { "内容": "みんなの家　三苫駅前【小規模多機能型居宅介護】福岡県福岡市東区三苫4丁目8番1号", "url": "https://www.kaigokensaku.mhlw.go.jp/40/index.php?action_kouhyou_detail_004_kani=true&JigyosyoCd=4090800105-00&ServiceCd=730&Type=search", "url2": "http://www.homecaresrvice.co.jp/" }, "geometry": { "type": "Point", "coordinates": [ 130.422392899999977, 33.7000645 ] } },
{ "type": "Feature", "properties": { "内容": "小規模多機能ホームのどか【小規模多機能型居宅介護】福岡県福岡市東区箱崎６丁目１８番７号", "url": "https://www.kaigokensaku.mhlw.go.jp/40/index.php?action_kouhyou_detail_004_kani=true&JigyosyoCd=4090800121-00&ServiceCd=730&Type=search", "url2": "http//chidorifukushi.jp" }, "geometry": { "type": "Point", "coordinates": [ 130.421485100000041, 33.6256289 ] } },
{ "type": "Feature", "properties": { "内容": "小規模多機能ホーム　アソシエ和白【小規模多機能型居宅介護】福岡市東区和白東1-25-11", "url": "https://www.kaigokensaku.mhlw.go.jp/40/index.php?action_kouhyou_detail_004_kani=true&JigyosyoCd=4090800154-00&ServiceCd=730&Type=search", "url2": "http://www.associe-stay.jp/" }, "geometry": { "type": "Point", "coordinates": [ 130.437120099999987, 33.6886193 ] } },
{ "type": "Feature", "properties": { "内容": "小規模多機能型居宅介護花うさぎ千早【小規模多機能型居宅介護】福岡県福岡市東区千早４丁目13-27ケアホーム花うさぎ千早", "url": "https://www.kaigokensaku.mhlw.go.jp/40/index.php?action_kouhyou_detail_004_kani=true&JigyosyoCd=4090800188-00&ServiceCd=730&Type=search", "url2": "URLhttp://www.hanausagi-daiwa.com" }, "geometry": { "type": "Point", "coordinates": [ 130.435897100000034, 33.6469657 ] } },
{ "type": "Feature", "properties": { "内容": "小規模多機能・ハーモニー香椎下原【小規模多機能型居宅介護】福岡市東区香椎下原２丁目１５－３１", "url": "https://www.kaigokensaku.mhlw.go.jp/40/index.php?action_kouhyou_detail_004_kani=true&JigyosyoCd=4090800204-00&ServiceCd=730&Type=search", "url2": null }, "geometry": { "type": "Point", "coordinates": [ 130.4552463, 33.6695166 ] } },
{ "type": "Feature", "properties": { "内容": "小規模多機能ホーム　トリニテ松崎【小規模多機能型居宅介護】松崎2丁目7‐21", "url": "https://www.kaigokensaku.mhlw.go.jp/40/index.php?action_kouhyou_detail_004_kani=true&JigyosyoCd=4090800212-00&ServiceCd=730&Type=search", "url2": "http://www.kieikai.ne.jp/torinite/" }, "geometry": { "type": "Point", "coordinates": [ 130.439100400000029, 33.6348311 ] } },
{ "type": "Feature", "properties": { "内容": "みんなの家土井駅南【小規模多機能型居宅介護】福岡県福岡市東区土井3丁目20番12号レジデンス土井駅南　１F", "url": "https://www.kaigokensaku.mhlw.go.jp/40/index.php?action_kouhyou_detail_004_kani=true&JigyosyoCd=4090800808-00&ServiceCd=730&Type=search", "url2": "http://www.homecareservice.co.jp/" }, "geometry": { "type": "Point", "coordinates": [ 130.467542400000013, 33.6338857 ] } },
{ "type": "Feature", "properties": { "内容": "小規模多機能型居宅介護フレンド香住ヶ丘【小規模多機能型居宅介護】福岡県福岡県福岡市東区香住ヶ丘二丁目3番23号", "url": "https://www.kaigokensaku.mhlw.go.jp/40/index.php?action_kouhyou_detail_004_kani=true&JigyosyoCd=4090800915-00&ServiceCd=730&Type=search", "url2": "https://www.friend-grouphome.com/product/kasumigaoka/" }, "geometry": { "type": "Point", "coordinates": [ 130.4422133, 33.6689727 ] } },
{ "type": "Feature", "properties": { "内容": "小規模多機能型居宅介護　　ふぁみりー那珂【小規模多機能型居宅介護】福岡県福岡市博多区那珂三丁目１４－６", "url": "https://www.kaigokensaku.mhlw.go.jp/40/index.php?action_kouhyou_detail_004_kani=true&JigyosyoCd=4090900079-00&ServiceCd=730&Type=search", "url2": null }, "geometry": { "type": "Point", "coordinates": [ 130.439994710450748, 33.569276170918243 ] } },
{ "type": "Feature", "properties": { "内容": "医療法人　木村内科医院　　小規模多機能　さいゆう【小規模多機能型居宅介護】吉塚１丁目３３－１０", "url": "https://www.kaigokensaku.mhlw.go.jp/40/index.php?action_kouhyou_detail_004_kani=true&JigyosyoCd=4090900095-00&ServiceCd=730&Type=search", "url2": null }, "geometry": { "type": "Point", "coordinates": [ 130.424080099999969, 33.6003153 ] } },
{ "type": "Feature", "properties": { "内容": "小規模多機能型居宅介護　月の丘　とめさん家【小規模多機能型居宅介護】福岡市博多区金の隈3丁目18-15", "url": "https://www.kaigokensaku.mhlw.go.jp/40/index.php?action_kouhyou_detail_004_kani=true&JigyosyoCd=4090900103-00&ServiceCd=730&Type=search", "url2": "http://tukinooka-tomesanti.com" }, "geometry": { "type": "Point", "coordinates": [ 130.478868700000021, 33.5548632 ] } },
{ "type": "Feature", "properties": { "内容": "小規模多機能型居宅介護　ケアスタ福岡【小規模多機能型居宅介護】福岡市博多区千代1‐30‐25", "url": "https://www.kaigokensaku.mhlw.go.jp/40/index.php?action_kouhyou_detail_004_kani=true&JigyosyoCd=4090900301-00&ServiceCd=730&Type=search", "url2": "http://keiaien.org" }, "geometry": { "type": "Point", "coordinates": [ 130.41987340671119, 33.603736237177458 ] } },
{ "type": "Feature", "properties": { "内容": "多機能ケアホーム　りんごの里【小規模多機能型居宅介護】福岡県福岡市博多区井相田3丁目1-20", "url": "https://www.kaigokensaku.mhlw.go.jp/40/index.php?action_kouhyou_detail_004_kani=true&JigyosyoCd=4090900053-00&ServiceCd=730&Type=search", "url2": null }, "geometry": { "type": "Point", "coordinates": [ 130.466756812004093, 33.550719898620883 ] } },
{ "type": "Feature", "properties": { "内容": "いこいの郷おざさ【小規模多機能型居宅介護】福岡県福岡市中央区小笹1丁目14-27", "url": "https://www.kaigokensaku.mhlw.go.jp/40/index.php?action_kouhyou_detail_004_kani=true&JigyosyoCd=4091000051-00&ServiceCd=730&Type=search", "url2": "http://tachiarai-kouseien.jp/ozasa/" }, "geometry": { "type": "Point", "coordinates": [ 130.3898001, 33.5631549 ] } },
{ "type": "Feature", "properties": { "内容": "小規模多機能ホームゆふの庄【小規模多機能型居宅介護】福岡市中央区鳥飼1-5-10", "url": "https://www.kaigokensaku.mhlw.go.jp/40/index.php?action_kouhyou_detail_004_kani=true&JigyosyoCd=4091000168-00&ServiceCd=730&Type=search", "url2": "www.fukujincare.com" }, "geometry": { "type": "Point", "coordinates": [ 130.368757499999987, 33.5818644 ] } },
{ "type": "Feature", "properties": { "内容": "小規模多機能ホーム福岡天神南さくらそう【小規模多機能型居宅介護】福岡県福岡市中央区春吉2丁目15番18号福岡天神南さくらそう", "url": "https://www.kaigokensaku.mhlw.go.jp/40/index.php?action_kouhyou_detail_004_kani=true&JigyosyoCd=4091000101-00&ServiceCd=730&Type=search", "url2": "https://sakura-so.jp/fukuokatenjinminami" }, "geometry": { "type": "Point", "coordinates": [ 130.40672619999998, 33.5865551 ] } },
{ "type": "Feature", "properties": { "内容": "小規模多機能ホーム笑福【小規模多機能型居宅介護】福岡県福岡市南区野間3丁目15-1", "url": "https://www.kaigokensaku.mhlw.go.jp/40/index.php?action_kouhyou_detail_004_kani=true&JigyosyoCd=4091100448-00&ServiceCd=730&Type=search", "url2": "https://good-life.or.jp/" }, "geometry": { "type": "Point", "coordinates": [ 130.414892257672136, 33.561190146400016 ] } },
{ "type": "Feature", "properties": { "内容": "スマイルサポート・警弥郷倶楽部【小規模多機能型居宅介護】福岡県福岡市南区警弥郷1丁目7番6号", "url": "https://www.kaigokensaku.mhlw.go.jp/40/index.php?action_kouhyou_detail_004_kani=true&JigyosyoCd=4091100083-00&ServiceCd=730&Type=search", "url2": null }, "geometry": { "type": "Point", "coordinates": [ 130.4300922, 33.534910899999979 ] } },
{ "type": "Feature", "properties": { "内容": "三丁目小規模多機能センター【小規模多機能型居宅介護】福岡市南区横手3丁目2－8", "url": "https://www.kaigokensaku.mhlw.go.jp/40/index.php?action_kouhyou_detail_004_kani=true&JigyosyoCd=4091100166-00&ServiceCd=730&Type=search", "url2": "http://www.sunnylife.info/" }, "geometry": { "type": "Point", "coordinates": [ 130.437834619712817, 33.547820787492469 ] } },
{ "type": "Feature", "properties": { "内容": "小規模多機能ホーム　ゆふの郷【小規模多機能型居宅介護】福岡県福岡市南区長丘1-4-37ゆふの郷", "url": "https://www.kaigokensaku.mhlw.go.jp/40/index.php?action_kouhyou_detail_004_kani=true&JigyosyoCd=4091100190-00&ServiceCd=730&Type=search", "url2": "http://www.fukujincare.com/" }, "geometry": { "type": "Point", "coordinates": [ 130.4002332, 33.5553503 ] } },
{ "type": "Feature", "properties": { "内容": "小規模多機能ホーム心の丘【小規模多機能型居宅介護】鶴田1丁目10-20", "url": "https://www.kaigokensaku.mhlw.go.jp/40/index.php?action_kouhyou_detail_004_kani=true&JigyosyoCd=4091100323-00&ServiceCd=730&Type=search", "url2": "https://asukafukushikai.com/center" }, "geometry": { "type": "Point", "coordinates": [ 130.408727900000031, 33.5272061 ] } },
{ "type": "Feature", "properties": { "内容": "小規模多機能ホームひまわり大楠【小規模多機能型居宅介護】福岡県福岡市南区大楠1丁目17-7FIG大楠医療介護総合センター", "url": "https://www.kaigokensaku.mhlw.go.jp/40/index.php?action_kouhyou_detail_004_kani=true&JigyosyoCd=4091100380-00&ServiceCd=730&Type=search", "url2": "www.npo-hima.net" }, "geometry": { "type": "Point", "coordinates": [ 130.416640005557298, 33.573009792151403 ] } },
{ "type": "Feature", "properties": { "内容": "小規模多機能　寿庵【小規模多機能型居宅介護】福岡県福岡市南区鶴田2丁目7番12号", "url": "https://www.kaigokensaku.mhlw.go.jp/40/index.php?action_kouhyou_detail_004_kani=true&JigyosyoCd=4091100638-00&ServiceCd=730&Type=search", "url2": "http://smile-kaigo.com/" }, "geometry": { "type": "Point", "coordinates": [ 130.407774, 33.525469500000014 ] } },
{ "type": "Feature", "properties": { "内容": "小規模多機能　さかいの樹【小規模多機能型居宅介護】福岡市南区向新町1丁目10-50", "url": "https://www.kaigokensaku.mhlw.go.jp/40/index.php?action_kouhyou_detail_004_kani=true&JigyosyoCd=4091100703-00&ServiceCd=730&Type=search", "url2": "http://www.med-sakai.jp/sakainoki" }, "geometry": { "type": "Point", "coordinates": [ 130.429601760188262, 33.542149145568082 ] } },
{ "type": "Feature", "properties": { "内容": "小規模多機能おさ「弥永亭」【小規模多機能型居宅介護】曰佐3丁目４０－３２", "url": "https://www.kaigokensaku.mhlw.go.jp/40/index.php?action_kouhyou_detail_004_kani=true&JigyosyoCd=4091100307-00&ServiceCd=730&Type=search", "url2": null }, "geometry": { "type": "Point", "coordinates": [ 130.440233300000045, 33.5346255 ] } },
{ "type": "Feature", "properties": { "内容": "小規模多機能ホーム　みなみ【小規模多機能型居宅介護】福岡県福岡市南区野多目5-12-6", "url": "https://www.kaigokensaku.mhlw.go.jp/40/index.php?action_kouhyou_detail_004_kani=true&JigyosyoCd=4091100075-00&ServiceCd=730&Type=search", "url2": null }, "geometry": { "type": "Point", "coordinates": [ 130.414818700000069, 33.5416964 ] } },
{ "type": "Feature", "properties": { "内容": "小規模多機能型居宅介護花うさぎ大橋【小規模多機能型居宅介護】福岡県福岡市南区大橋3丁目19-15ケアホーム花うさぎ大橋", "url": "https://www.kaigokensaku.mhlw.go.jp/40/index.php?action_kouhyou_detail_004_kani=true&JigyosyoCd=4091100232-00&ServiceCd=730&Type=search", "url2": "http://www.hanausagi-daiwa.com/ohashi/index.html" }, "geometry": { "type": "Point", "coordinates": [ 130.43205039999998, 33.5525842 ] } },
{ "type": "Feature", "properties": { "内容": "小規模多機能ホームあけぼの【小規模多機能型居宅介護】福岡県福岡市南区曰佐2-8-1", "url": "https://www.kaigokensaku.mhlw.go.jp/40/index.php?action_kouhyou_detail_004_kani=true&JigyosyoCd=4091100414-00&ServiceCd=730&Type=search", "url2": "https://ml-akebono.com" }, "geometry": { "type": "Point", "coordinates": [ 130.437741800000026, 33.5414608 ] } },
{ "type": "Feature", "properties": { "内容": "小規模多機能森の家みのり荘【小規模多機能型居宅介護】柏原4丁目33-31－", "url": "https://www.kaigokensaku.mhlw.go.jp/40/index.php?action_kouhyou_detail_004_kani=true&JigyosyoCd=4091100117-00&ServiceCd=730&Type=search", "url2": "https://www.facebook.com/morinoie.minorisou/" }, "geometry": { "type": "Point", "coordinates": [ 130.396112499999958, 33.5260227 ] } },
{ "type": "Feature", "properties": { "内容": "ケアポートがんぎだん【小規模多機能型居宅介護】福岡県福岡市西区大字玄界島１番地22", "url": "https://www.kaigokensaku.mhlw.go.jp/40/index.php?action_kouhyou_detail_004_kani=true&JigyosyoCd=4091200594-00&ServiceCd=730&Type=search", "url2": null }, "geometry": { "type": "Point", "coordinates": [ 130.2347241, 33.6833495 ] } },
{ "type": "Feature", "properties": { "内容": "小規模多機能型居宅介護　マイネスハウス福重【小規模多機能型居宅介護】福岡県福岡市西区福重２丁目３４－５", "url": "https://www.kaigokensaku.mhlw.go.jp/40/index.php?action_kouhyou_detail_004_kani=true&JigyosyoCd=4091200073-00&ServiceCd=730&Type=search", "url2": "http://www.maineshouse.jp/fukushige/" }, "geometry": { "type": "Point", "coordinates": [ 130.320588499999985, 33.5637239 ] } },
{ "type": "Feature", "properties": { "内容": "小規模多機能ホーム　いなほ【小規模多機能型居宅介護】福岡市西区室見が丘１丁目９番４号", "url": "https://www.kaigokensaku.mhlw.go.jp/40/index.php?action_kouhyou_detail_004_kani=true&JigyosyoCd=4091200099-00&ServiceCd=730&Type=search", "url2": "https://kaigo-fuk.com/" }, "geometry": { "type": "Point", "coordinates": [ 130.3161874, 33.5205187 ] } },
{ "type": "Feature", "properties": { "内容": "小規模多機能ホームひまわり【小規模多機能型居宅介護】福岡県福岡市西区小戸3-31-32", "url": "https://www.kaigokensaku.mhlw.go.jp/40/index.php?action_kouhyou_detail_004_kani=true&JigyosyoCd=4091200339-00&ServiceCd=730&Type=search", "url2": null }, "geometry": { "type": "Point", "coordinates": [ 130.3145498, 33.5892577 ] } },
{ "type": "Feature", "properties": { "内容": "小規模多機能居宅介護　ローズマリー【小規模多機能型居宅介護】福岡県福岡市西区拾六町4-37-12", "url": "https://www.kaigokensaku.mhlw.go.jp/40/index.php?action_kouhyou_detail_004_kani=true&JigyosyoCd=4091200115-00&ServiceCd=730&Type=search", "url2": null }, "geometry": { "type": "Point", "coordinates": [ 130.303375599999981, 33.563397500000015 ] } },
{ "type": "Feature", "properties": { "内容": "小規模多機能型居宅介護　海の花【小規模多機能型居宅介護】福岡県福岡市西区今津6015番地", "url": "https://www.kaigokensaku.mhlw.go.jp/40/index.php?action_kouhyou_detail_004_kani=true&JigyosyoCd=4091200453-00&ServiceCd=730&Type=search", "url2": "https://saiunnouta.com/" }, "geometry": { "type": "Point", "coordinates": [ 130.270677799999987, 33.5976478 ] } },
{ "type": "Feature", "properties": { "内容": "小規模多機能ホームとりかい【小規模多機能型居宅介護】福岡市城南区鳥飼6丁目7番14号", "url": "https://www.kaigokensaku.mhlw.go.jp/40/index.php?action_kouhyou_detail_004_kani=true&JigyosyoCd=4091300022-00&ServiceCd=730&Type=search", "url2": "https://www.kouikai.jp/torikaizaitaku/syoukibo/" }, "geometry": { "type": "Point", "coordinates": [ 130.368390399999953, 33.5762306 ] } },
{ "type": "Feature", "properties": { "内容": "小規模多機能ケアいずみ【小規模多機能型居宅介護】福岡県福岡市城南区七隈２丁目７番４１号", "url": "https://www.kaigokensaku.mhlw.go.jp/40/index.php?action_kouhyou_detail_004_kani=true&JigyosyoCd=4091300055-00&ServiceCd=730&Type=search", "url2": "http://www.kaede01.com/" }, "geometry": { "type": "Point", "coordinates": [ 130.3604388, 33.5617181 ] } },
{ "type": "Feature", "properties": { "内容": "多機能型サービスめおといわ「つむぐ」【小規模多機能型居宅介護】福岡市城南区松山2丁目8番3号地域包括ケアセンター松山", "url": "https://www.kaigokensaku.mhlw.go.jp/40/index.php?action_kouhyou_detail_004_kani=true&JigyosyoCd=4091300071-00&ServiceCd=730&Type=search", "url2": "https://www.meotoiwa.com/zaitakubu/" }, "geometry": { "type": "Point", "coordinates": [ 130.36426640000002, 33.556299399999986 ] } },
{ "type": "Feature", "properties": { "内容": "ケアルームチューリップ【小規模多機能型居宅介護】梅林4丁目6番14号", "url": "https://www.kaigokensaku.mhlw.go.jp/40/index.php?action_kouhyou_detail_004_kani=true&JigyosyoCd=4091300147-00&ServiceCd=730&Type=search", "url2": "http://cr-tulip.araseclinic.com/" }, "geometry": { "type": "Point", "coordinates": [ 130.355127716246812, 33.544238803697354 ] } },
{ "type": "Feature", "properties": { "内容": "ケアタウン茶山小規模多機能居宅介護【小規模多機能型居宅介護】福岡県福岡市城南区茶山3丁目9番1号", "url": "https://www.kaigokensaku.mhlw.go.jp/40/index.php?action_kouhyou_detail_004_kani=true&JigyosyoCd=4091300238-00&ServiceCd=730&Type=search", "url2": "https://chayama.fukusiminsei.or.jp/" }, "geometry": { "type": "Point", "coordinates": [ 130.365194, 33.560835 ] } },
{ "type": "Feature", "properties": { "内容": "小規模多機能ホームゆりかもめ【小規模多機能型居宅介護】福岡市早良区飯倉３―１６―１４", "url": "https://www.kaigokensaku.mhlw.go.jp/40/index.php?action_kouhyou_detail_004_kani=true&JigyosyoCd=4091400012-00&ServiceCd=730&Type=search", "url2": "http://www.yurikamome.jp/" }, "geometry": { "type": "Point", "coordinates": [ 130.349567200000024, 33.5657204 ] } },
{ "type": "Feature", "properties": { "内容": "有田の杜【小規模多機能型居宅介護】福岡市早良区有田７丁目１番２０号", "url": "https://www.kaigokensaku.mhlw.go.jp/40/index.php?action_kouhyou_detail_004_kani=true&JigyosyoCd=4091400145-00&ServiceCd=730&Type=search", "url2": "www.support-fukutoku-g.com/" }, "geometry": { "type": "Point", "coordinates": [ 130.3301156, 33.5644432 ] } },
{ "type": "Feature", "properties": { "内容": "なごみの家【小規模多機能型居宅介護】福岡県福岡市早良区東入部1丁目4番2号", "url": "https://www.kaigokensaku.mhlw.go.jp/40/index.php?action_kouhyou_detail_004_kani=true&JigyosyoCd=4091400020-00&ServiceCd=730&Type=search", "url2": "http//care753.jp" }, "geometry": { "type": "Point", "coordinates": [ 130.3390968, 33.5254937 ] } },
{ "type": "Feature", "properties": { "内容": "小規模多機能ホーム　荒江の家【小規模多機能型居宅介護】福岡県福岡市早良区荒江３丁目２０－３", "url": "https://www.kaigokensaku.mhlw.go.jp/40/index.php?action_kouhyou_detail_004_kani=true&JigyosyoCd=4091400053-00&ServiceCd=730&Type=search", "url2": "https://seiwakai-care.jp/" }, "geometry": { "type": "Point", "coordinates": [ 130.351989099999969, 33.570356 ] } },
{ "type": "Feature", "properties": { "内容": "医療法人研和会小規模多機能型居宅介護ホームさくらの里【小規模多機能型居宅介護】福岡市早良区原1-6-24", "url": "https://www.kaigokensaku.mhlw.go.jp/40/index.php?action_kouhyou_detail_004_kani=true&JigyosyoCd=4091400079-00&ServiceCd=730&Type=search", "url2": "http://www.kitajimanaika.com/" }, "geometry": { "type": "Point", "coordinates": [ 130.3501061, 33.573459 ] } },
{ "type": "Feature", "properties": { "内容": "なごみの家しかた【小規模多機能型居宅介護】福岡県福岡市早良区四箇田団地4棟106号", "url": "https://www.kaigokensaku.mhlw.go.jp/40/index.php?action_kouhyou_detail_004_kani=true&JigyosyoCd=4091400269-00&ServiceCd=730&Type=search", "url2": "http://care753.jp/" }, "geometry": { "type": "Point", "coordinates": [ 130.328352699999982, 33.534195400000016 ] } },
{ "type": "Feature", "properties": { "内容": "たんぽぽの風【小規模多機能型居宅介護】福岡県福岡市早良区早良6丁目２－９", "url": "https://www.kaigokensaku.mhlw.go.jp/40/index.php?action_kouhyou_detail_004_kani=true&JigyosyoCd=4091400350-00&ServiceCd=730&Type=search", "url2": null }, "geometry": { "type": "Point", "coordinates": [ 130.334507082278378, 33.502726663414442 ] } },
{ "type": "Feature", "properties": { "内容": "小規模多機能型居宅介護　エフコープかがやき次郎丸【小規模多機能型居宅介護】福岡県福岡市早良区次郎丸4丁目10番50号", "url": "https://www.kaigokensaku.mhlw.go.jp/40/index.php?action_kouhyou_detail_004_kani=true&JigyosyoCd=4091400400-00&ServiceCd=730&Type=search", "url2": "http://www.fcoop.or.jp/" }, "geometry": { "type": "Point", "coordinates": [ 130.327596800000038, 33.5476972 ] } },
{ "type": "Feature", "properties": { "内容": "小規模多機能ホーム　むろみ【小規模多機能型居宅介護】福岡県福岡市早良区室見５丁目１０番３４号", "url": "https://www.kaigokensaku.mhlw.go.jp/40/index.php?action_kouhyou_detail_004_kani=true&JigyosyoCd=4091400210-00&ServiceCd=730&Type=search", "url2": null }, "geometry": { "type": "Point", "coordinates": [ 130.337642599999981, 33.5788473 ] } },
{ "type": "Feature", "properties": { "内容": "小規模多機能ホーム　アソシエ飯倉【小規模多機能型居宅介護】福岡県福岡市早良区飯倉５丁目２１-４", "url": "https://www.kaigokensaku.mhlw.go.jp/40/index.php?action_kouhyou_detail_004_kani=true&JigyosyoCd=4091400111-00&ServiceCd=730&Type=search", "url2": "http://associe-group.jp" }, "geometry": { "type": "Point", "coordinates": [ 130.354167100000041, 33.560512600000024 ] } },
{ "type": "Feature", "properties": { "内容": "小規模多機能居宅介護ひらばるの家【小規模多機能型居宅介護】大牟田市大字歴木990-19", "url": "https://www.kaigokensaku.mhlw.go.jp/40/index.php?action_kouhyou_detail_004_kani=true&JigyosyoCd=4091500027-00&ServiceCd=730&Type=search", "url2": "http://www.konno-hp.jp/" }, "geometry": { "type": "Point", "coordinates": [ 130.467311399999971, 33.0405726 ] } },
{ "type": "Feature", "properties": { "内容": "小規模多機能型居宅介護　ぷらいえ【小規模多機能型居宅介護】福岡県大牟田市大字田隈８２７－１", "url": "https://www.kaigokensaku.mhlw.go.jp/40/index.php?action_kouhyou_detail_004_kani=true&JigyosyoCd=4091500126-00&ServiceCd=730&Type=search", "url2": "http://user.ariakenet.com/~toushou/" }, "geometry": { "type": "Point", "coordinates": [ 130.464907700000026, 33.0579206 ] } },
{ "type": "Feature", "properties": { "内容": "小規模多機能型居宅介護ぷらいえ【小規模多機能型居宅介護】大牟田市大字田隈827-1", "url": "https://www.kaigokensaku.mhlw.go.jp/40/index.php?action_kouhyou_detail_004_kani=true&JigyosyoCd=4091500746-00&ServiceCd=730&Type=search", "url2": null }, "geometry": { "type": "Point", "coordinates": [ 130.4649528, 33.0578949 ] } },
{ "type": "Feature", "properties": { "内容": "リビングアエル平原【小規模多機能型居宅介護】福岡県大牟田市歴木990ー19", "url": "https://www.kaigokensaku.mhlw.go.jp/40/index.php?action_kouhyou_detail_004_kani=true&JigyosyoCd=4091500738-00&ServiceCd=730&Type=search", "url2": "http://yamanamicare.net/" }, "geometry": { "type": "Point", "coordinates": [ 130.4673312, 33.0405743 ] } },
{ "type": "Feature", "properties": { "内容": "小規模多機能ホームぶどうの木【小規模多機能型居宅介護】福岡県大牟田市櫟野１０２１", "url": "https://www.kaigokensaku.mhlw.go.jp/40/index.php?action_kouhyou_detail_004_kani=true&JigyosyoCd=4091500399-00&ServiceCd=730&Type=search", "url2": null }, "geometry": { "type": "Point", "coordinates": [ 130.492301699999985, 33.0123759 ] } },
{ "type": "Feature", "properties": { "内容": "小規模多機能ホーム　たけとんぼ【小規模多機能型居宅介護】福岡県大牟田市櫟野３２６０－１０２", "url": "https://www.kaigokensaku.mhlw.go.jp/40/index.php?action_kouhyou_detail_004_kani=true&JigyosyoCd=4091500308-00&ServiceCd=730&Type=search", "url2": null }, "geometry": { "type": "Point", "coordinates": [ 130.480763600000046, 33.0163336 ] } },
{ "type": "Feature", "properties": { "内容": "小規模多機能型ホーム　よしの【小規模多機能型居宅介護】福岡県大牟田市大字吉野2144番地1", "url": "https://www.kaigokensaku.mhlw.go.jp/40/index.php?action_kouhyou_detail_004_kani=true&JigyosyoCd=4091500340-00&ServiceCd=730&Type=search", "url2": null }, "geometry": { "type": "Point", "coordinates": [ 130.468968, 33.0682279 ] } },
{ "type": "Feature", "properties": { "内容": "小規模多機能ホーム　槐【小規模多機能型居宅介護】福岡県大牟田市三里町1丁目４－４", "url": "https://www.kaigokensaku.mhlw.go.jp/40/index.php?action_kouhyou_detail_004_kani=true&JigyosyoCd=4091500266-00&ServiceCd=730&Type=search", "url2": "https://www.misato-yoshidaclinic.jp/" }, "geometry": { "type": "Point", "coordinates": [ 130.427302899999972, 33.0093718 ] } },
{ "type": "Feature", "properties": { "内容": "小規模多機能ホームふかうらの家【小規模多機能型居宅介護】福岡県大牟田市大字岬1202-1", "url": "https://www.kaigokensaku.mhlw.go.jp/40/index.php?action_kouhyou_detail_004_kani=true&JigyosyoCd=4091500589-00&ServiceCd=730&Type=search", "url2": "http://o-takatori-h.sakura.ne.jp/" }, "geometry": { "type": "Point", "coordinates": [ 130.440814199999977, 33.0667106 ] } },
{ "type": "Feature", "properties": { "内容": "小規模多機能　蜜柑の家【小規模多機能型居宅介護】福岡県大牟田市岩本新町２丁目4-3", "url": "https://www.kaigokensaku.mhlw.go.jp/40/index.php?action_kouhyou_detail_004_kani=true&JigyosyoCd=4091500522-00&ServiceCd=730&Type=search", "url2": "http://www.tenkouen/com/" }, "geometry": { "type": "Point", "coordinates": [ 130.490293996295094, 33.07147297289503 ] } },
{ "type": "Feature", "properties": { "内容": "小規模多機能型居宅介護　花ごよみ【小規模多機能型居宅介護】福岡県大牟田市黄金町１丁目２３７－１", "url": "https://www.kaigokensaku.mhlw.go.jp/40/index.php?action_kouhyou_detail_004_kani=true&JigyosyoCd=4091500175-00&ServiceCd=730&Type=search", "url2": "http://www.i-shinwa.com/hanazono/" }, "geometry": { "type": "Point", "coordinates": [ 130.450515399999972, 33.020241 ] } },
{ "type": "Feature", "properties": { "内容": "小規模多機能ホーム　みえあむ【小規模多機能型居宅介護】福岡県大牟田市沖田町491番地", "url": "https://www.kaigokensaku.mhlw.go.jp/40/index.php?action_kouhyou_detail_004_kani=true&JigyosyoCd=4091500225-00&ServiceCd=730&Type=search", "url2": "http://www.sunfriends.net/" }, "geometry": { "type": "Point", "coordinates": [ 130.449082200000021, 33.0117361 ] } },
{ "type": "Feature", "properties": { "内容": "小規模多機能居宅介護施設美さと【小規模多機能型居宅介護】福岡県大牟田市南船津町2丁目９番地", "url": "https://www.kaigokensaku.mhlw.go.jp/40/index.php?action_kouhyou_detail_004_kani=true&JigyosyoCd=4091500241-00&ServiceCd=730&Type=search", "url2": "http://www.kenkougroup.or.jp/" }, "geometry": { "type": "Point", "coordinates": [ 130.435746900000026, 33.0079805 ] } },
{ "type": "Feature", "properties": { "内容": "小規模多機能　桜の家【小規模多機能型居宅介護】福岡県大牟田市大字橘原の前1494-1", "url": "https://www.kaigokensaku.mhlw.go.jp/40/index.php?action_kouhyou_detail_004_kani=true&JigyosyoCd=4091500282-00&ServiceCd=730&Type=search", "url2": null }, "geometry": { "type": "Point", "coordinates": [ 130.4459852, 33.0302622 ] } },
{ "type": "Feature", "properties": { "内容": "小規模多機能ホームこどう【小規模多機能型居宅介護】福岡県大牟田市青葉町１０４番地４", "url": "https://www.kaigokensaku.mhlw.go.jp/40/index.php?action_kouhyou_detail_004_kani=true&JigyosyoCd=4091500423-00&ServiceCd=730&Type=search", "url2": "www.yabutubaki.jp" }, "geometry": { "type": "Point", "coordinates": [ 130.462117499999977, 33.0162388 ] } },
{ "type": "Feature", "properties": { "内容": "小規模多機能ホームゆうもあ【小規模多機能型居宅介護】福岡県大牟田市諏訪町3丁目60番地", "url": "https://www.kaigokensaku.mhlw.go.jp/40/index.php?action_kouhyou_detail_004_kani=true&JigyosyoCd=4091500381-00&ServiceCd=730&Type=search", "url2": "www.asuka-kaigo-service.com" }, "geometry": { "type": "Point", "coordinates": [ 130.432633200000026, 33.0160686 ] } },
{ "type": "Feature", "properties": { "内容": "リビングアエル正山【小規模多機能型居宅介護】福岡県大牟田市正山町１２７－１", "url": "https://www.kaigokensaku.mhlw.go.jp/40/index.php?action_kouhyou_detail_004_kani=true&JigyosyoCd=4091500134-00&ServiceCd=730&Type=search", "url2": "http://yamanamicare.net" }, "geometry": { "type": "Point", "coordinates": [ 130.4384023, 33.0205184 ] } },
{ "type": "Feature", "properties": { "内容": "リビングアエル小浜【小規模多機能型居宅介護】福岡県大牟田市小浜町１－１－８", "url": "https://www.kaigokensaku.mhlw.go.jp/40/index.php?action_kouhyou_detail_004_kani=true&JigyosyoCd=4091500472-00&ServiceCd=730&Type=search", "url2": "http://yamanamicare.net/" }, "geometry": { "type": "Point", "coordinates": [ 130.438615896295261, 33.03157739736632 ] } },
{ "type": "Feature", "properties": { "内容": "小規模多機能ホーム　里桜【小規模多機能型居宅介護】福岡県大牟田市下池町３６番地１", "url": "https://www.kaigokensaku.mhlw.go.jp/40/index.php?action_kouhyou_detail_004_kani=true&JigyosyoCd=4091500332-00&ServiceCd=730&Type=search", "url2": null }, "geometry": { "type": "Point", "coordinates": [ 130.469837973749549, 33.007175491284606 ] } },
{ "type": "Feature", "properties": { "内容": "小規模多機能ホームたかとりの家【小規模多機能型居宅介護】福岡県大牟田市歴木４－１８５", "url": "https://www.kaigokensaku.mhlw.go.jp/40/index.php?action_kouhyou_detail_004_kani=true&JigyosyoCd=4091500613-00&ServiceCd=730&Type=search", "url2": "http://www.o-takatori-h.sakura.ne.jp/" }, "geometry": { "type": "Point", "coordinates": [ 130.4832276, 33.0358436 ] } },
{ "type": "Feature", "properties": { "内容": "小規模多機能施設　わたぜ【小規模多機能型居宅介護】福岡県大牟田市倉永１６５２番地１", "url": "https://www.kaigokensaku.mhlw.go.jp/40/index.php?action_kouhyou_detail_004_kani=true&JigyosyoCd=4091500068-00&ServiceCd=730&Type=search", "url2": "http://www.ginsuikai.co.jp" }, "geometry": { "type": "Point", "coordinates": [ 130.460097899999937, 33.087387 ] } },
{ "type": "Feature", "properties": { "内容": "小規模多機能施設くぶき【小規模多機能型居宅介護】福岡県大牟田市久福木３９８番地", "url": "https://www.kaigokensaku.mhlw.go.jp/40/index.php?action_kouhyou_detail_004_kani=true&JigyosyoCd=4091500274-00&ServiceCd=730&Type=search", "url2": "http://www.ginsuikai.co.jp" }, "geometry": { "type": "Point", "coordinates": [ 130.480393, 33.0571404 ] } },
{ "type": "Feature", "properties": { "内容": "小規模多機能ホーム　ひだまり【小規模多機能型居宅介護】福岡県大牟田市上白川町１丁目２４６番地", "url": "https://www.kaigokensaku.mhlw.go.jp/40/index.php?action_kouhyou_detail_004_kani=true&JigyosyoCd=4091500167-00&ServiceCd=730&Type=search", "url2": "http://www.shirakawa.or.jp" }, "geometry": { "type": "Point", "coordinates": [ 130.4627001, 33.0478356 ] } },
{ "type": "Feature", "properties": { "内容": "ふれあいの園みづま館　小規模多機能型居宅介護事業所【小規模多機能型居宅介護】福岡県久留米市三潴町早津崎３１１８番地１７", "url": "https://www.kaigokensaku.mhlw.go.jp/40/index.php?action_kouhyou_detail_004_kani=true&JigyosyoCd=4091600264-00&ServiceCd=730&Type=search", "url2": "www.fureainosono.com" }, "geometry": { "type": "Point", "coordinates": [ 130.468203, 33.2646156 ] } },
{ "type": "Feature", "properties": { "内容": "小規模多機能型ホーム　つくし【小規模多機能型居宅介護】福岡県久留米市上津町2228番地598", "url": "https://www.kaigokensaku.mhlw.go.jp/40/index.php?action_kouhyou_detail_004_kani=true&JigyosyoCd=4091601056-00&ServiceCd=730&Type=search", "url2": "http://itp.ne.jp/ap/0942512228/" }, "geometry": { "type": "Point", "coordinates": [ 130.532860017413356, 33.2658816754263 ] } },
{ "type": "Feature", "properties": { "内容": "小規模多機能型居宅介護施設　優花【小規模多機能型居宅介護】福岡県久留米市田主丸町志塚島907番地3", "url": "https://www.kaigokensaku.mhlw.go.jp/40/index.php?action_kouhyou_detail_004_kani=true&JigyosyoCd=4091601064-00&ServiceCd=730&Type=search", "url2": null }, "geometry": { "type": "Point", "coordinates": [ 130.666663503041036, 33.342960944232651 ] } },
{ "type": "Feature", "properties": { "内容": "小規模多機能ホームChezMoi久留米中央町【小規模多機能型居宅介護】福岡県久留米市中央町2－25", "url": "https://www.kaigokensaku.mhlw.go.jp/40/index.php?action_kouhyou_detail_004_kani=true&JigyosyoCd=4091600991-00&ServiceCd=730&Type=search", "url2": "http://www.chezmoi.jp/" }, "geometry": { "type": "Point", "coordinates": [ 130.5026408, 33.3194086 ] } },
{ "type": "Feature", "properties": { "内容": "小規模多機能事業所　ひだまり【小規模多機能型居宅介護】福岡県久留米市東町25-30MYM1stSTAGE201", "url": "https://www.kaigokensaku.mhlw.go.jp/40/index.php?action_kouhyou_detail_004_kani=true&JigyosyoCd=4091600066-00&ServiceCd=730&Type=search", "url2": "http://www.kusu.or.jp/" }, "geometry": { "type": "Point", "coordinates": [ 130.517145136812132, 33.313075316680184 ] } },
{ "type": "Feature", "properties": { "内容": "ひまわりの郷田主丸【小規模多機能型居宅介護】福岡県久留米市田主丸町豊城1668-2", "url": "https://www.kaigokensaku.mhlw.go.jp/40/index.php?action_kouhyou_detail_004_kani=true&JigyosyoCd=4091600280-00&ServiceCd=730&Type=search", "url2": "https://seihoukai.or.jp/" }, "geometry": { "type": "Point", "coordinates": [ 130.685833699999989, 33.3422954 ] } },
{ "type": "Feature", "properties": { "内容": "小規模多機能型居宅介護事業所共生の里津福【小規模多機能型居宅介護】福岡県久留米市荒木町白口５５２－３", "url": "https://www.kaigokensaku.mhlw.go.jp/40/index.php?action_kouhyou_detail_004_kani=true&JigyosyoCd=4091600587-00&ServiceCd=730&Type=search", "url2": "http://ks-kyousei.jp/" }, "geometry": { "type": "Point", "coordinates": [ 130.499149100000068, 33.2899834 ] } },
{ "type": "Feature", "properties": { "内容": "アップルハートやわらぎ久留米【小規模多機能型居宅介護】福岡県久留米市国分町824-9", "url": "https://www.kaigokensaku.mhlw.go.jp/40/index.php?action_kouhyou_detail_004_kani=true&JigyosyoCd=4091601288-00&ServiceCd=730&Type=search", "url2": "http://www.aso-kaigo.jp" }, "geometry": { "type": "Point", "coordinates": [ 130.5370127, 33.2909672 ] } },
{ "type": "Feature", "properties": { "内容": "高齢者複合サービス事業所　サン・コスモス【小規模多機能型居宅介護】福岡県久留米市国分町1171番地1", "url": "https://www.kaigokensaku.mhlw.go.jp/40/index.php?action_kouhyou_detail_004_kani=true&JigyosyoCd=4091601213-00&ServiceCd=730&Type=search", "url2": null }, "geometry": { "type": "Point", "coordinates": [ 130.535079579873127, 33.297422168123461 ] } },
{ "type": "Feature", "properties": { "内容": "小規模多機能居宅事業　桜花台園【小規模多機能型居宅介護】福岡県久留米市高良内町字丸深田３９１９番地７", "url": "https://www.kaigokensaku.mhlw.go.jp/40/index.php?action_kouhyou_detail_004_kani=true&JigyosyoCd=4091600140-00&ServiceCd=730&Type=search", "url2": "http://www.keifukukai.jp" }, "geometry": { "type": "Point", "coordinates": [ 130.551831399999969, 33.2875261 ] } },
{ "type": "Feature", "properties": { "内容": "小規模多機能ホーム　くましろ弐番館【小規模多機能型居宅介護】福岡県久留米市北野町石崎162番地1", "url": "https://www.kaigokensaku.mhlw.go.jp/40/index.php?action_kouhyou_detail_004_kani=true&JigyosyoCd=4091600561-00&ServiceCd=730&Type=search", "url2": "http://kumashiro-hospital.or.jp" }, "geometry": { "type": "Point", "coordinates": [ 130.566338099999967, 33.329264100000024 ] } },
{ "type": "Feature", "properties": { "内容": "小規模多機能型居宅介護事業所じゅうれん【小規模多機能型居宅介護】福岡県久留米市三潴町西牟田６５５７－３０", "url": "https://www.kaigokensaku.mhlw.go.jp/40/index.php?action_kouhyou_detail_004_kani=true&JigyosyoCd=4091600595-00&ServiceCd=730&Type=search", "url2": "jyuuren.or.jp" }, "geometry": { "type": "Point", "coordinates": [ 130.487906800000019, 33.2519534 ] } },
{ "type": "Feature", "properties": { "内容": "小規模多機能ハートケア２１【小規模多機能型居宅介護】福岡県久留米市大善寺町宮本１６５番地３", "url": "https://www.kaigokensaku.mhlw.go.jp/40/index.php?action_kouhyou_detail_004_kani=true&JigyosyoCd=4091600884-00&ServiceCd=730&Type=search", "url2": "https://heartcare21.com/" }, "geometry": { "type": "Point", "coordinates": [ 130.488421823942502, 33.276862239946595 ] } },
{ "type": "Feature", "properties": { "内容": "大園つつじ苑【小規模多機能型居宅介護】久留米市野中町７７１－１", "url": "https://www.kaigokensaku.mhlw.go.jp/40/index.php?action_kouhyou_detail_004_kani=true&JigyosyoCd=4091600090-00&ServiceCd=730&Type=search", "url2": "https://www.tutujien.org" }, "geometry": { "type": "Point", "coordinates": [ 130.533121, 33.3081099 ] } },
{ "type": "Feature", "properties": { "内容": "ＪＡくるめドゥ・ファミーユ　とりかい２４【小規模多機能型居宅介護】福岡県久留米市梅満町911-5", "url": "https://www.kaigokensaku.mhlw.go.jp/40/index.php?action_kouhyou_detail_004_kani=true&JigyosyoCd=4091600538-00&ServiceCd=730&Type=search", "url2": "http://www.ja-kurume.or.jp/" }, "geometry": { "type": "Point", "coordinates": [ 130.503012399999989, 33.3079012 ] } },
{ "type": "Feature", "properties": { "内容": "中央町つつじ苑【小規模多機能型居宅介護】福岡県久留米市中央町２７番地４", "url": "https://www.kaigokensaku.mhlw.go.jp/40/index.php?action_kouhyou_detail_004_kani=true&JigyosyoCd=4091600637-00&ServiceCd=730&Type=search", "url2": "https://www.tutujien.org" }, "geometry": { "type": "Point", "coordinates": [ 130.506120900000042, 33.3167089 ] } },
{ "type": "Feature", "properties": { "内容": "北野つつじ苑【小規模多機能型居宅介護】福岡県久留米市北野町八重亀578-1", "url": "https://www.kaigokensaku.mhlw.go.jp/40/index.php?action_kouhyou_detail_004_kani=true&JigyosyoCd=4091601254-00&ServiceCd=730&Type=search", "url2": "https://tutujien.org" }, "geometry": { "type": "Point", "coordinates": [ 130.622469099999989, 33.3543545 ] } },
{ "type": "Feature", "properties": { "内容": "小規模多機能ホーム銀の庵【小規模多機能型居宅介護】福岡県久留米市御井旗崎3-5-5", "url": "https://www.kaigokensaku.mhlw.go.jp/40/index.php?action_kouhyou_detail_004_kani=true&JigyosyoCd=4091601072-00&ServiceCd=730&Type=search", "url2": "https://www.ginnoan-tsubasa.com" }, "geometry": { "type": "Point", "coordinates": [ 130.560966431877205, 33.317004083863083 ] } },
{ "type": "Feature", "properties": { "内容": "小規模多機能サービス　いちょうの杜山川【小規模多機能型居宅介護】福岡県久留米市山川町326番地", "url": "https://www.kaigokensaku.mhlw.go.jp/40/index.php?action_kouhyou_detail_004_kani=true&JigyosyoCd=4091601320-00&ServiceCd=730&Type=search", "url2": "http://www.ichounomori.com" }, "geometry": { "type": "Point", "coordinates": [ 130.565505, 33.3113435 ] } },
{ "type": "Feature", "properties": { "内容": "サポートセンター北野【小規模多機能型居宅介護】福岡県久留米市北野町中字宮ノ後3201番地", "url": "https://www.kaigokensaku.mhlw.go.jp/40/index.php?action_kouhyou_detail_004_kani=true&JigyosyoCd=4091601619-00&ServiceCd=730&Type=search", "url2": "http://wwwhouseien.net" }, "geometry": { "type": "Point", "coordinates": [ 130.586927838814432, 33.343730063836411 ] } },
{ "type": "Feature", "properties": { "内容": "小規模多機能ホーム　くましろ八重亀館【小規模多機能型居宅介護】福岡県久留米市北野町八重亀５６７", "url": "https://www.kaigokensaku.mhlw.go.jp/40/index.php?action_kouhyou_detail_004_kani=true&JigyosyoCd=4091600181-00&ServiceCd=730&Type=search", "url2": "http://kumashiro-hospital.or.jp" }, "geometry": { "type": "Point", "coordinates": [ 130.623027399999955, 33.3552183 ] } },
{ "type": "Feature", "properties": { "内容": "小規模多機能型居宅介護　縁が輪【小規模多機能型居宅介護】福岡県久留米市宮ノ陣６丁目９番３号住宅型有料老人ホーム　縁が輪", "url": "https://www.kaigokensaku.mhlw.go.jp/40/index.php?action_kouhyou_detail_004_kani=true&JigyosyoCd=4091600645-00&ServiceCd=730&Type=search", "url2": "www.engawa3005.co.jp" }, "geometry": { "type": "Point", "coordinates": [ 130.539616028917663, 33.328844181123785 ] } },
{ "type": "Feature", "properties": { "内容": "小規模多機能ケア　悠ホーム【小規模多機能型居宅介護】福岡県久留米市安武町安武本2927－5楓ビル　2Ｆ", "url": "https://www.kaigokensaku.mhlw.go.jp/40/index.php?action_kouhyou_detail_004_kani=true&JigyosyoCd=4091600272-00&ServiceCd=730&Type=search", "url2": "http://kaede01.com/" }, "geometry": { "type": "Point", "coordinates": [ 130.494710299999952, 33.2990769 ] } },
{ "type": "Feature", "properties": { "内容": "小規模多機能ホーム　くましろ【小規模多機能型居宅介護】福岡県久留米市北野町八重亀４１２くましろ館内", "url": "https://www.kaigokensaku.mhlw.go.jp/40/index.php?action_kouhyou_detail_004_kani=true&JigyosyoCd=4091600520-00&ServiceCd=730&Type=search", "url2": "http://kumashiro-hospital.or.jp" }, "geometry": { "type": "Point", "coordinates": [ 130.624774500000058, 33.3553489 ] } },
{ "type": "Feature", "properties": { "内容": "なごみ庵あいの里【小規模多機能型居宅介護】山川安居野１丁目７番１９号", "url": "https://www.kaigokensaku.mhlw.go.jp/40/index.php?action_kouhyou_detail_004_kani=true&JigyosyoCd=4091600942-00&ServiceCd=730&Type=search", "url2": "http://www.houseien.net/" }, "geometry": { "type": "Point", "coordinates": [ 130.567902, 33.3175902 ] } },
{ "type": "Feature", "properties": { "内容": "むつみ小規模多機能型居宅介護施設【小規模多機能型居宅介護】福岡県久留米市山本町豊田1696-1", "url": "https://www.kaigokensaku.mhlw.go.jp/40/index.php?action_kouhyou_detail_004_kani=true&JigyosyoCd=4091600413-00&ServiceCd=730&Type=search", "url2": "https://kabutoyamams-mutsumi.jp/" }, "geometry": { "type": "Point", "coordinates": [ 130.59041179999997, 33.3071745 ] } },
{ "type": "Feature", "properties": { "内容": "つぼみ【小規模多機能型居宅介護】福岡県久留米市津福本町２０１０－１", "url": "https://www.kaigokensaku.mhlw.go.jp/40/index.php?action_kouhyou_detail_004_kani=true&JigyosyoCd=4091601114-00&ServiceCd=730&Type=search", "url2": "https://viola-societa.com/" }, "geometry": { "type": "Point", "coordinates": [ 130.497778452114829, 33.30085238955462 ] } },
{ "type": "Feature", "properties": { "内容": "小規模多機能型ホーム　つくし2番館【小規模多機能型居宅介護】福岡県久留米市上津町２２２８番地５８９", "url": "https://www.kaigokensaku.mhlw.go.jp/40/index.php?action_kouhyou_detail_004_kani=true&JigyosyoCd=4091601775-00&ServiceCd=730&Type=search", "url2": "http://itp.ne.jp/ap/0942512228/" }, "geometry": { "type": "Point", "coordinates": [ 130.5386919, 33.2670991 ] } },
{ "type": "Feature", "properties": { "内容": "小規模多機能ホーム銀の庵kirari【小規模多機能型居宅介護】福岡県久留米市北野町十郎丸1529-1", "url": "https://www.kaigokensaku.mhlw.go.jp/40/index.php?action_kouhyou_detail_004_kani=true&JigyosyoCd=4091600017-00&ServiceCd=730&Type=search", "url2": "https://www.ginnoan-tsubasa.com" }, "geometry": { "type": "Point", "coordinates": [ 130.573664651740444, 33.343721641556115 ] } },
{ "type": "Feature", "properties": { "内容": "あったかHOME－にしかいー【小規模多機能型居宅介護】福岡県久留米市西町７０９番地１", "url": "https://www.kaigokensaku.mhlw.go.jp/40/index.php?action_kouhyou_detail_004_kani=true&JigyosyoCd=4091600983-00&ServiceCd=730&Type=search", "url2": null }, "geometry": { "type": "Point", "coordinates": [ 130.522218899999984, 33.301099 ] } },
{ "type": "Feature", "properties": { "内容": "小規模多機能型居宅介護　こころ弐番館【小規模多機能型居宅介護】福岡県久留米市城島町下青木1257－1", "url": "https://www.kaigokensaku.mhlw.go.jp/40/index.php?action_kouhyou_detail_004_kani=true&JigyosyoCd=4091600470-00&ServiceCd=730&Type=search", "url2": "http://care-net.biz/40/cocoro/" }, "geometry": { "type": "Point", "coordinates": [ 130.401144299999942, 33.238103 ] } },
{ "type": "Feature", "properties": { "内容": "百の樹【小規模多機能型居宅介護】福岡県久留米市草野町草野315番地", "url": "https://www.kaigokensaku.mhlw.go.jp/40/index.php?action_kouhyou_detail_004_kani=true&JigyosyoCd=4091601403-00&ServiceCd=730&Type=search", "url2": "https://momonoki100.wordpress.com/" }, "geometry": { "type": "Point", "coordinates": [ 130.636373887645789, 33.319628667790703 ] } },
{ "type": "Feature", "properties": { "内容": "ふくし生協　小規模多機能　こくぶの杜【小規模多機能型居宅介護】国分町1029-2-5", "url": "https://www.kaigokensaku.mhlw.go.jp/40/index.php?action_kouhyou_detail_004_kani=true&JigyosyoCd=4091601015-00&ServiceCd=730&Type=search", "url2": "http://www.fukushiseikyou.jp/office/kurume/" }, "geometry": { "type": "Point", "coordinates": [ 130.536284900000055, 33.2951167 ] } },
{ "type": "Feature", "properties": { "内容": "有限会社森の母屋小規模多機能の家【小規模多機能型居宅介護】福岡県直方市上境2631－1", "url": "https://www.kaigokensaku.mhlw.go.jp/40/index.php?action_kouhyou_detail_004_kani=true&JigyosyoCd=4091700023-00&ServiceCd=730&Type=search", "url2": null }, "geometry": { "type": "Point", "coordinates": [ 130.7563252, 33.7318409 ] } },
{ "type": "Feature", "properties": { "内容": "小規模多機能ホーム彩【小規模多機能型居宅介護】福岡県直方市新町1丁目3-28", "url": "https://www.kaigokensaku.mhlw.go.jp/40/index.php?action_kouhyou_detail_004_kani=true&JigyosyoCd=4091700130-00&ServiceCd=730&Type=search", "url2": null }, "geometry": { "type": "Point", "coordinates": [ 130.727412711639403, 33.742210164538591 ] } },
{ "type": "Feature", "properties": { "内容": "小規模多機能ホームクレヨンサテライト【小規模多機能型居宅介護】相田615番地1", "url": "https://www.kaigokensaku.mhlw.go.jp/40/index.php?action_kouhyou_detail_004_kani=true&JigyosyoCd=4091800260-00&ServiceCd=730&Type=search", "url2": "https://crayon-group.com/crayon/" }, "geometry": { "type": "Point", "coordinates": [ 130.6562, 33.663931 ] } },
{ "type": "Feature", "properties": { "内容": "麻生介護サービス株式会社　アップルハートやわらぎ飯塚【小規模多機能型居宅介護】福岡県飯塚市菰田70-1", "url": "https://www.kaigokensaku.mhlw.go.jp/40/index.php?action_kouhyou_detail_004_kani=true&JigyosyoCd=4091800120-00&ServiceCd=730&Type=search", "url2": "http://www.aso-kaigo.jp" }, "geometry": { "type": "Point", "coordinates": [ 130.693292700000029, 33.6220544 ] } },
{ "type": "Feature", "properties": { "内容": "小規模多機能施設　「ひより」【小規模多機能型居宅介護】福岡県飯塚市上三緒１番地１１", "url": "https://www.kaigokensaku.mhlw.go.jp/40/index.php?action_kouhyou_detail_004_kani=true&JigyosyoCd=4091800112-00&ServiceCd=730&Type=search", "url2": null }, "geometry": { "type": "Point", "coordinates": [ 130.718465599999945, 33.6198963 ] } },
{ "type": "Feature", "properties": { "内容": "小規模多機能ホーム　クレヨン【小規模多機能型居宅介護】福岡県飯塚市相田613番地１", "url": "https://www.kaigokensaku.mhlw.go.jp/40/index.php?action_kouhyou_detail_004_kani=true&JigyosyoCd=4091800153-00&ServiceCd=730&Type=search", "url2": "www.crayon-group.com" }, "geometry": { "type": "Point", "coordinates": [ 130.655886099999947, 33.6635766 ] } },
{ "type": "Feature", "properties": { "内容": "トータルサービスステーション　あんしん【小規模多機能型居宅介護】福岡県田川市大字伊田425-2", "url": "https://www.kaigokensaku.mhlw.go.jp/40/index.php?action_kouhyou_detail_004_kani=true&JigyosyoCd=4091900029-00&ServiceCd=730&Type=search", "url2": null }, "geometry": { "type": "Point", "coordinates": [ 130.837956100000042, 33.6415939 ] } },
{ "type": "Feature", "properties": { "内容": "サテライトあんしん【小規模多機能型居宅介護】福岡県田川市大字伊加利1959-10", "url": "https://www.kaigokensaku.mhlw.go.jp/40/index.php?action_kouhyou_detail_004_kani=true&JigyosyoCd=4091900086-00&ServiceCd=730&Type=search", "url2": null }, "geometry": { "type": "Point", "coordinates": [ 130.825101600000039, 33.6320252 ] } },
{ "type": "Feature", "properties": { "内容": "小規模多機能ホーム第2宅老所まごころ【小規模多機能型居宅介護】福岡県田川市大字伊田4849番１", "url": "https://www.kaigokensaku.mhlw.go.jp/40/index.php?action_kouhyou_detail_004_kani=true&JigyosyoCd=4091900102-00&ServiceCd=730&Type=search", "url2": "www6.ocn.ne.jo/^magokoro/" }, "geometry": { "type": "Point", "coordinates": [ 130.814466, 33.6433849 ] } },
{ "type": "Feature", "properties": { "内容": "小規模多機能ホーム宅老所まごころ【小規模多機能型居宅介護】福岡県田川市伊田4862番7", "url": "https://www.kaigokensaku.mhlw.go.jp/40/index.php?action_kouhyou_detail_004_kani=true&JigyosyoCd=4091900110-00&ServiceCd=730&Type=search", "url2": "www6.ocn.ne.jp/^magokoro/" }, "geometry": { "type": "Point", "coordinates": [ 130.802163899999982, 33.6509507 ] } },
{ "type": "Feature", "properties": { "内容": "小規模多機能型居宅介護　うらら【小規模多機能型居宅介護】福岡県柳川市大和町皿垣開４６４番地１", "url": "https://www.kaigokensaku.mhlw.go.jp/40/index.php?action_kouhyou_detail_004_kani=true&JigyosyoCd=4092000050-00&ServiceCd=730&Type=search", "url2": null }, "geometry": { "type": "Point", "coordinates": [ 130.421816600000056, 33.1166638 ] } },
{ "type": "Feature", "properties": { "内容": "小規模多機能型居宅介護　貴人【小規模多機能型居宅介護】福岡県柳川市大和町豊原424-1", "url": "https://www.kaigokensaku.mhlw.go.jp/40/index.php?action_kouhyou_detail_004_kani=true&JigyosyoCd=4092000142-00&ServiceCd=730&Type=search", "url2": null }, "geometry": { "type": "Point", "coordinates": [ 130.415225864834042, 33.147968339876954 ] } },
{ "type": "Feature", "properties": { "内容": "小規模多機能型居宅介護事業所　おひさま【小規模多機能型居宅介護】福岡県柳川市三橋町柳河１０４２番地４", "url": "https://www.kaigokensaku.mhlw.go.jp/40/index.php?action_kouhyou_detail_004_kani=true&JigyosyoCd=4092000092-00&ServiceCd=730&Type=search", "url2": null }, "geometry": { "type": "Point", "coordinates": [ 130.408756447885139, 33.17471623382292 ] } },
{ "type": "Feature", "properties": { "内容": "こぽらっと【小規模多機能型居宅介護】福岡県柳川市矢留本町216-1", "url": "https://www.kaigokensaku.mhlw.go.jp/40/index.php?action_kouhyou_detail_004_kani=true&JigyosyoCd=4092000035-00&ServiceCd=730&Type=search", "url2": "http://www.ikushima.or.jp" }, "geometry": { "type": "Point", "coordinates": [ 130.390863200000013, 33.155531 ] } },
{ "type": "Feature", "properties": { "内容": "小規模多機能型居宅介護事業所　生き活き壱番館【小規模多機能型居宅介護】福岡県柳川市三橋町百町１７５０－１", "url": "https://www.kaigokensaku.mhlw.go.jp/40/index.php?action_kouhyou_detail_004_kani=true&JigyosyoCd=4092000043-00&ServiceCd=730&Type=search", "url2": null }, "geometry": { "type": "Point", "coordinates": [ 130.438875, 33.1716611 ] } },
{ "type": "Feature", "properties": { "内容": "小規模多機能型施設　ヂンナー甘露郷【小規模多機能型居宅介護】福岡県柳川市西蒲池234-4", "url": "https://www.kaigokensaku.mhlw.go.jp/40/index.php?action_kouhyou_detail_004_kani=true&JigyosyoCd=4092000134-00&ServiceCd=730&Type=search", "url2": "http:/gakuseikai.or.jp/kanro" }, "geometry": { "type": "Point", "coordinates": [ 130.394679099999962, 33.1802865 ] } },
{ "type": "Feature", "properties": { "内容": "小規模多機能ホーム　chezmoi　龍ケ原【小規模多機能型居宅介護】福岡県八女市龍ケ原７６番地１", "url": "https://www.kaigokensaku.mhlw.go.jp/40/index.php?action_kouhyou_detail_004_kani=true&JigyosyoCd=4092300013-00&ServiceCd=730&Type=search", "url2": "http://www.chezmoi.jp" }, "geometry": { "type": "Point", "coordinates": [ 130.532051200000069, 33.2227465 ] } },
{ "type": "Feature", "properties": { "内容": "小規模多機能型居宅介護　陽だまり倶楽部【小規模多機能型居宅介護】福岡県八女市高塚212番地", "url": "https://www.kaigokensaku.mhlw.go.jp/40/index.php?action_kouhyou_detail_004_kani=true&JigyosyoCd=4092300229-00&ServiceCd=730&Type=search", "url2": null }, "geometry": { "type": "Point", "coordinates": [ 130.555028, 33.2039589 ] } },
{ "type": "Feature", "properties": { "内容": "小規模多機能ホーム　しみず【小規模多機能型居宅介護】福岡県八女市本村407-1", "url": "https://www.kaigokensaku.mhlw.go.jp/40/index.php?action_kouhyou_detail_004_kani=true&JigyosyoCd=4092300070-00&ServiceCd=730&Type=search", "url2": "http://z-shimiziu.xsrv.jp" }, "geometry": { "type": "Point", "coordinates": [ 130.559487644566417, 33.214147323621674 ] } },
{ "type": "Feature", "properties": { "内容": "小規模多機能ホームせせらぎ【小規模多機能型居宅介護】福岡県八女市黒木町大淵4039番地", "url": "https://www.kaigokensaku.mhlw.go.jp/40/index.php?action_kouhyou_detail_004_kani=true&JigyosyoCd=4092300211-00&ServiceCd=730&Type=search", "url2": null }, "geometry": { "type": "Point", "coordinates": [ 130.7190191, 33.1813688 ] } },
{ "type": "Feature", "properties": { "内容": "小規模多機能ホーム森の里【小規模多機能型居宅介護】福岡県八女市立花町白木608-1", "url": "https://www.kaigokensaku.mhlw.go.jp/40/index.php?action_kouhyou_detail_004_kani=true&JigyosyoCd=4092300096-00&ServiceCd=730&Type=search", "url2": "http://www.morinosato.org" }, "geometry": { "type": "Point", "coordinates": [ 130.563095500000031, 33.1581315 ] } },
{ "type": "Feature", "properties": { "内容": "小規模多機能ホーム　こよみ【小規模多機能型居宅介護】福岡県八女市黒木町本分１４１４－１", "url": "https://www.kaigokensaku.mhlw.go.jp/40/index.php?action_kouhyou_detail_004_kani=true&JigyosyoCd=4098100029-00&ServiceCd=730&Type=search", "url2": "group@koyomi-kurogi.com" }, "geometry": { "type": "Point", "coordinates": [ 130.6552921, 33.2141688 ] } },
{ "type": "Feature", "properties": { "内容": "多機能ホーム　菜の花の丘【小規模多機能型居宅介護】福岡県八女市立花町下辺春1312-1", "url": "https://www.kaigokensaku.mhlw.go.jp/40/index.php?action_kouhyou_detail_004_kani=true&JigyosyoCd=4092300062-00&ServiceCd=730&Type=search", "url2": null }, "geometry": { "type": "Point", "coordinates": [ 130.61149690000002, 33.1724114 ] } },
{ "type": "Feature", "properties": { "内容": "小規模多機能ホームよかよか【小規模多機能型居宅介護】福岡県八女市黒木町笠原4341番地2", "url": "https://www.kaigokensaku.mhlw.go.jp/40/index.php?action_kouhyou_detail_004_kani=true&JigyosyoCd=4092300146-00&ServiceCd=730&Type=search", "url2": "hp/www.takamine.site" }, "geometry": { "type": "Point", "coordinates": [ 130.70420450000006, 33.2231551 ] } },
{ "type": "Feature", "properties": { "内容": "ポジティブリーケア立花【小規模多機能型居宅介護】八女市立花町白木608-1", "url": "https://www.kaigokensaku.mhlw.go.jp/40/index.php?action_kouhyou_detail_004_kani=true&JigyosyoCd=4092300286-00&ServiceCd=730&Type=search", "url2": "rehealthia-corp.com" }, "geometry": { "type": "Point", "coordinates": [ 130.5635665, 33.1483985 ] } },
{ "type": "Feature", "properties": { "内容": "みんなの家ささえあい木むろ【小規模多機能型居宅介護】福岡県大川市大橋618-1", "url": "https://www.kaigokensaku.mhlw.go.jp/40/index.php?action_kouhyou_detail_004_kani=true&JigyosyoCd=4092500117-00&ServiceCd=730&Type=search", "url2": "http://www.c-pro.jp/" }, "geometry": { "type": "Point", "coordinates": [ 130.404380299999957, 33.211828 ] } },
{ "type": "Feature", "properties": { "内容": "みんなの家ささえあい川ぐち【小規模多機能型居宅介護】福岡県大川市新田185-1", "url": "https://www.kaigokensaku.mhlw.go.jp/40/index.php?action_kouhyou_detail_004_kani=true&JigyosyoCd=4092500125-00&ServiceCd=730&Type=search", "url2": "https://www.c-pro.jp/" }, "geometry": { "type": "Point", "coordinates": [ 130.36523550000004, 33.185427 ] } },
{ "type": "Feature", "properties": { "内容": "小規模多機能型居宅介護サービス　ケアホームみつまた【小規模多機能型居宅介護】福岡県大川市大字鐘ヶ江246-1ケアホーム　みつまた", "url": "https://www.kaigokensaku.mhlw.go.jp/40/index.php?action_kouhyou_detail_004_kani=true&JigyosyoCd=4092500109-00&ServiceCd=730&Type=search", "url2": null }, "geometry": { "type": "Point", "coordinates": [ 130.38081, 33.204784 ] } },
{ "type": "Feature", "properties": { "内容": "小規模多機能型居宅介護あおぎり荘【小規模多機能型居宅介護】福岡県大川市大字北古賀５５９－３", "url": "https://www.kaigokensaku.mhlw.go.jp/40/index.php?action_kouhyou_detail_004_kani=true&JigyosyoCd=4092500034-00&ServiceCd=730&Type=search", "url2": "http://okawa-ijinkai.or.jp/" }, "geometry": { "type": "Point", "coordinates": [ 130.390790199999969, 33.1967844 ] } },
{ "type": "Feature", "properties": { "内容": "小規模多機能ホームほのぼの【小規模多機能型居宅介護】福岡県行橋市南泉1丁目35-4", "url": "https://www.kaigokensaku.mhlw.go.jp/40/index.php?action_kouhyou_detail_004_kani=true&JigyosyoCd=4092600156-00&ServiceCd=730&Type=search", "url2": "https://www.fukushiseikyou.jp/" }, "geometry": { "type": "Point", "coordinates": [ 130.970213400000034, 33.70274460000001 ] } },
{ "type": "Feature", "properties": { "内容": "小規模多機能ホームコスモス今元【小規模多機能型居宅介護】今井３１３８－１", "url": "https://www.kaigokensaku.mhlw.go.jp/40/index.php?action_kouhyou_detail_004_kani=true&JigyosyoCd=4092600073-00&ServiceCd=730&Type=search", "url2": "cosmos-imamot@giobe.ocn.ne.jp" }, "geometry": { "type": "Point", "coordinates": [ 131.003148399999986, 33.7337204 ] } },
{ "type": "Feature", "properties": { "内容": "ケアホーム来夢【小規模多機能型居宅介護】福岡県行橋市大字道場寺1250番地", "url": "https://www.kaigokensaku.mhlw.go.jp/40/index.php?action_kouhyou_detail_004_kani=true&JigyosyoCd=4092600065-00&ServiceCd=730&Type=search", "url2": null }, "geometry": { "type": "Point", "coordinates": [ 131.014574847221411, 33.6904093910588 ] } },
{ "type": "Feature", "properties": { "内容": "生活リハビリホーム　井戸端わいわい【小規模多機能型居宅介護】行橋市流末１２７７－１", "url": "https://www.kaigokensaku.mhlw.go.jp/40/index.php?action_kouhyou_detail_004_kani=true&JigyosyoCd=4092600099-00&ServiceCd=730&Type=search", "url2": "www.seiunkai.org" }, "geometry": { "type": "Point", "coordinates": [ 130.964039, 33.7016225 ] } },
{ "type": "Feature", "properties": { "内容": "小規模多機能型ホーム　おおはし苑【小規模多機能型居宅介護】福岡県行橋市東大橋4丁目2-5", "url": "https://www.kaigokensaku.mhlw.go.jp/40/index.php?action_kouhyou_detail_004_kani=true&JigyosyoCd=4092600123-00&ServiceCd=730&Type=search", "url2": "http://www.kouwaen.or.jp" }, "geometry": { "type": "Point", "coordinates": [ 130.990791599999966, 33.738857400000015 ] } },
{ "type": "Feature", "properties": { "内容": "なごみ園小規模多機能ケア【小規模多機能型居宅介護】福岡県豊前市大字三毛門914番地1", "url": "https://www.kaigokensaku.mhlw.go.jp/40/index.php?action_kouhyou_detail_004_kani=true&JigyosyoCd=4092700071-00&ServiceCd=730&Type=search", "url2": "care-net.biz/40/nagomien/index.php" }, "geometry": { "type": "Point", "coordinates": [ 131.153371734393318, 33.610763672705872 ] } },
{ "type": "Feature", "properties": { "内容": "小規模多機能型居宅介護事業所りくぜん【小規模多機能型居宅介護】福岡県豊前市青豊18番地3", "url": "https://www.kaigokensaku.mhlw.go.jp/40/index.php?action_kouhyou_detail_004_kani=true&JigyosyoCd=4092700030-00&ServiceCd=730&Type=search", "url2": null }, "geometry": { "type": "Point", "coordinates": [ 131.1333535, 33.6132941 ] } },
{ "type": "Feature", "properties": { "内容": "小規模多機能ホ－ムほのぼの【小規模多機能型居宅介護】福岡県中間市大字垣生128番地1", "url": "https://www.kaigokensaku.mhlw.go.jp/40/index.php?action_kouhyou_detail_004_kani=true&JigyosyoCd=4092800079-00&ServiceCd=730&Type=search", "url2": null }, "geometry": { "type": "Point", "coordinates": [ 130.703866299999959, 33.8170412 ] } },
{ "type": "Feature", "properties": { "内容": "ひまわりの郷　小郡【小規模多機能型居宅介護】小郡市横隈367-2", "url": "https://www.kaigokensaku.mhlw.go.jp/40/index.php?action_kouhyou_detail_004_kani=true&JigyosyoCd=4092900044-00&ServiceCd=730&Type=search", "url2": null }, "geometry": { "type": "Point", "coordinates": [ 130.56778, 33.4318206 ] } },
{ "type": "Feature", "properties": { "内容": "集いの家さなぼり【小規模多機能型居宅介護】福岡県小郡市井上５１６－１", "url": "https://www.kaigokensaku.mhlw.go.jp/40/index.php?action_kouhyou_detail_004_kani=true&JigyosyoCd=4092900036-00&ServiceCd=730&Type=search", "url2": "http://www.kaigonet.net/seijuen/" }, "geometry": { "type": "Point", "coordinates": [ 130.577365219049028, 33.405908476107903 ] } },
{ "type": "Feature", "properties": { "内容": "ふれあいの家あずま野【小規模多機能型居宅介護】福岡県小郡市小郡2486", "url": "https://www.kaigokensaku.mhlw.go.jp/40/index.php?action_kouhyou_detail_004_kani=true&JigyosyoCd=4092900028-00&ServiceCd=730&Type=search", "url2": "http://www.chouseikai.jp" }, "geometry": { "type": "Point", "coordinates": [ 130.552071500000011, 33.4074543 ] } },
{ "type": "Feature", "properties": { "内容": "小規模多機能ホーム　宝満ラポール原田【小規模多機能型居宅介護】筑紫野市原田７丁目７－６", "url": "https://www.kaigokensaku.mhlw.go.jp/40/index.php?action_kouhyou_detail_004_kani=true&JigyosyoCd=4093000109-00&ServiceCd=730&Type=search", "url2": "http://homan.oｒ.ｊｐ/" }, "geometry": { "type": "Point", "coordinates": [ 130.541009600000052, 33.4524131 ] } },
{ "type": "Feature", "properties": { "内容": "さわやか憩いの家二日市【小規模多機能型居宅介護】福岡県筑紫野市俗明院1丁目13番5号", "url": "https://www.kaigokensaku.mhlw.go.jp/40/index.php?action_kouhyou_detail_004_kani=true&JigyosyoCd=4093000083-00&ServiceCd=730&Type=search", "url2": "http://care-net.biz/40/welfare-sawayaka/" }, "geometry": { "type": "Point", "coordinates": [ 130.526579, 33.483285299999984 ] } },
{ "type": "Feature", "properties": { "内容": "アップルハートやわらぎ春日【小規模多機能型居宅介護】春日市小倉３丁目７１－５", "url": "https://www.kaigokensaku.mhlw.go.jp/40/index.php?action_kouhyou_detail_004_kani=true&JigyosyoCd=4093100057-00&ServiceCd=730&Type=search", "url2": "yawaragi-kasuga@aso-group.co.jp" }, "geometry": { "type": "Point", "coordinates": [ 130.4500213, 33.5307483 ] } },
{ "type": "Feature", "properties": { "内容": "エフコープかがやき春日【小規模多機能型居宅介護】福岡県春日市光町2丁目91番りんご庵　3F", "url": "https://www.kaigokensaku.mhlw.go.jp/40/index.php?action_kouhyou_detail_004_kani=true&JigyosyoCd=4093100115-00&ServiceCd=730&Type=search", "url2": "http://www.fcoop.or.jp/" }, "geometry": { "type": "Point", "coordinates": [ 130.463964900000065, 33.5327394 ] } },
{ "type": "Feature", "properties": { "内容": "小規模多機能型居宅介護クローバー【小規模多機能型居宅介護】福岡県春日市大谷３丁目１００番地", "url": "https://www.kaigokensaku.mhlw.go.jp/40/index.php?action_kouhyou_detail_004_kani=true&JigyosyoCd=4093100065-00&ServiceCd=730&Type=search", "url2": "http://www.otogane.or.jp" }, "geometry": { "type": "Point", "coordinates": [ 130.450329600000032, 33.5277847 ] } },
{ "type": "Feature", "properties": { "内容": "小規模多機能　さかいの樹　春日南【小規模多機能型居宅介護】福岡県春日市春日10丁目51-1", "url": "https://www.kaigokensaku.mhlw.go.jp/40/index.php?action_kouhyou_detail_004_kani=true&JigyosyoCd=4093100164-00&ServiceCd=730&Type=search", "url2": "http://www.med-sakai.jp/sakainoki/" }, "geometry": { "type": "Point", "coordinates": [ 130.463293, 33.5140184 ] } },
{ "type": "Feature", "properties": { "内容": "小規模多機能型居宅施設さわやか憩いの家【小規模多機能型居宅介護】福岡県春日市須玖南１丁目９１番地", "url": "https://www.kaigokensaku.mhlw.go.jp/40/index.php?action_kouhyou_detail_004_kani=true&JigyosyoCd=4093100016-00&ServiceCd=730&Type=search", "url2": "http://care-net.biz/40/welfare-sawayaka/" }, "geometry": { "type": "Point", "coordinates": [ 130.446352199999978, 33.5395279 ] } },
{ "type": "Feature", "properties": { "内容": "エフコープ　かがやき大野城【小規模多機能型居宅介護】大野城市下大利1丁目４番32号", "url": "https://www.kaigokensaku.mhlw.go.jp/40/index.php?action_kouhyou_detail_004_kani=true&JigyosyoCd=4093200279-00&ServiceCd=730&Type=search", "url2": "https://www.fcoop.or.jp/shopping/service/care/" }, "geometry": { "type": "Point", "coordinates": [ 130.485746322090108, 33.521571394626001 ] } },
{ "type": "Feature", "properties": { "内容": "小規模多機能ホーム　宝満ラポール　大野城【小規模多機能型居宅介護】福岡県大野城市仲畑4丁目19-10", "url": "https://www.kaigokensaku.mhlw.go.jp/40/index.php?action_kouhyou_detail_004_kani=true&JigyosyoCd=4093200154-00&ServiceCd=730&Type=search", "url2": "http://www.homan.or.jp" }, "geometry": { "type": "Point", "coordinates": [ 130.4714444, 33.5500885 ] } },
{ "type": "Feature", "properties": { "内容": "のいえ大野城南【小規模多機能型居宅介護】福岡県大野城市牛頸4丁目5-3", "url": "https://www.kaigokensaku.mhlw.go.jp/40/index.php?action_kouhyou_detail_004_kani=true&JigyosyoCd=4093200014-00&ServiceCd=730&Type=search", "url2": null }, "geometry": { "type": "Point", "coordinates": [ 130.470588899999939, 33.5039736 ] } },
{ "type": "Feature", "properties": { "内容": "さわやか憩いの家大野城中央【小規模多機能型居宅介護】福岡県大野城市中央2丁目5番19号", "url": "https://www.kaigokensaku.mhlw.go.jp/40/index.php?action_kouhyou_detail_004_kani=true&JigyosyoCd=4093200170-00&ServiceCd=730&Type=search", "url2": "http://care-net.biz/40/welfare-sawayaka/" }, "geometry": { "type": "Point", "coordinates": [ 130.484082100000023, 33.5228723 ] } },
{ "type": "Feature", "properties": { "内容": "ヒューマンライフケア　大野城の宿【小規模多機能型居宅介護】福岡県大野城市中3丁目1番37号", "url": "https://www.kaigokensaku.mhlw.go.jp/40/index.php?action_kouhyou_detail_004_kani=true&JigyosyoCd=4093200139-00&ServiceCd=730&Type=search", "url2": "http://hlc.athuman.com/" }, "geometry": { "type": "Point", "coordinates": [ 130.4886262, 33.5510278 ] } },
{ "type": "Feature", "properties": { "内容": "医療法人豊資会　小規模多機能型居宅介護杏【小規模多機能型居宅介護】福岡県宗像市田野1370番地2", "url": "https://www.kaigokensaku.mhlw.go.jp/40/index.php?action_kouhyou_detail_004_kani=true&JigyosyoCd=4093300111-00&ServiceCd=730&Type=search", "url2": "http://www.houshikai.or.jp" }, "geometry": { "type": "Point", "coordinates": [ 130.525879, 33.8635304 ] } },
{ "type": "Feature", "properties": { "内容": "小規模多機能型居宅介護　さわやかむなかたのもり【小規模多機能型居宅介護】宗像市自由ヶ丘２丁目１７－１さわやかむなかたのもり", "url": "https://www.kaigokensaku.mhlw.go.jp/40/index.php?action_kouhyou_detail_004_kani=true&JigyosyoCd=4093300152-00&ServiceCd=730&Type=search", "url2": "http://munakatanomori.sawayakaclub.jp/" }, "geometry": { "type": "Point", "coordinates": [ 130.5775906, 33.7980105 ] } },
{ "type": "Feature", "properties": { "内容": "まりしの郷里あやとり【小規模多機能型居宅介護】福岡県宗像市東郷６丁目２番１９号", "url": "https://www.kaigokensaku.mhlw.go.jp/40/index.php?action_kouhyou_detail_004_kani=true&JigyosyoCd=4093300053-00&ServiceCd=730&Type=search", "url2": "http://www.marishi.or.jp/" }, "geometry": { "type": "Point", "coordinates": [ 130.539129499999945, 33.8019512 ] } },
{ "type": "Feature", "properties": { "内容": "城山庵【小規模多機能型居宅介護】福岡県宗像市石丸1丁目3番27号", "url": "https://www.kaigokensaku.mhlw.go.jp/40/index.php?action_kouhyou_detail_004_kani=true&JigyosyoCd=4093300038-00&ServiceCd=730&Type=search", "url2": "http://www.akama-hp.or.jp" }, "geometry": { "type": "Point", "coordinates": [ 130.593633899999986, 33.8044488 ] } },
{ "type": "Feature", "properties": { "内容": "ニチイケアセンター日の里【小規模多機能型居宅介護】福岡県宗像市日の里７丁目２５－２", "url": "https://www.kaigokensaku.mhlw.go.jp/40/index.php?action_kouhyou_detail_004_kani=true&JigyosyoCd=4093300178-00&ServiceCd=730&Type=search", "url2": "http://www.nichii-kaigo.jp/base/base-result/05P94/" }, "geometry": { "type": "Point", "coordinates": [ 130.530886399999986, 33.7849473 ] } },
{ "type": "Feature", "properties": { "内容": "小規模多機能型居宅介護　五条【小規模多機能型居宅介護】福岡県太宰府市五条2丁目16-8", "url": "https://www.kaigokensaku.mhlw.go.jp/40/index.php?action_kouhyou_detail_004_kani=true&JigyosyoCd=4093400028-00&ServiceCd=730&Type=search", "url2": "https://magokoro-home.website" }, "geometry": { "type": "Point", "coordinates": [ 130.522467600000027, 33.5112187 ] } },
{ "type": "Feature", "properties": { "内容": "そよかぜ　国分の里【小規模多機能型居宅介護】福岡県太宰府市国分5-6-14", "url": "https://www.kaigokensaku.mhlw.go.jp/40/index.php?action_kouhyou_detail_004_kani=true&JigyosyoCd=4093400036-00&ServiceCd=730&Type=search", "url2": "http://soyokaze.com" }, "geometry": { "type": "Point", "coordinates": [ 130.507132800000022, 33.5224616 ] } },
{ "type": "Feature", "properties": { "内容": "ふれあいサポートゆうしん【小規模多機能型居宅介護】福岡県太宰府市吉松１丁目18-6", "url": "https://www.kaigokensaku.mhlw.go.jp/40/index.php?action_kouhyou_detail_004_kani=true&JigyosyoCd=4093400010-00&ServiceCd=730&Type=search", "url2": null }, "geometry": { "type": "Point", "coordinates": [ 130.4940507, 33.516437 ] } },
{ "type": "Feature", "properties": { "内容": "小規模多機能ホームたんぽぽ【小規模多機能型居宅介護】福岡県古賀市千鳥1丁目3番5号秋桜の郷", "url": "https://www.kaigokensaku.mhlw.go.jp/40/index.php?action_kouhyou_detail_004_kani=true&JigyosyoCd=4093600064-00&ServiceCd=730&Type=search", "url2": "https://sites.google.com/view/seizankai/%E3%83%9B%E3%83%BC%E3%83%A0" }, "geometry": { "type": "Point", "coordinates": [ 130.472078600000032, 33.7400687 ] } },
{ "type": "Feature", "properties": { "内容": "小規模多機能型居宅介護　余香庵【小規模多機能型居宅介護】福岡県古賀駅東2丁目11-14ハイマート桑の実1階", "url": "https://www.kaigokensaku.mhlw.go.jp/40/index.php?action_kouhyou_detail_004_kani=true&JigyosyoCd=4093600023-00&ServiceCd=730&Type=search", "url2": "http://www.houshikai.or.jp/" }, "geometry": { "type": "Point", "coordinates": [ 130.46950919996948, 33.730556122790425 ] } },
{ "type": "Feature", "properties": { "内容": "小規模多機能施設あかり【小規模多機能型居宅介護】福岡県福津市津屋崎２丁目７－１", "url": "https://www.kaigokensaku.mhlw.go.jp/40/index.php?action_kouhyou_detail_004_kani=true&JigyosyoCd=4094500024-00&ServiceCd=730&Type=search", "url2": "akari@kitatikuzen.net" }, "geometry": { "type": "Point", "coordinates": [ 130.4720691, 33.786877 ] } },
{ "type": "Feature", "properties": { "内容": "小規模多機能型居宅介護施設花みずき【小規模多機能型居宅介護】福岡県福津市日蒔野5丁目8番地3", "url": "https://www.kaigokensaku.mhlw.go.jp/40/index.php?action_kouhyou_detail_004_kani=true&JigyosyoCd=4094500032-00&ServiceCd=730&Type=search", "url2": "http://www.suikokai.or.jp" }, "geometry": { "type": "Point", "coordinates": [ 130.498428800000056, 33.759589099999985 ] } },
{ "type": "Feature", "properties": { "内容": "ひまわりの郷　吉井【小規模多機能型居宅介護】福岡県うきは市吉井町1163-7", "url": "https://www.kaigokensaku.mhlw.go.jp/40/index.php?action_kouhyou_detail_004_kani=true&JigyosyoCd=4097300018-00&ServiceCd=730&Type=search", "url2": "yoshii01@seihoukai.or.jp" }, "geometry": { "type": "Point", "coordinates": [ 130.759614300000067, 33.3425364 ] } },
{ "type": "Feature", "properties": { "内容": "小規模多機能型居宅介護　ひまわりの郷うきは【小規模多機能型居宅介護】福岡県うきは市浮羽町浮羽433-7", "url": "https://www.kaigokensaku.mhlw.go.jp/40/index.php?action_kouhyou_detail_004_kani=true&JigyosyoCd=4097300034-00&ServiceCd=730&Type=search", "url2": "http://www.seihoukai.or.jp" }, "geometry": { "type": "Point", "coordinates": [ 130.7795744, 33.3343572 ] } },
{ "type": "Feature", "properties": { "内容": "小規模多機能型居宅介護さなぶり【小規模多機能型居宅介護】福岡県宮若市山口1110番地", "url": "https://www.kaigokensaku.mhlw.go.jp/40/index.php?action_kouhyou_detail_004_kani=true&JigyosyoCd=4095500114-00&ServiceCd=730&Type=search", "url2": null }, "geometry": { "type": "Point", "coordinates": [ 130.594974200000024, 33.7525007 ] } },
{ "type": "Feature", "properties": { "内容": "小規模多機能ホーム　彩　嘉麻市事業所【小規模多機能型居宅介護】福岡県嘉麻市口春732-8", "url": "https://www.kaigokensaku.mhlw.go.jp/40/index.php?action_kouhyou_detail_004_kani=true&JigyosyoCd=4092100066-00&ServiceCd=730&Type=search", "url2": null }, "geometry": { "type": "Point", "coordinates": [ 130.7120777, 33.6002342 ] } },
{ "type": "Feature", "properties": { "内容": "小規模多機能型居宅介護施設　ぬくもりの家【小規模多機能型居宅介護】福岡県朝倉市田中２５５番地１ぬくもりの家", "url": "https://www.kaigokensaku.mhlw.go.jp/40/index.php?action_kouhyou_detail_004_kani=true&JigyosyoCd=4092200064-00&ServiceCd=730&Type=search", "url2": "masamisｈinozaki＠.co.jp" }, "geometry": { "type": "Point", "coordinates": [ 130.719266, 33.3715937 ] } },
{ "type": "Feature", "properties": { "内容": "きらく荘　小規模多機能ホーム【小規模多機能型居宅介護】福岡県朝倉市城８６７", "url": "https://www.kaigokensaku.mhlw.go.jp/40/index.php?action_kouhyou_detail_004_kani=true&JigyosyoCd=4092200031-00&ServiceCd=730&Type=search", "url2": "http://www.kirakuso.jp" }, "geometry": { "type": "Point", "coordinates": [ 130.718333056561278, 33.41442301024135 ] } },
{ "type": "Feature", "properties": { "内容": "ＮＰＯ法人　こころ　小規模多機能型居宅介護　太常【小規模多機能型居宅介護】福岡県みやま市瀬高町泰仙寺228番地1", "url": "https://www.kaigokensaku.mhlw.go.jp/40/index.php?action_kouhyou_detail_004_kani=true&JigyosyoCd=4098700091-00&ServiceCd=730&Type=search", "url2": null }, "geometry": { "type": "Point", "coordinates": [ 130.450466325477237, 33.129582796683806 ] } },
{ "type": "Feature", "properties": { "内容": "小規模多機能ホーム　ねむの里【小規模多機能型居宅介護】福岡県みやま市瀬高町太神1123-1", "url": "https://www.kaigokensaku.mhlw.go.jp/40/index.php?action_kouhyou_detail_004_kani=true&JigyosyoCd=4098700125-00&ServiceCd=730&Type=search", "url2": "http://www.o-takatori-h.sakura.ne.jp/imayamanoie1804/nemunosato.pdf" }, "geometry": { "type": "Point", "coordinates": [ 130.472982413491735, 33.133834503638205 ] } },
{ "type": "Feature", "properties": { "内容": "小規模多機能型居宅介護事業所はる風【小規模多機能型居宅介護】福岡県みやま市山川町河原内1223－5", "url": "https://www.kaigokensaku.mhlw.go.jp/40/index.php?action_kouhyou_detail_004_kani=true&JigyosyoCd=4098700059-00&ServiceCd=730&Type=search", "url2": null }, "geometry": { "type": "Point", "coordinates": [ 130.5192035, 33.1373499 ] } },
{ "type": "Feature", "properties": { "内容": "福岡県みやま市山川町尾野1893【小規模多機能型居宅介護】みやま市山川町尾野1893番地", "url": "https://www.kaigokensaku.mhlw.go.jp/40/index.php?action_kouhyou_detail_004_kani=true&JigyosyoCd=4098700075-00&ServiceCd=730&Type=search", "url2": null }, "geometry": { "type": "Point", "coordinates": [ 130.510970899999961, 33.1311836 ] } },
{ "type": "Feature", "properties": { "内容": "地域ふれあい館　ぽっぽ家【小規模多機能型居宅介護】福岡県糸島市浦志二丁目２１－２０", "url": "https://www.kaigokensaku.mhlw.go.jp/40/index.php?action_kouhyou_detail_004_kani=true&JigyosyoCd=4093500082-00&ServiceCd=730&Type=search", "url2": null }, "geometry": { "type": "Point", "coordinates": [ 130.210347700000057, 33.5617731 ] } },
{ "type": "Feature", "properties": { "内容": "小規模多機能型居宅介護ふくよし【小規模多機能型居宅介護】福岡県糸島市福吉二丁目16番1号", "url": "https://www.kaigokensaku.mhlw.go.jp/40/index.php?action_kouhyou_detail_004_kani=true&JigyosyoCd=4093500249-00&ServiceCd=730&Type=search", "url2": "https://fukuyoshi.frh.or.jp/index.html" }, "geometry": { "type": "Point", "coordinates": [ 130.080875767806162, 33.502577457377043 ] } },
{ "type": "Feature", "properties": { "内容": "地域ケア　たからんたま志摩【小規模多機能型居宅介護】福岡県糸島市志摩師吉819－1", "url": "https://www.kaigokensaku.mhlw.go.jp/40/index.php?action_kouhyou_detail_004_kani=true&JigyosyoCd=4097200010-00&ServiceCd=730&Type=search", "url2": "http://www.shimaen.or.ｊｐ/" }, "geometry": { "type": "Point", "coordinates": [ 130.17805050000004, 33.5793252 ] } },
{ "type": "Feature", "properties": { "内容": "小規模多機能型居宅介護事業所　つくしんぼ【小規模多機能型居宅介護】福岡県糸島市神在西一丁目１番１５号", "url": "https://www.kaigokensaku.mhlw.go.jp/40/index.php?action_kouhyou_detail_004_kani=true&JigyosyoCd=4093500017-00&ServiceCd=730&Type=search", "url2": "www.itoshima-tanakaclinic.jp" }, "geometry": { "type": "Point", "coordinates": [ 130.177043, 33.54762070000001 ] } },
{ "type": "Feature", "properties": { "内容": "小規模多機能型居宅介護はぴねす【小規模多機能型居宅介護】那珂川市大字安徳687-1那珂川市大字安徳687-1", "url": "https://www.kaigokensaku.mhlw.go.jp/40/index.php?action_kouhyou_detail_004_kani=true&JigyosyoCd=4093700021-00&ServiceCd=730&Type=search", "url2": "maya3637@yahoo.co.jp" }, "geometry": { "type": "Point", "coordinates": [ 130.425069, 33.4996939 ] } },
{ "type": "Feature", "properties": { "内容": "グリーンコープ小規模多機能ホーム那珂川・和（のどか）【小規模多機能型居宅介護】福岡県那珂川市片縄北3-16-18", "url": "https://www.kaigokensaku.mhlw.go.jp/40/index.php?action_kouhyou_detail_004_kani=true&JigyosyoCd=4093700062-00&ServiceCd=730&Type=search", "url2": "http://fukushi-greencoop.or.jp" }, "geometry": { "type": "Point", "coordinates": [ 130.42283939999993, 33.5243027 ] } },
{ "type": "Feature", "properties": { "内容": "グリーンコープ小規模多機能ホーム今光・和（のどか）【小規模多機能型居宅介護】福岡県那珂川市今光5丁目60", "url": "https://www.kaigokensaku.mhlw.go.jp/40/index.php?action_kouhyou_detail_004_kani=true&JigyosyoCd=4093700120-00&ServiceCd=730&Type=search", "url2": "http://fukushi-greencoop.or.jp" }, "geometry": { "type": "Point", "coordinates": [ 130.429386597119475, 33.517781614448566 ] } },
{ "type": "Feature", "properties": { "内容": "こころの家　尾仲【小規模多機能型居宅介護】福岡県粕屋郡篠栗町大字尾仲８４６番地４", "url": "https://www.kaigokensaku.mhlw.go.jp/40/index.php?action_kouhyou_detail_004_kani=true&JigyosyoCd=4093900035-00&ServiceCd=730&Type=search", "url2": "http://kaigo-kokoro.main.jp" }, "geometry": { "type": "Point", "coordinates": [ 130.518410099999983, 33.6173952 ] } },
{ "type": "Feature", "properties": { "内容": "小規模多機能型居宅介護　みんなの家ゆず【小規模多機能型居宅介護】福岡県糟屋郡志免町吉原695-1", "url": "https://www.kaigokensaku.mhlw.go.jp/40/index.php?action_kouhyou_detail_004_kani=true&JigyosyoCd=4094000017-00&ServiceCd=730&Type=search", "url2": "https://sites.google.com/yuzunoki.or.jp/minnanoieyuzu" }, "geometry": { "type": "Point", "coordinates": [ 130.483773700000029, 33.574916499999986 ] } },
{ "type": "Feature", "properties": { "内容": "小規模多機能ホーム　ぬくもりの里【小規模多機能型居宅介護】福岡県糟屋郡須惠町大字新原１３－７", "url": "https://www.kaigokensaku.mhlw.go.jp/40/index.php?action_kouhyou_detail_004_kani=true&JigyosyoCd=4094100023-00&ServiceCd=730&Type=search", "url2": "http://www.taihei.or.jp" }, "geometry": { "type": "Point", "coordinates": [ 130.514439399999986, 33.5804187 ] } },
{ "type": "Feature", "properties": { "内容": "小規模多機能ホーム芦屋はまゆう【小規模多機能型居宅介護】福岡県遠賀郡芦屋町山鹿1053-1", "url": "https://www.kaigokensaku.mhlw.go.jp/40/index.php?action_kouhyou_detail_004_kani=true&JigyosyoCd=4094900075-00&ServiceCd=730&Type=search", "url2": null }, "geometry": { "type": "Point", "coordinates": [ 130.6652767, 33.907745 ] } },
{ "type": "Feature", "properties": { "内容": "わくわくケア２４【小規模多機能型居宅介護】福岡県遠賀郡水巻町猪熊1丁目６－４０", "url": "https://www.kaigokensaku.mhlw.go.jp/40/index.php?action_kouhyou_detail_004_kani=true&JigyosyoCd=4095000032-00&ServiceCd=730&Type=search", "url2": "mizumaki.or.jp" }, "geometry": { "type": "Point", "coordinates": [ 130.6854664, 33.8692901 ] } },
{ "type": "Feature", "properties": { "内容": "小規模多機能ホーム　陽【小規模多機能型居宅介護】福岡県遠賀郡岡垣町高陽台３丁目１８番１４号", "url": "https://www.kaigokensaku.mhlw.go.jp/40/index.php?action_kouhyou_detail_004_kani=true&JigyosyoCd=4095100014-00&ServiceCd=730&Type=search", "url2": null }, "geometry": { "type": "Point", "coordinates": [ 130.632880200000045, 33.8430536 ] } },
{ "type": "Feature", "properties": { "内容": "小規模多機能型居宅介護事業所　ゆい【小規模多機能型居宅介護】福岡県遠賀郡岡垣町中央台2丁目8番15号", "url": "https://www.kaigokensaku.mhlw.go.jp/40/index.php?action_kouhyou_detail_004_kani=true&JigyosyoCd=4095100048-00&ServiceCd=730&Type=search", "url2": null }, "geometry": { "type": "Point", "coordinates": [ 130.61949519999996, 33.8454725 ] } },
{ "type": "Feature", "properties": { "内容": "小規模多機能ホームひいらぎ【小規模多機能型居宅介護】福岡県鞍手郡鞍手町大字室木８０１番地２", "url": "https://www.kaigokensaku.mhlw.go.jp/40/index.php?action_kouhyou_detail_004_kani=true&JigyosyoCd=4095400018-00&ServiceCd=730&Type=search", "url2": null }, "geometry": { "type": "Point", "coordinates": [ 130.661809799999986, 33.754328 ] } },
{ "type": "Feature", "properties": { "内容": "小規模多機能型居宅介護　ふれあいの宿　さざえ【小規模多機能型居宅介護】福岡県三井郡大刀洗町大字高樋1245-12", "url": "https://www.kaigokensaku.mhlw.go.jp/40/index.php?action_kouhyou_detail_004_kani=true&JigyosyoCd=4097700027-00&ServiceCd=730&Type=search", "url2": null }, "geometry": { "type": "Point", "coordinates": [ 130.600774, 33.3882165 ] } },
{ "type": "Feature", "properties": { "内容": "小規模多機能ホームくましろ・ほんごう館【小規模多機能型居宅介護】福岡県三井郡大刀洗町本郷2203-1", "url": "https://www.kaigokensaku.mhlw.go.jp/40/index.php?action_kouhyou_detail_004_kani=true&JigyosyoCd=4097700019-00&ServiceCd=730&Type=search", "url2": "kumashiro-sv.co.jp/hongo/index.html" }, "geometry": { "type": "Point", "coordinates": [ 130.625268600000027, 33.3802383 ] } },
{ "type": "Feature", "properties": { "内容": "小規模多機能型居宅介護　朝日苑【小規模多機能型居宅介護】福岡県三潴郡大木町大字大藪１８６番地１", "url": "https://www.kaigokensaku.mhlw.go.jp/40/index.php?action_kouhyou_detail_004_kani=true&JigyosyoCd=4097900023-00&ServiceCd=730&Type=search", "url2": "http://www.kumin.ne.jp/asahien/index.html" }, "geometry": { "type": "Point", "coordinates": [ 130.4496494, 33.1866073 ] } },
{ "type": "Feature", "properties": { "内容": "小規模多機能型居宅介護　オレンジ【小規模多機能型居宅介護】福岡県田川郡添田町大字添田１１２９番地の６", "url": "https://www.kaigokensaku.mhlw.go.jp/40/index.php?action_kouhyou_detail_004_kani=true&JigyosyoCd=4099300032-00&ServiceCd=730&Type=search", "url2": "http://yuaikai-soeda.jp/" }, "geometry": { "type": "Point", "coordinates": [ 130.855196131877165, 33.569501125612661 ] } },
{ "type": "Feature", "properties": { "内容": "多機能ホーム　日向【小規模多機能型居宅介護】福岡県田川郡川崎町大字田原2306-1", "url": "https://www.kaigokensaku.mhlw.go.jp/40/index.php?action_kouhyou_detail_004_kani=true&JigyosyoCd=4099600084-00&ServiceCd=730&Type=search", "url2": "http://hinatahome.com" }, "geometry": { "type": "Point", "coordinates": [ 130.825185799999986, 33.6038701 ] } },
{ "type": "Feature", "properties": { "内容": "小規模多機能型居宅介護　ライフ【小規模多機能型居宅介護】福岡県田川郡川崎町大字田原188-6", "url": "https://www.kaigokensaku.mhlw.go.jp/40/index.php?action_kouhyou_detail_004_kani=true&JigyosyoCd=4099600068-00&ServiceCd=730&Type=search", "url2": null }, "geometry": { "type": "Point", "coordinates": [ 130.825185799999986, 33.6038701 ] } },
{ "type": "Feature", "properties": { "内容": "川崎町　笑顔の家【小規模多機能型居宅介護】福岡県田川郡川崎町大字田原345-1", "url": "https://www.kaigokensaku.mhlw.go.jp/40/index.php?action_kouhyou_detail_004_kani=true&JigyosyoCd=4099600050-00&ServiceCd=730&Type=search", "url2": "https://bestcare-company.com/" }, "geometry": { "type": "Point", "coordinates": [ 130.825185799999986, 33.6038701 ] } },
{ "type": "Feature", "properties": { "内容": "有限会社たかみねの里【小規模多機能型居宅介護】福岡県田川郡大任町大字大行事２７４５番地", "url": "https://www.kaigokensaku.mhlw.go.jp/40/index.php?action_kouhyou_detail_004_kani=true&JigyosyoCd=4099900013-00&ServiceCd=730&Type=search", "url2": "https://takaminenosato.p-kit.com/" }, "geometry": { "type": "Point", "coordinates": [ 130.857797464418013, 33.607201313191503 ] } },
{ "type": "Feature", "properties": { "内容": "多機能ホームあじさい【小規模多機能型居宅介護】福岡県田川郡福智町弁城２７９８", "url": "https://www.kaigokensaku.mhlw.go.jp/40/index.php?action_kouhyou_detail_004_kani=true&JigyosyoCd=4099400014-00&ServiceCd=730&Type=search", "url2": null }, "geometry": { "type": "Point", "coordinates": [ 130.78455957025102, 33.687068660793365 ] } },
{ "type": "Feature", "properties": { "内容": "小規模多機能型ホーム　みやこ【小規模多機能型居宅介護】京都郡みやこ町豊津２１２１－７番地", "url": "https://www.kaigokensaku.mhlw.go.jp/40/index.php?action_kouhyou_detail_004_kani=true&JigyosyoCd=4099700033-00&ServiceCd=730&Type=search", "url2": "http://home.seiyukai-group.jp/" }, "geometry": { "type": "Point", "coordinates": [ 130.97489470000005, 33.6632827 ] } },
{ "type": "Feature", "properties": { "内容": "小規模多機能ホーム　だんらん【小規模多機能型居宅介護】福岡県築上郡吉富町直江７７－２", "url": "https://www.kaigokensaku.mhlw.go.jp/40/index.php?action_kouhyou_detail_004_kani=true&JigyosyoCd=4098800016-00&ServiceCd=730&Type=search", "url2": null }, "geometry": { "type": "Point", "coordinates": [ 131.166851400000041, 33.607542500000037 ] } },
{ "type": "Feature", "properties": { "内容": "小規模多機能ホームけやき【小規模多機能型居宅介護】福岡県築上郡吉富町大字広津６０３番地２", "url": "https://www.kaigokensaku.mhlw.go.jp/40/index.php?action_kouhyou_detail_004_kani=true&JigyosyoCd=4098800024-00&ServiceCd=730&Type=search", "url2": "http://www.higashi-hosp.net" }, "geometry": { "type": "Point", "coordinates": [ 131.173495300000013, 33.6019457 ] } },
{ "type": "Feature", "properties": { "内容": "小規模多機能ホーム　大きなかぶ【小規模多機能型居宅介護】福岡県築上郡上毛町大字土佐井204-1", "url": "https://www.kaigokensaku.mhlw.go.jp/40/index.php?action_kouhyou_detail_004_kani=true&JigyosyoCd=4098900014-00&ServiceCd=730&Type=search", "url2": "http://kei-ai-kai.com/" }, "geometry": { "type": "Point", "coordinates": [ 131.156699900000035, 33.5596007 ] } }
]
}
