{
"type": "FeatureCollection",
"name": "geo_40_特定施設入居者生活介護（有料老人ホーム）",
"crs": { "type": "name", "properties": { "name": "urn:ogc:def:crs:OGC:1.3:CRS84" } },
"features": [
{ "type": "Feature", "properties": { "内容": "介護付有料老人ホーム　きしの森【特定施設入居者生活介護（有料老人ホーム）】福岡県北九州市門司区吉志7丁目20-31", "url": "https://www.kaigokensaku.mhlw.go.jp/40/index.php?action_kouhyou_detail_004_kani=true&JigyosyoCd=4070102712-00&ServiceCd=331&Type=search", "url2": null }, "geometry": { "type": "Point", "coordinates": [ 130.9672114, 33.8703185 ] } },
{ "type": "Feature", "properties": { "内容": "介護付有料老人ホーム　高砂苑【特定施設入居者生活介護（有料老人ホーム）】福岡県北九州市門司区黒川西二丁目6番2号", "url": "https://www.kaigokensaku.mhlw.go.jp/40/index.php?action_kouhyou_detail_004_kani=true&JigyosyoCd=4070100807-00&ServiceCd=331&Type=search", "url2": "https://takasagoen.jp" }, "geometry": { "type": "Point", "coordinates": [ 130.980845035581979, 33.919304596784393 ] } },
{ "type": "Feature", "properties": { "内容": "さわやか和布刈館【特定施設入居者生活介護（有料老人ホーム）】福岡県北九州市門司区大久保1丁目9番15号", "url": "https://www.kaigokensaku.mhlw.go.jp/40/index.php?action_kouhyou_detail_004_kani=true&JigyosyoCd=4070101375-00&ServiceCd=331&Type=search", "url2": "http://www.sawayakaclub.jp/" }, "geometry": { "type": "Point", "coordinates": [ 130.9739502, 33.9568588 ] } },
{ "type": "Feature", "properties": { "内容": "介護付有料老人ホームさわやか新門司館【特定施設入居者生活介護（有料老人ホーム）】福岡県北九州市門司区大字畑1543-1", "url": "https://www.kaigokensaku.mhlw.go.jp/40/index.php?action_kouhyou_detail_004_kani=true&JigyosyoCd=4070102274-00&ServiceCd=331&Type=search", "url2": "htpps：//www.sawayakaculb.jp" }, "geometry": { "type": "Point", "coordinates": [ 130.974860499999977, 33.876493 ] } },
{ "type": "Feature", "properties": { "内容": "SJR別院【特定施設入居者生活介護（有料老人ホーム）】北九州市門司区柳原町１１番３０号", "url": "https://www.kaigokensaku.mhlw.go.jp/40/index.php?action_kouhyou_detail_004_kani=true&JigyosyoCd=4070102399-00&ServiceCd=331&Type=search", "url2": "https://www.sjr-jr.co.jp/betsuin" }, "geometry": { "type": "Point", "coordinates": [ 130.933321664418031, 33.895605488952526 ] } },
{ "type": "Feature", "properties": { "内容": "ラ・ナシカ　ふじまつ【特定施設入居者生活介護（有料老人ホーム）】福岡県北九州市門司区藤松１丁目１０番２５号", "url": "https://www.kaigokensaku.mhlw.go.jp/40/index.php?action_kouhyou_detail_004_kani=true&JigyosyoCd=4070101300-00&ServiceCd=331&Type=search", "url2": "http://www.cedar-group.co.jp" }, "geometry": { "type": "Point", "coordinates": [ 130.924386499999969, 33.8867907 ] } },
{ "type": "Feature", "properties": { "内容": "さわやかシーサイドくきのうみ【特定施設入居者生活介護（有料老人ホーム）】福岡県北九州市若松区くきのうみ中央2-1", "url": "https://www.kaigokensaku.mhlw.go.jp/40/index.php?action_kouhyou_detail_004_kani=true&JigyosyoCd=4070202140-00&ServiceCd=331&Type=search", "url2": "https://www.sawayakaclub.jp" }, "geometry": { "type": "Point", "coordinates": [ 130.797690447251853, 33.89132229592564 ] } },
{ "type": "Feature", "properties": { "内容": "さわやか海響館【特定施設入居者生活介護（有料老人ホーム）】福岡県北九州市若松区浜町１丁目１１番１３号", "url": "https://www.kaigokensaku.mhlw.go.jp/40/index.php?action_kouhyou_detail_004_kani=true&JigyosyoCd=4070201043-00&ServiceCd=331&Type=search", "url2": "http://www.sawayakaclub.jp" }, "geometry": { "type": "Point", "coordinates": [ 130.811981699999933, 33.9066032 ] } },
{ "type": "Feature", "properties": { "内容": "大正館【特定施設入居者生活介護（有料老人ホーム）】北九州市若松区花野路1-2-5", "url": "https://www.kaigokensaku.mhlw.go.jp/40/index.php?action_kouhyou_detail_004_kani=true&JigyosyoCd=4070201068-00&ServiceCd=331&Type=search", "url2": "http://www.taishokan.net/" }, "geometry": { "type": "Point", "coordinates": [ 130.682890600000064, 33.9074132 ] } },
{ "type": "Feature", "properties": { "内容": "さわやか花美館【特定施設入居者生活介護（有料老人ホーム）】福岡県北九州市若松区高須東3丁目4番30号", "url": "https://www.kaigokensaku.mhlw.go.jp/40/index.php?action_kouhyou_detail_004_kani=true&JigyosyoCd=4070201035-00&ServiceCd=331&Type=search", "url2": "http://www.sawayakaclub.jp" }, "geometry": { "type": "Point", "coordinates": [ 130.697084099999984, 33.8866661 ] } },
{ "type": "Feature", "properties": { "内容": "さわやかパークサイド新川【特定施設入居者生活介護（有料老人ホーム）】北九州市戸畑区新川町２番１３号さわやかパークサイド新川", "url": "https://www.kaigokensaku.mhlw.go.jp/40/index.php?action_kouhyou_detail_004_kani=true&JigyosyoCd=4070300662-00&ServiceCd=331&Type=search", "url2": "http://www.sawayakaclub.jp" }, "geometry": { "type": "Point", "coordinates": [ 130.823461599999973, 33.8907522 ] } },
{ "type": "Feature", "properties": { "内容": "リンデンバウム日明【特定施設入居者生活介護（有料老人ホーム）】福岡県北九州市小倉北区日明2-13-4リンデンバウム日明", "url": "https://www.kaigokensaku.mhlw.go.jp/40/index.php?action_kouhyou_detail_004_kani=true&JigyosyoCd=4070402732-00&ServiceCd=331&Type=search", "url2": "http://www.lindenbaum-hiagari.jp" }, "geometry": { "type": "Point", "coordinates": [ 130.8609084, 33.8910527 ] } },
{ "type": "Feature", "properties": { "内容": "介護付有料老人ホーム　桜倶楽部【特定施設入居者生活介護（有料老人ホーム）】北九州市小倉北区須賀町1-26", "url": "https://www.kaigokensaku.mhlw.go.jp/40/index.php?action_kouhyou_detail_004_kani=true&JigyosyoCd=4070402542-00&ServiceCd=331&Type=search", "url2": "http://hoku-i.jp" }, "geometry": { "type": "Point", "coordinates": [ 130.9067245, 33.8833489 ] } },
{ "type": "Feature", "properties": { "内容": "介護付有料老人ホーム到津の森【特定施設入居者生活介護（有料老人ホーム）】福岡県北九州市小倉北区上到津4丁目16-5", "url": "https://www.kaigokensaku.mhlw.go.jp/40/index.php?action_kouhyou_detail_004_kani=true&JigyosyoCd=4070402575-00&ServiceCd=331&Type=search", "url2": "http//itozunomori.com/" }, "geometry": { "type": "Point", "coordinates": [ 130.844710064418024, 33.872536684135923 ] } },
{ "type": "Feature", "properties": { "内容": "シルバーホーム南丘きょうわ苑【特定施設入居者生活介護（有料老人ホーム）】北九州市小倉北区南丘2丁目1番11号", "url": "https://www.kaigokensaku.mhlw.go.jp/40/index.php?action_kouhyou_detail_004_kani=true&JigyosyoCd=4070404134-00&ServiceCd=331&Type=search", "url2": null }, "geometry": { "type": "Point", "coordinates": [ 130.871000699999968, 33.8500658 ] } },
{ "type": "Feature", "properties": { "内容": "なかい和楽園【特定施設入居者生活介護（有料老人ホーム）】北九州市小倉北区中井２丁目４－３６なかい和楽園", "url": "https://www.kaigokensaku.mhlw.go.jp/40/index.php?action_kouhyou_detail_004_kani=true&JigyosyoCd=4070404142-00&ServiceCd=331&Type=search", "url2": "http://care-net.biz/40/nakai/" }, "geometry": { "type": "Point", "coordinates": [ 130.8514063, 33.8911497 ] } },
{ "type": "Feature", "properties": { "内容": "ラ･ナシカ　こくら【特定施設入居者生活介護（有料老人ホーム）】福岡県北九州市小倉北区東篠崎三丁目２番２２号", "url": "https://www.kaigokensaku.mhlw.go.jp/40/index.php?action_kouhyou_detail_004_kani=true&JigyosyoCd=4070405156-00&ServiceCd=331&Type=search", "url2": "https://cedar-group.co.jp/" }, "geometry": { "type": "Point", "coordinates": [ 130.877249799999959, 33.8660889 ] } },
{ "type": "Feature", "properties": { "内容": "介護付有料老人ホーム　たいしんかていな赤坂【特定施設入居者生活介護（有料老人ホーム）】福岡県北九州市小倉北区赤坂1丁目2番32号", "url": "https://www.kaigokensaku.mhlw.go.jp/40/index.php?action_kouhyou_detail_004_kani=true&JigyosyoCd=4070405354-00&ServiceCd=331&Type=search", "url2": "http://www.taishinph.co.jp" }, "geometry": { "type": "Point", "coordinates": [ 130.905888799999957, 33.8894962 ] } },
{ "type": "Feature", "properties": { "内容": "有料老人ホーム　小文字の郷【特定施設入居者生活介護（有料老人ホーム）】福岡県北九州市小倉北区大畠１丁目７－１５", "url": "https://www.kaigokensaku.mhlw.go.jp/40/index.php?action_kouhyou_detail_004_kani=true&JigyosyoCd=4070403268-00&ServiceCd=331&Type=search", "url2": "http://www.cedar-group.co,jp/pine" }, "geometry": { "type": "Point", "coordinates": [ 130.89472449496111, 33.872709965086983 ] } },
{ "type": "Feature", "properties": { "内容": "介護付有料老人ホーム　ほうらい葛原【特定施設入居者生活介護（有料老人ホーム）】北九州市小倉南区葛原五丁目2－21", "url": "https://www.kaigokensaku.mhlw.go.jp/40/index.php?action_kouhyou_detail_004_kani=true&JigyosyoCd=4070502820-00&ServiceCd=331&Type=search", "url2": "http://hourai-group.com" }, "geometry": { "type": "Point", "coordinates": [ 130.912846899999977, 33.8436756 ] } },
{ "type": "Feature", "properties": { "内容": "さわやか螢風館【特定施設入居者生活介護（有料老人ホーム）】福岡県北九州市小倉南区長野東町１１－１５", "url": "https://www.kaigokensaku.mhlw.go.jp/40/index.php?action_kouhyou_detail_004_kani=true&JigyosyoCd=4070502424-00&ServiceCd=331&Type=search", "url2": "http://www.sawayakaclub.jp" }, "geometry": { "type": "Point", "coordinates": [ 130.91864970000006, 33.8201703 ] } },
{ "type": "Feature", "properties": { "内容": "介護付有料老人ホーム　花みずき【特定施設入居者生活介護（有料老人ホーム）】北九州市小倉南区徳力四丁目２１番１４号", "url": "https://www.kaigokensaku.mhlw.go.jp/40/index.php?action_kouhyou_detail_004_kani=true&JigyosyoCd=4070502655-00&ServiceCd=331&Type=search", "url2": "http://www.hanamizuki-kaigo.com" }, "geometry": { "type": "Point", "coordinates": [ 130.870712889996639, 33.823496165256017 ] } },
{ "type": "Feature", "properties": { "内容": "介護付有料老人ホームオーケストラ【特定施設入居者生活介護（有料老人ホーム）】北九州市小倉南区上貫3丁目3番24号", "url": "https://www.kaigokensaku.mhlw.go.jp/40/index.php?action_kouhyou_detail_004_kani=true&JigyosyoCd=4070504156-00&ServiceCd=331&Type=search", "url2": "http://www.shinnai.or.jp" }, "geometry": { "type": "Point", "coordinates": [ 130.922535599999946, 33.81441 ] } },
{ "type": "Feature", "properties": { "内容": "介護付有料老人ホーム　わらべの里【特定施設入居者生活介護（有料老人ホーム）】福岡県北九州市小倉南区大字志井１４５９－６", "url": "https://www.kaigokensaku.mhlw.go.jp/40/index.php?action_kouhyou_detail_004_kani=true&JigyosyoCd=4070504628-00&ServiceCd=331&Type=search", "url2": "http://www.warabenosato.com" }, "geometry": { "type": "Point", "coordinates": [ 130.877937699999961, 33.8058072 ] } },
{ "type": "Feature", "properties": { "内容": "介護付有料老人ホーム　ラフィーネ【特定施設入居者生活介護（有料老人ホーム）】北九州市小倉南区上葛原２丁目21-11", "url": "https://www.kaigokensaku.mhlw.go.jp/40/index.php?action_kouhyou_detail_004_kani=true&JigyosyoCd=4070505138-00&ServiceCd=331&Type=search", "url2": "http://www.raffine-fl.com/" }, "geometry": { "type": "Point", "coordinates": [ 130.9127777, 33.8369875 ] } },
{ "type": "Feature", "properties": { "内容": "介護付有料老人ホーム　あべやま【特定施設入居者生活介護（有料老人ホーム）】湯川４丁目21-25", "url": "https://www.kaigokensaku.mhlw.go.jp/40/index.php?action_kouhyou_detail_004_kani=true&JigyosyoCd=4070505153-00&ServiceCd=331&Type=search", "url2": "http://www.k-you.or.jp/" }, "geometry": { "type": "Point", "coordinates": [ 130.908086300000036, 33.84833050000001 ] } },
{ "type": "Feature", "properties": { "内容": "介護付有料老人ホームメディケアよつば小倉南【特定施設入居者生活介護（有料老人ホーム）】福岡県北九州市小倉南区大字貫1866番2", "url": "https://www.kaigokensaku.mhlw.go.jp/40/index.php?action_kouhyou_detail_004_kani=true&JigyosyoCd=4070504537-00&ServiceCd=331&Type=search", "url2": "https://shibatsu-care.com" }, "geometry": { "type": "Point", "coordinates": [ 130.921167206745849, 33.803413296905816 ] } },
{ "type": "Feature", "properties": { "内容": "介護付有料老人ホーム　ぬまみどり【特定施設入居者生活介護（有料老人ホーム）】福岡県北九州市小倉南区沼緑町四丁目22番1号", "url": "https://www.kaigokensaku.mhlw.go.jp/40/index.php?action_kouhyou_detail_004_kani=true&JigyosyoCd=4070505385-00&ServiceCd=331&Type=search", "url2": "https://www.kitakyu-hp.or.jp/numamidori/" }, "geometry": { "type": "Point", "coordinates": [ 130.936029143516549, 33.850488239838221 ] } },
{ "type": "Feature", "properties": { "内容": "ヴィラノーヴァ大谷【特定施設入居者生活介護（有料老人ホーム）】福岡県北九州市八幡東区天神町2-41", "url": "https://www.kaigokensaku.mhlw.go.jp/40/index.php?action_kouhyou_detail_004_kani=true&JigyosyoCd=4070602208-00&ServiceCd=331&Type=search", "url2": "http://www.v-ootani.com" }, "geometry": { "type": "Point", "coordinates": [ 130.804854299999988, 33.8625621 ] } },
{ "type": "Feature", "properties": { "内容": "介護付有料老人ホームのぞみ【特定施設入居者生活介護（有料老人ホーム）】福岡県北九州市八幡西区陣原３丁目25-1", "url": "https://www.kaigokensaku.mhlw.go.jp/40/index.php?action_kouhyou_detail_004_kani=true&JigyosyoCd=4070703675-00&ServiceCd=331&Type=search", "url2": "http://nozomi@seishou.biz" }, "geometry": { "type": "Point", "coordinates": [ 130.73916429999997, 33.8683195 ] } },
{ "type": "Feature", "properties": { "内容": "さわやかレークサイド中の原【特定施設入居者生活介護（有料老人ホーム）】福岡県北九州市八幡西区中の原２丁目１９－２", "url": "https://www.kaigokensaku.mhlw.go.jp/40/index.php?action_kouhyou_detail_004_kani=true&JigyosyoCd=4070703642-00&ServiceCd=331&Type=search", "url2": "https://www.sawayakaclub.jp" }, "geometry": { "type": "Point", "coordinates": [ 130.750839400000018, 33.8293826 ] } },
{ "type": "Feature", "properties": { "内容": "さわやか鳴水館【特定施設入居者生活介護（有料老人ホーム）】福岡県北九州市八幡西区東鳴水五丁目７番６号", "url": "https://www.kaigokensaku.mhlw.go.jp/40/index.php?action_kouhyou_detail_004_kani=true&JigyosyoCd=4070703030-00&ServiceCd=331&Type=search", "url2": "https://www.sawayakaclub.jp/meisuikan" }, "geometry": { "type": "Point", "coordinates": [ 130.77200629999993, 33.8522499 ] } },
{ "type": "Feature", "properties": { "内容": "ひだまり　I号館【特定施設入居者生活介護（有料老人ホーム）】福岡県北九州市八幡西区浅川一丁目25番5号ひだまりⅠ号館", "url": "https://www.kaigokensaku.mhlw.go.jp/40/index.php?action_kouhyou_detail_004_kani=true&JigyosyoCd=4070703121-00&ServiceCd=331&Type=search", "url2": "http://www.kenko-support.com/hidamari/" }, "geometry": { "type": "Point", "coordinates": [ 130.7020367, 33.8777562 ] } },
{ "type": "Feature", "properties": { "内容": "介護付有料老人ホーム　パレス穴生【特定施設入居者生活介護（有料老人ホーム）】北九州市八幡西区鉄竜１－１－１０", "url": "https://www.kaigokensaku.mhlw.go.jp/40/index.php?action_kouhyou_detail_004_kani=true&JigyosyoCd=4070703303-00&ServiceCd=331&Type=search", "url2": "http://n-sato.com/" }, "geometry": { "type": "Point", "coordinates": [ 130.752463499999976, 33.8550159 ] } },
{ "type": "Feature", "properties": { "内容": "介護付有料老人ホーム　パークサイドコート【特定施設入居者生活介護（有料老人ホーム）】福岡県北九州市八幡西区下上津役一丁目８番１号", "url": "https://www.kaigokensaku.mhlw.go.jp/40/index.php?action_kouhyou_detail_004_kani=true&JigyosyoCd=4070703550-00&ServiceCd=331&Type=search", "url2": "https://www.shinseikai-hos.or.jp/parkside/" }, "geometry": { "type": "Point", "coordinates": [ 130.7410681, 33.8288269 ] } },
{ "type": "Feature", "properties": { "内容": "介護付有料老人ホーム南王子さくら館【特定施設入居者生活介護（有料老人ホーム）】北九州市八幡西区南王子町２－１５南王子さくら館", "url": "https://www.kaigokensaku.mhlw.go.jp/40/index.php?action_kouhyou_detail_004_kani=true&JigyosyoCd=4070705852-00&ServiceCd=331&Type=search", "url2": "sakurakan＠if-n.ne.jp" }, "geometry": { "type": "Point", "coordinates": [ 130.758591273016322, 33.853360164902021 ] } },
{ "type": "Feature", "properties": { "内容": "こうじゃくの杜【特定施設入居者生活介護（有料老人ホーム）】福岡県北九州市八幡西区上上津役五丁目１５番２７号", "url": "https://www.kaigokensaku.mhlw.go.jp/40/index.php?action_kouhyou_detail_004_kani=true&JigyosyoCd=4070706538-00&ServiceCd=331&Type=search", "url2": null }, "geometry": { "type": "Point", "coordinates": [ 130.760202398811316, 33.825481410301862 ] } },
{ "type": "Feature", "properties": { "内容": "介護付有料老人ホームクレアール【特定施設入居者生活介護（有料老人ホーム）】福岡県北九州市八幡西区町上津役東２丁目２番１３号", "url": "https://www.kaigokensaku.mhlw.go.jp/40/index.php?action_kouhyou_detail_004_kani=true&JigyosyoCd=4070706819-00&ServiceCd=331&Type=search", "url2": "www.mukauno-sato.com" }, "geometry": { "type": "Point", "coordinates": [ 130.753128400000037, 33.8213029 ] } },
{ "type": "Feature", "properties": { "内容": "介護付有料老人ホーム　ひかり【特定施設入居者生活介護（有料老人ホーム）】福岡県北九州市八幡西区則松東2丁目5番10号", "url": "https://www.kaigokensaku.mhlw.go.jp/40/index.php?action_kouhyou_detail_004_kani=true&JigyosyoCd=4070702834-00&ServiceCd=331&Type=search", "url2": "https://www.kaigo-hikari.net/" }, "geometry": { "type": "Point", "coordinates": [ 130.723104599999971, 33.8544607 ] } },
{ "type": "Feature", "properties": { "内容": "グッドタイムホーム１・海の中道【特定施設入居者生活介護（有料老人ホーム）】福岡市東区奈多１丁目２番２号", "url": "https://www.kaigokensaku.mhlw.go.jp/40/index.php?action_kouhyou_detail_004_kani=true&JigyosyoCd=4070800596-00&ServiceCd=331&Type=search", "url2": "http://www.goodtimehome.com" }, "geometry": { "type": "Point", "coordinates": [ 130.4189212, 33.6901684 ] } },
{ "type": "Feature", "properties": { "内容": "ふるさと舞松原【特定施設入居者生活介護（有料老人ホーム）】福岡県福岡市東区舞松原５丁目２７番２４号", "url": "https://www.kaigokensaku.mhlw.go.jp/40/index.php?action_kouhyou_detail_004_kani=true&JigyosyoCd=4070801487-00&ServiceCd=331&Type=search", "url2": "https://furusato-since2003.com" }, "geometry": { "type": "Point", "coordinates": [ 130.454362800000013, 33.6451443 ] } },
{ "type": "Feature", "properties": { "内容": "ケアレジデンス青葉【特定施設入居者生活介護（有料老人ホーム）】福岡県福岡市東区土井1丁目25番7号", "url": "https://www.kaigokensaku.mhlw.go.jp/40/index.php?action_kouhyou_detail_004_kani=true&JigyosyoCd=4070801842-00&ServiceCd=331&Type=search", "url2": "http://www.homecareservice.co.jp/" }, "geometry": { "type": "Point", "coordinates": [ 130.46520959999998, 33.6357204 ] } },
{ "type": "Feature", "properties": { "内容": "ラ・ナシカ　みとま【特定施設入居者生活介護（有料老人ホーム）】福岡県福岡市東区三苫五丁目４番39号ラ・ナシカ　みとま", "url": "https://www.kaigokensaku.mhlw.go.jp/40/index.php?action_kouhyou_detail_004_kani=true&JigyosyoCd=4070801966-00&ServiceCd=331&Type=search", "url2": "https://www.cedar-group.co.jp/" }, "geometry": { "type": "Point", "coordinates": [ 130.421384499999931, 33.7037502 ] } },
{ "type": "Feature", "properties": { "内容": "あっとほーむ青葉【特定施設入居者生活介護（有料老人ホーム）】福岡市東区青葉7丁目61番20号", "url": "https://www.kaigokensaku.mhlw.go.jp/40/index.php?action_kouhyou_detail_004_kani=true&JigyosyoCd=4070801982-00&ServiceCd=331&Type=search", "url2": "http://www.homecareservice.co.jp/" }, "geometry": { "type": "Point", "coordinates": [ 130.46684, 33.6371119 ] } },
{ "type": "Feature", "properties": { "内容": "介護付有料老人ホームヒーリングハウス貝塚駅前【特定施設入居者生活介護（有料老人ホーム）】福岡市東区箱崎７丁目１番１７号", "url": "https://www.kaigokensaku.mhlw.go.jp/40/index.php?action_kouhyou_detail_004_kani=true&JigyosyoCd=4070802121-00&ServiceCd=331&Type=search", "url2": "https://www.hfcs-fukuoka.com/" }, "geometry": { "type": "Point", "coordinates": [ 130.424937499999942, 33.6310728 ] } },
{ "type": "Feature", "properties": { "内容": "介護付き有料老人ホームトリニテ千早【特定施設入居者生活介護（有料老人ホーム）】福岡市東区千早5丁目2番22号", "url": "https://www.kaigokensaku.mhlw.go.jp/40/index.php?action_kouhyou_detail_004_kani=true&JigyosyoCd=4070803590-00&ServiceCd=331&Type=search", "url2": "http://www.kieikai.ne.jp/torinite/chihaya/index.html" }, "geometry": { "type": "Point", "coordinates": [ 130.439816, 33.6523735 ] } },
{ "type": "Feature", "properties": { "内容": "グランドホーム　サンケア和白【特定施設入居者生活介護（有料老人ホーム）】福岡県福岡市東区和白２丁目１６番３号", "url": "https://www.kaigokensaku.mhlw.go.jp/40/index.php?action_kouhyou_detail_004_kani=true&JigyosyoCd=4070805017-00&ServiceCd=331&Type=search", "url2": "http://www.suncare-wajiro.com" }, "geometry": { "type": "Point", "coordinates": [ 130.431476, 33.6877941 ] } },
{ "type": "Feature", "properties": { "内容": "グッドタイムホーム１・海の中道【特定施設入居者生活介護（有料老人ホーム）】福岡市東区奈多１丁目２番２号", "url": "https://www.kaigokensaku.mhlw.go.jp/40/index.php?action_kouhyou_detail_004_kani=true&JigyosyoCd=4070805504-00&ServiceCd=331&Type=search", "url2": "http://www.goodtimehome.com" }, "geometry": { "type": "Point", "coordinates": [ 130.418935299999987, 33.6900298 ] } },
{ "type": "Feature", "properties": { "内容": "ウィルマーク香椎浜【特定施設入居者生活介護（有料老人ホーム）】福岡県福岡市東区香椎浜3丁目2番1号", "url": "https://www.kaigokensaku.mhlw.go.jp/40/index.php?action_kouhyou_detail_004_kani=true&JigyosyoCd=4070806072-00&ServiceCd=331&Type=search", "url2": "http:www.will-mark.com" }, "geometry": { "type": "Point", "coordinates": [ 130.427877799999976, 33.656146400000011 ] } },
{ "type": "Feature", "properties": { "内容": "介護付有料老人ホーム　オーベル名島橋【特定施設入居者生活介護（有料老人ホーム）】福岡市東区名島3丁目12番5号", "url": "https://www.kaigokensaku.mhlw.go.jp/40/index.php?action_kouhyou_detail_004_kani=true&JigyosyoCd=4071001574-00&ServiceCd=331&Type=search", "url2": "https://www.ober.co.jp" }, "geometry": { "type": "Point", "coordinates": [ 130.429721999788626, 33.643211359591554 ] } },
{ "type": "Feature", "properties": { "内容": "介護付有料老人ホーム　ラ・ナシカ　ちはや【特定施設入居者生活介護（有料老人ホーム）】福岡県福岡市東区松崎四丁目３３番２１号", "url": "https://www.kaigokensaku.mhlw.go.jp/40/index.php?action_kouhyou_detail_004_kani=true&JigyosyoCd=4070802022-00&ServiceCd=331&Type=search", "url2": "https://wwwcedar-group.co.jp" }, "geometry": { "type": "Point", "coordinates": [ 130.440305299999977, 33.64591040000002 ] } },
{ "type": "Feature", "properties": { "内容": "介護付有料老人ホームなごみの家【特定施設入居者生活介護（有料老人ホーム）】福岡県福岡市東区西戸崎1丁目4番6号", "url": "https://www.kaigokensaku.mhlw.go.jp/40/index.php?action_kouhyou_detail_004_kani=true&JigyosyoCd=4070802162-00&ServiceCd=331&Type=search", "url2": null }, "geometry": { "type": "Point", "coordinates": [ 130.357391900000039, 33.6486561 ] } },
{ "type": "Feature", "properties": { "内容": "わじろの郷【特定施設入居者生活介護（有料老人ホーム）】福岡県福岡市東区和白丘二丁目１１番１７号わじろの郷ビル", "url": "https://www.kaigokensaku.mhlw.go.jp/40/index.php?action_kouhyou_detail_004_kani=true&JigyosyoCd=4070802485-00&ServiceCd=331&Type=search", "url2": "http://www.cedar-group.co.jp/pine" }, "geometry": { "type": "Point", "coordinates": [ 130.432686900000022, 33.6933991 ] } },
{ "type": "Feature", "properties": { "内容": "介護付有料老人ホーム　アビタシオン博多Ⅰ・Ⅱ号館【特定施設入居者生活介護（有料老人ホーム）】福岡市博多区金の隈3丁目23番10号", "url": "https://www.kaigokensaku.mhlw.go.jp/40/index.php?action_kouhyou_detail_004_kani=true&JigyosyoCd=4070900149-00&ServiceCd=331&Type=search", "url2": "http://www.habitation.co.jp/hakata/" }, "geometry": { "type": "Point", "coordinates": [ 130.4804027735413, 33.556754048049541 ] } },
{ "type": "Feature", "properties": { "内容": "介護付有料老人ホーム　アビタシオン博多Ⅲ号館【特定施設入居者生活介護（有料老人ホーム）】福岡市博多区金の隈3丁目23番30号アビタシオン博多Ⅲ号館", "url": "https://www.kaigokensaku.mhlw.go.jp/40/index.php?action_kouhyou_detail_004_kani=true&JigyosyoCd=4070901345-00&ServiceCd=331&Type=search", "url2": "https://www.habitation.co.jp/hakata/" }, "geometry": { "type": "Point", "coordinates": [ 130.481915188074481, 33.557184095194486 ] } },
{ "type": "Feature", "properties": { "内容": "ネオステージ博多【特定施設入居者生活介護（有料老人ホーム）】福岡県福岡市博多区千代５－１５－１ネオステージ博多", "url": "https://www.kaigokensaku.mhlw.go.jp/40/index.php?action_kouhyou_detail_004_kani=true&JigyosyoCd=4070901436-00&ServiceCd=331&Type=search", "url2": "http://www.neo-stage.co.jp" }, "geometry": { "type": "Point", "coordinates": [ 130.413158599999946, 33.6076309 ] } },
{ "type": "Feature", "properties": { "内容": "介護付有料老人ホームあすか吉塚【特定施設入居者生活介護（有料老人ホーム）】福岡市博多区吉塚５丁目６番３２号", "url": "https://www.kaigokensaku.mhlw.go.jp/40/index.php?action_kouhyou_detail_004_kani=true&JigyosyoCd=4070901535-00&ServiceCd=331&Type=search", "url2": null }, "geometry": { "type": "Point", "coordinates": [ 130.429229699999951, 33.6042677 ] } },
{ "type": "Feature", "properties": { "内容": "介護付有料老人ホーム　棲の家　山ぼうし【特定施設入居者生活介護（有料老人ホーム）】福岡市博多区西月隈３丁目3-55", "url": "https://www.kaigokensaku.mhlw.go.jp/40/index.php?action_kouhyou_detail_004_kani=true&JigyosyoCd=4070901865-00&ServiceCd=331&Type=search", "url2": "http//www.yamaboushi-hanamizuki.jp/" }, "geometry": { "type": "Point", "coordinates": [ 130.452257573016368, 33.571800182414776 ] } },
{ "type": "Feature", "properties": { "内容": "介護付有料老人ホーム　オーベル　諸岡【特定施設入居者生活介護（有料老人ホーム）】福岡市博多区諸岡3丁目26番18号", "url": "https://www.kaigokensaku.mhlw.go.jp/40/index.php?action_kouhyou_detail_004_kani=true&JigyosyoCd=4070902095-00&ServiceCd=331&Type=search", "url2": "https://www.obeｒ.co.jp" }, "geometry": { "type": "Point", "coordinates": [ 130.442332800000031, 33.560778 ] } },
{ "type": "Feature", "properties": { "内容": "グッドタイムホーム5・山王公園【特定施設入居者生活介護（有料老人ホーム）】福岡県福岡市博多区山王1丁目11番26号", "url": "https://www.kaigokensaku.mhlw.go.jp/40/index.php?action_kouhyou_detail_004_kani=true&JigyosyoCd=4070904851-00&ServiceCd=331&Type=search", "url2": "http://sousei.net" }, "geometry": { "type": "Point", "coordinates": [ 130.4318428, 33.5806826 ] } },
{ "type": "Feature", "properties": { "内容": "さわやか立花館【特定施設入居者生活介護（有料老人ホーム）】福岡市博多区立花寺１７３－１５", "url": "https://www.kaigokensaku.mhlw.go.jp/40/index.php?action_kouhyou_detail_004_kani=true&JigyosyoCd=4070901873-00&ServiceCd=331&Type=search", "url2": "http://www.sawayakaclub.jp" }, "geometry": { "type": "Point", "coordinates": [ 130.4754524, 33.5691974 ] } },
{ "type": "Feature", "properties": { "内容": "介護付有料老人ホーム　アビタシオン浄水【特定施設入居者生活介護（有料老人ホーム）】福岡市中央区薬院4丁目1番26号薬院大通センタービル弐番館", "url": "https://www.kaigokensaku.mhlw.go.jp/40/index.php?action_kouhyou_detail_004_kani=true&JigyosyoCd=4071001459-00&ServiceCd=331&Type=search", "url2": "http://www.habitation.co.jp/jyousui/" }, "geometry": { "type": "Point", "coordinates": [ 130.397163099999943, 33.5818833 ] } },
{ "type": "Feature", "properties": { "内容": "介護付有料老人ホーム　ヴィラ梅光【特定施設入居者生活介護（有料老人ホーム）】福岡県福岡市中央区梅光園3‐4‐1介護付有料老人ホームヴィラ梅光", "url": "https://www.kaigokensaku.mhlw.go.jp/40/index.php?action_kouhyou_detail_004_kani=true&JigyosyoCd=4071001731-00&ServiceCd=331&Type=search", "url2": "http://www.tenjyukai.com" }, "geometry": { "type": "Point", "coordinates": [ 130.376606440475484, 33.568573425583075 ] } },
{ "type": "Feature", "properties": { "内容": "フィランソレイユ笹丘【特定施設入居者生活介護（有料老人ホーム）】福岡県福岡市中央区笹丘1丁目25番7号フィランソレイユ笹丘", "url": "https://www.kaigokensaku.mhlw.go.jp/40/index.php?action_kouhyou_detail_004_kani=true&JigyosyoCd=4071002754-00&ServiceCd=331&Type=search", "url2": "http://www.ps-sasaoka.com/" }, "geometry": { "type": "Point", "coordinates": [ 130.3767957, 33.5635684 ] } },
{ "type": "Feature", "properties": { "内容": "フェリオ天神【特定施設入居者生活介護（有料老人ホーム）】西中洲11-25フェリオ天神", "url": "https://www.kaigokensaku.mhlw.go.jp/40/index.php?action_kouhyou_detail_004_kani=true&JigyosyoCd=4071003265-00&ServiceCd=331&Type=search", "url2": "https://www.felio.life" }, "geometry": { "type": "Point", "coordinates": [ 130.404452499999934, 33.5898787 ] } },
{ "type": "Feature", "properties": { "内容": "生活倶楽部ウィズ長丘【特定施設入居者生活介護（有料老人ホーム）】福岡市南区長丘3丁目24-20", "url": "https://www.kaigokensaku.mhlw.go.jp/40/index.php?action_kouhyou_detail_004_kani=true&JigyosyoCd=4071101051-00&ServiceCd=331&Type=search", "url2": "www.with-g.com" }, "geometry": { "type": "Point", "coordinates": [ 130.392039299999965, 33.556103 ] } },
{ "type": "Feature", "properties": { "内容": "ライフエイド　わかひさ【特定施設入居者生活介護（有料老人ホーム）】福岡県福岡市南区若久２丁目４番８号", "url": "https://www.kaigokensaku.mhlw.go.jp/40/index.php?action_kouhyou_detail_004_kani=true&JigyosyoCd=4071101457-00&ServiceCd=331&Type=search", "url2": "http://hara-hospitаl.com/" }, "geometry": { "type": "Point", "coordinates": [ 130.416907, 33.5534283 ] } },
{ "type": "Feature", "properties": { "内容": "おあしす長丘【特定施設入居者生活介護（有料老人ホーム）】福岡県福岡市南区長丘5丁目26番3号", "url": "https://www.kaigokensaku.mhlw.go.jp/40/index.php?action_kouhyou_detail_004_kani=true&JigyosyoCd=4071101721-00&ServiceCd=331&Type=search", "url2": null }, "geometry": { "type": "Point", "coordinates": [ 130.38776740000003, 33.5555863 ] } },
{ "type": "Feature", "properties": { "内容": "ケアホーム桧原【特定施設入居者生活介護（有料老人ホーム）】福岡市南区桧原２丁目３７番１２号", "url": "https://www.kaigokensaku.mhlw.go.jp/40/index.php?action_kouhyou_detail_004_kani=true&JigyosyoCd=4071101788-00&ServiceCd=331&Type=search", "url2": "http://fuk-himawari.jp" }, "geometry": { "type": "Point", "coordinates": [ 130.393965100000059, 33.5387967 ] } },
{ "type": "Feature", "properties": { "内容": "介護付き有料老人ホームエリーぜ大橋【特定施設入居者生活介護（有料老人ホーム）】福岡市南区三宅３－８－３２", "url": "https://www.kaigokensaku.mhlw.go.jp/40/index.php?action_kouhyou_detail_004_kani=true&JigyosyoCd=4071101895-00&ServiceCd=331&Type=search", "url2": "http//elise-ohashi.jp" }, "geometry": { "type": "Point", "coordinates": [ 130.430497800000012, 33.5491735 ] } },
{ "type": "Feature", "properties": { "内容": "介護付有料老人ホーム　ケアホーム花うさぎ塩原【特定施設入居者生活介護（有料老人ホーム）】福岡県福岡市南区塩原二丁目2番8号", "url": "https://www.kaigokensaku.mhlw.go.jp/40/index.php?action_kouhyou_detail_004_kani=true&JigyosyoCd=4071102000-00&ServiceCd=331&Type=search", "url2": "http://www.hanausagi-daiwa.com/" }, "geometry": { "type": "Point", "coordinates": [ 130.427444799999989, 33.566313 ] } },
{ "type": "Feature", "properties": { "内容": "介護付有料老人ホームオーベル筑紫丘【特定施設入居者生活介護（有料老人ホーム）】福岡市南区筑紫丘1丁目21番9号", "url": "https://www.kaigokensaku.mhlw.go.jp/40/index.php?action_kouhyou_detail_004_kani=true&JigyosyoCd=4071102075-00&ServiceCd=331&Type=search", "url2": "http://www.ober.co.jp/" }, "geometry": { "type": "Point", "coordinates": [ 130.4242425, 33.557627899999986 ] } },
{ "type": "Feature", "properties": { "内容": "ライフエイド柏原ミルテ【特定施設入居者生活介護（有料老人ホーム）】福岡県福岡市南区柏原１丁目２番４号", "url": "https://www.kaigokensaku.mhlw.go.jp/40/index.php?action_kouhyou_detail_004_kani=true&JigyosyoCd=4071102083-00&ServiceCd=331&Type=search", "url2": "http://hara-hospital.com/" }, "geometry": { "type": "Point", "coordinates": [ 130.400581399999965, 33.5324501 ] } },
{ "type": "Feature", "properties": { "内容": "介護付有料老人ホーム　オーベル　野多目【特定施設入居者生活介護（有料老人ホーム）】福岡市南区野多目2丁目8番10号", "url": "https://www.kaigokensaku.mhlw.go.jp/40/index.php?action_kouhyou_detail_004_kani=true&JigyosyoCd=4071102158-00&ServiceCd=331&Type=search", "url2": "https://www.ober.co.jp" }, "geometry": { "type": "Point", "coordinates": [ 130.423493, 33.5410687 ] } },
{ "type": "Feature", "properties": { "内容": "ふくよかケアプラザ大平寺の森【特定施設入居者生活介護（有料老人ホーム）】福岡県福岡市南区大平寺２丁目１３番３０号", "url": "https://www.kaigokensaku.mhlw.go.jp/40/index.php?action_kouhyou_detail_004_kani=true&JigyosyoCd=4071102190-00&ServiceCd=331&Type=search", "url2": "http://www.fukuyoka.com/" }, "geometry": { "type": "Point", "coordinates": [ 130.3933849, 33.5303974 ] } },
{ "type": "Feature", "properties": { "内容": "介護付有料老人ホーム　野多目【特定施設入居者生活介護（有料老人ホーム）】福岡市南区野多目2-28-1", "url": "https://www.kaigokensaku.mhlw.go.jp/40/index.php?action_kouhyou_detail_004_kani=true&JigyosyoCd=4071102521-00&ServiceCd=331&Type=search", "url2": "http://www.seishou.biz" }, "geometry": { "type": "Point", "coordinates": [ 130.4270649, 33.5403522 ] } },
{ "type": "Feature", "properties": { "内容": "ケア・ラポート野間【特定施設入居者生活介護（有料老人ホーム）】福岡県福岡市南区大池１丁目２６－２０", "url": "https://www.kaigokensaku.mhlw.go.jp/40/index.php?action_kouhyou_detail_004_kani=true&JigyosyoCd=4071101861-00&ServiceCd=331&Type=search", "url2": "http://www.117294.jp" }, "geometry": { "type": "Point", "coordinates": [ 130.4054827, 33.5565779 ] } },
{ "type": "Feature", "properties": { "内容": "生の松原ハッピーガーデン【特定施設入居者生活介護（有料老人ホーム）】福岡市西区生の松原１丁目３３－１", "url": "https://www.kaigokensaku.mhlw.go.jp/40/index.php?action_kouhyou_detail_004_kani=true&JigyosyoCd=4071200937-00&ServiceCd=331&Type=search", "url2": "http://www.fukuoka-wajinkai-hp.or.jp/happygdn/index.html" }, "geometry": { "type": "Point", "coordinates": [ 130.293923800000016, 33.579869 ] } },
{ "type": "Feature", "properties": { "内容": "高齢者在宅複合施設　サザンII【特定施設入居者生活介護（有料老人ホーム）】福岡市西区拾六町１丁目２６番２２号", "url": "https://www.kaigokensaku.mhlw.go.jp/40/index.php?action_kouhyou_detail_004_kani=true&JigyosyoCd=4071200978-00&ServiceCd=331&Type=search", "url2": "http://www.ogata-sazan.jp/" }, "geometry": { "type": "Point", "coordinates": [ 130.31793319999997, 33.5634044 ] } },
{ "type": "Feature", "properties": { "内容": "介護付有料老人ホーム　フラワーガーデン【特定施設入居者生活介護（有料老人ホーム）】福岡県福岡市西区拾六町１－２１－１１", "url": "https://www.kaigokensaku.mhlw.go.jp/40/index.php?action_kouhyou_detail_004_kani=true&JigyosyoCd=4071201497-00&ServiceCd=331&Type=search", "url2": "http://flowergarden-web.com/" }, "geometry": { "type": "Point", "coordinates": [ 130.316324900000041, 33.5645126 ] } },
{ "type": "Feature", "properties": { "内容": "ハーヴェスト姪浜いこい館【特定施設入居者生活介護（有料老人ホーム）】福岡市西区小戸４丁目１１－３５", "url": "https://www.kaigokensaku.mhlw.go.jp/40/index.php?action_kouhyou_detail_004_kani=true&JigyosyoCd=4071201505-00&ServiceCd=331&Type=search", "url2": "http://harvest.main.jp/ikoikan.html" }, "geometry": { "type": "Point", "coordinates": [ 130.319010599999956, 33.5852471 ] } },
{ "type": "Feature", "properties": { "内容": "介護付き有料老人ホーム　サンルーム松栄【特定施設入居者生活介護（有料老人ホーム）】福岡市西区上山門1-9-3", "url": "https://www.kaigokensaku.mhlw.go.jp/40/index.php?action_kouhyou_detail_004_kani=true&JigyosyoCd=4071203832-00&ServiceCd=331&Type=search", "url2": "http://www.kisyoukai.jp/syouei01/index.html" }, "geometry": { "type": "Point", "coordinates": [ 130.306222899999966, 33.5744504 ] } },
{ "type": "Feature", "properties": { "内容": "ベストライフ福岡【特定施設入居者生活介護（有料老人ホーム）】福岡県福岡市西区石丸2-33-11", "url": "https://www.kaigokensaku.mhlw.go.jp/40/index.php?action_kouhyou_detail_004_kani=true&JigyosyoCd=4071204046-00&ServiceCd=331&Type=search", "url2": null }, "geometry": { "type": "Point", "coordinates": [ 130.3177569, 33.5756104 ] } },
{ "type": "Feature", "properties": { "内容": "介護付有料老人ホーム　桜ガーデン小戸【特定施設入居者生活介護（有料老人ホーム）】福岡県福岡市西区小戸1丁目30番5号桜ガーデン小戸", "url": "https://www.kaigokensaku.mhlw.go.jp/40/index.php?action_kouhyou_detail_004_kani=true&JigyosyoCd=4071201521-00&ServiceCd=331&Type=search", "url2": "http://www.hfcs-hukuoka.com" }, "geometry": { "type": "Point", "coordinates": [ 130.324057400000015, 33.5918243 ] } },
{ "type": "Feature", "properties": { "内容": "介護付有料老人ホーム　西の丘【特定施設入居者生活介護（有料老人ホーム）】福岡市西区西の丘1-6-1", "url": "https://www.kaigokensaku.mhlw.go.jp/40/index.php?action_kouhyou_detail_004_kani=true&JigyosyoCd=4071201620-00&ServiceCd=331&Type=search", "url2": "http://seishou.biz" }, "geometry": { "type": "Point", "coordinates": [ 130.301201399999968, 33.5623013 ] } },
{ "type": "Feature", "properties": { "内容": "生活倶楽部ウィズ南片江【特定施設入居者生活介護（有料老人ホーム）】福岡県福岡市城南区南片江六丁目25-1", "url": "https://www.kaigokensaku.mhlw.go.jp/40/index.php?action_kouhyou_detail_004_kani=true&JigyosyoCd=4071300703-00&ServiceCd=331&Type=search", "url2": "https://www.with-g.com" }, "geometry": { "type": "Point", "coordinates": [ 130.3694883269836, 33.541900151810424 ] } },
{ "type": "Feature", "properties": { "内容": "生活倶楽部　ウィズ長尾【特定施設入居者生活介護（有料老人ホーム）】福岡市城南区長尾2-14-31", "url": "https://www.kaigokensaku.mhlw.go.jp/40/index.php?action_kouhyou_detail_004_kani=true&JigyosyoCd=4071300968-00&ServiceCd=331&Type=search", "url2": "https://www.with-g.com/" }, "geometry": { "type": "Point", "coordinates": [ 130.38517580000007, 33.5588303 ] } },
{ "type": "Feature", "properties": { "内容": "クレアトゥール６０【特定施設入居者生活介護（有料老人ホーム）】福岡県福岡市城南区樋井川１丁目７－３８特定施設入居者生活介護（有料老人ホーム）", "url": "https://www.kaigokensaku.mhlw.go.jp/40/index.php?action_kouhyou_detail_004_kani=true&JigyosyoCd=4071301081-00&ServiceCd=331&Type=search", "url2": "http://www.s-clf.co.jp/" }, "geometry": { "type": "Point", "coordinates": [ 130.382326499999976, 33.5491869 ] } },
{ "type": "Feature", "properties": { "内容": "有料老人ホーム　やすらぎの家I【特定施設入居者生活介護（有料老人ホーム）】福岡市早良区田村７丁目１３番３８号", "url": "https://www.kaigokensaku.mhlw.go.jp/40/index.php?action_kouhyou_detail_004_kani=true&JigyosyoCd=4071401295-00&ServiceCd=331&Type=search", "url2": null }, "geometry": { "type": "Point", "coordinates": [ 130.326377800000046, 33.5347814 ] } },
{ "type": "Feature", "properties": { "内容": "すこやかほ～む有田【特定施設入居者生活介護（有料老人ホーム）】福岡市早良区有田７丁目11番1号すこやかほ～む有田", "url": "https://www.kaigokensaku.mhlw.go.jp/40/index.php?action_kouhyou_detail_004_kani=true&JigyosyoCd=4071401634-00&ServiceCd=331&Type=search", "url2": "http://careservice21.com/" }, "geometry": { "type": "Point", "coordinates": [ 130.3316211, 33.562871 ] } },
{ "type": "Feature", "properties": { "内容": "フェリオ百道【特定施設入居者生活介護（有料老人ホーム）】福岡県福岡市早良区百道1丁目25番19号フェリオ百道", "url": "https://www.kaigokensaku.mhlw.go.jp/40/index.php?action_kouhyou_detail_004_kani=true&JigyosyoCd=4071404471-00&ServiceCd=331&Type=search", "url2": "http://www.felio.life" }, "geometry": { "type": "Point", "coordinates": [ 130.349513500000057, 33.5860749 ] } },
{ "type": "Feature", "properties": { "内容": "アンペレーナ百道【特定施設入居者生活介護（有料老人ホーム）】福岡県福岡市早良区百道浜3-9-17アンペレーナ百道", "url": "https://www.kaigokensaku.mhlw.go.jp/40/index.php?action_kouhyou_detail_004_kani=true&JigyosyoCd=4071404620-00&ServiceCd=331&Type=search", "url2": "https://anperena.jp/" }, "geometry": { "type": "Point", "coordinates": [ 130.3524519, 33.5910809 ] } },
{ "type": "Feature", "properties": { "内容": "有料老人ホーム　ツーハーツⅠ【特定施設入居者生活介護（有料老人ホーム）】福岡県福岡市早良区次郎丸5-18-28", "url": "https://www.kaigokensaku.mhlw.go.jp/40/index.php?action_kouhyou_detail_004_kani=true&JigyosyoCd=4071404646-00&ServiceCd=331&Type=search", "url2": "http://www.kousei-kai.org/twohearts/" }, "geometry": { "type": "Point", "coordinates": [ 130.3317135, 33.5469465 ] } },
{ "type": "Feature", "properties": { "内容": "はぴね福岡野芥【特定施設入居者生活介護（有料老人ホーム）】福岡県福岡市早良区野芥4丁目35番9号", "url": "https://www.kaigokensaku.mhlw.go.jp/40/index.php?action_kouhyou_detail_004_kani=true&JigyosyoCd=4071403333-00&ServiceCd=331&Type=search", "url2": "http://www.greenlife-inc.co.jp/" }, "geometry": { "type": "Point", "coordinates": [ 130.348731899999962, 33.5403648 ] } },
{ "type": "Feature", "properties": { "内容": "生涯介護付マイホーム　ゆきやなぎ1【特定施設入居者生活介護（有料老人ホーム）】福岡市早良区四箇6丁目5番20号", "url": "https://www.kaigokensaku.mhlw.go.jp/40/index.php?action_kouhyou_detail_004_kani=true&JigyosyoCd=4071401485-00&ServiceCd=331&Type=search", "url2": "http://yukiyanagi.hakuju-kai.co.jp/" }, "geometry": { "type": "Point", "coordinates": [ 130.332764442327857, 33.531031890779431 ] } },
{ "type": "Feature", "properties": { "内容": "介護付マイホームちとせ【特定施設入居者生活介護（有料老人ホーム）】福岡市早良区西入部1-17-1", "url": "https://www.kaigokensaku.mhlw.go.jp/40/index.php?action_kouhyou_detail_004_kani=true&JigyosyoCd=4071401659-00&ServiceCd=331&Type=search", "url2": "http://chitose-care.com" }, "geometry": { "type": "Point", "coordinates": [ 130.324436699999978, 33.5210437 ] } },
{ "type": "Feature", "properties": { "内容": "介護付有料老人ホーム　メディカルレジデンスKAI早良【特定施設入居者生活介護（有料老人ホーム）】福岡県福岡市早良区荒江３丁目１５番２１号", "url": "https://www.kaigokensaku.mhlw.go.jp/40/index.php?action_kouhyou_detail_004_kani=true&JigyosyoCd=4071401683-00&ServiceCd=331&Type=search", "url2": "https://fuku-r.co.jp/kaigo-home/" }, "geometry": { "type": "Point", "coordinates": [ 130.3515059, 33.5685451 ] } },
{ "type": "Feature", "properties": { "内容": "介護付有料老人ホーム憩の郷【特定施設入居者生活介護（有料老人ホーム）】福岡県大牟田市野添町１－３番", "url": "https://www.kaigokensaku.mhlw.go.jp/40/index.php?action_kouhyou_detail_004_kani=true&JigyosyoCd=4071501862-00&ServiceCd=331&Type=search", "url2": null }, "geometry": { "type": "Point", "coordinates": [ 130.461753700000031, 33.0055537 ] } },
{ "type": "Feature", "properties": { "内容": "介護付有料老人ホーム　コージーヴィラ大牟田【特定施設入居者生活介護（有料老人ホーム）】福岡県大牟田市南船津町１丁目５－１", "url": "https://www.kaigokensaku.mhlw.go.jp/40/index.php?action_kouhyou_detail_004_kani=true&JigyosyoCd=4071501813-00&ServiceCd=331&Type=search", "url2": null }, "geometry": { "type": "Point", "coordinates": [ 130.434338600000046, 33.0091332 ] } },
{ "type": "Feature", "properties": { "内容": "介護付有料老人ホームセーヌ大牟田【特定施設入居者生活介護（有料老人ホーム）】福岡県大牟田市大字宮部１７４番地１", "url": "https://www.kaigokensaku.mhlw.go.jp/40/index.php?action_kouhyou_detail_004_kani=true&JigyosyoCd=4071503611-00&ServiceCd=331&Type=search", "url2": "http://fukuju.or.jp" }, "geometry": { "type": "Point", "coordinates": [ 130.480926, 33.062495 ] } },
{ "type": "Feature", "properties": { "内容": "有料老人ホーム　いよの【特定施設入居者生活介護（有料老人ホーム）】福岡県大牟田市大字手鎌841番地の1", "url": "https://www.kaigokensaku.mhlw.go.jp/40/index.php?action_kouhyou_detail_004_kani=true&JigyosyoCd=4071501953-00&ServiceCd=331&Type=search", "url2": "http://kimura-naka.jp/contact.html" }, "geometry": { "type": "Point", "coordinates": [ 130.445631700000035, 33.0482574 ] } },
{ "type": "Feature", "properties": { "内容": "介護付有料老人ホーム　ピュアライフ　しらがね【特定施設入居者生活介護（有料老人ホーム）】福岡県大牟田市白銀895番地1", "url": "https://www.kaigokensaku.mhlw.go.jp/40/index.php?action_kouhyou_detail_004_kani=true&JigyosyoCd=4071502068-00&ServiceCd=331&Type=search", "url2": "http://siragane-owl.jp/" }, "geometry": { "type": "Point", "coordinates": [ 130.4851946, 33.0721113 ] } },
{ "type": "Feature", "properties": { "内容": "ひびき。【特定施設入居者生活介護（有料老人ホーム）】福岡県大牟田市倉永６３－１", "url": "https://www.kaigokensaku.mhlw.go.jp/40/index.php?action_kouhyou_detail_004_kani=true&JigyosyoCd=4071502084-00&ServiceCd=331&Type=search", "url2": "https://ueda-omuta.com" }, "geometry": { "type": "Point", "coordinates": [ 130.463746001852428, 33.071278184604225 ] } },
{ "type": "Feature", "properties": { "内容": "介護付有料老人ホーム　出雲ハイツ【特定施設入居者生活介護（有料老人ホーム）】福岡県大牟田市出雲町1番地15", "url": "https://www.kaigokensaku.mhlw.go.jp/40/index.php?action_kouhyou_detail_004_kani=true&JigyosyoCd=4071502076-00&ServiceCd=331&Type=search", "url2": null }, "geometry": { "type": "Point", "coordinates": [ 130.449846, 33.03109280000001 ] } },
{ "type": "Feature", "properties": { "内容": "アビタシオン　久留米南【特定施設入居者生活介護（有料老人ホーム）】福岡県久留米市荒木町下荒木1541-1アビタシオン久留米南", "url": "https://www.kaigokensaku.mhlw.go.jp/40/index.php?action_kouhyou_detail_004_kani=true&JigyosyoCd=4071605762-00&ServiceCd=331&Type=search", "url2": "www.kurume-minami.com/" }, "geometry": { "type": "Point", "coordinates": [ 130.485428899999988, 33.2656409 ] } },
{ "type": "Feature", "properties": { "内容": "こがケアアベニュー久留米南【特定施設入居者生活介護（有料老人ホーム）】荒木町下荒木1541-1こがケアアベニュー大善寺", "url": "https://www.kaigokensaku.mhlw.go.jp/40/index.php?action_kouhyou_detail_004_kani=true&JigyosyoCd=4071607909-00&ServiceCd=331&Type=search", "url2": "https://zensikai.jp/greeting" }, "geometry": { "type": "Point", "coordinates": [ 130.485442299999988, 33.2655253 ] } },
{ "type": "Feature", "properties": { "内容": "特定施設入居者生活介護　　JOYホーム東合川【特定施設入居者生活介護（有料老人ホーム）】福岡県久留米市東合川７丁目7番21号", "url": "https://www.kaigokensaku.mhlw.go.jp/40/index.php?action_kouhyou_detail_004_kani=true&JigyosyoCd=4071602116-00&ServiceCd=331&Type=search", "url2": "http://joy-enter1.com/joy-home/" }, "geometry": { "type": "Point", "coordinates": [ 130.553267, 33.3240534 ] } },
{ "type": "Feature", "properties": { "内容": "有料老人ホーム　ファミエールいちごの里Ⅰ【特定施設入居者生活介護（有料老人ホーム）】花畑2丁目10番地４", "url": "https://www.kaigokensaku.mhlw.go.jp/40/index.php?action_kouhyou_detail_004_kani=true&JigyosyoCd=4071607636-00&ServiceCd=331&Type=search", "url2": "famiere-ichigonosato.com" }, "geometry": { "type": "Point", "coordinates": [ 130.4049042, 33.5387132 ] } },
{ "type": "Feature", "properties": { "内容": "ケアホーム養福会【特定施設入居者生活介護（有料老人ホーム）】福岡県久留米市野伏間１丁目１２番３２号ケアホーム養福会", "url": "https://www.kaigokensaku.mhlw.go.jp/40/index.php?action_kouhyou_detail_004_kani=true&JigyosyoCd=4071607644-00&ServiceCd=331&Type=search", "url2": "http://www.youfukukai.or.jp" }, "geometry": { "type": "Point", "coordinates": [ 130.5130719, 33.2847423 ] } },
{ "type": "Feature", "properties": { "内容": "有料老人ホームくましろ・いづみ館【特定施設入居者生活介護（有料老人ホーム）】福岡県久留米市新合川１丁目９番１２号", "url": "https://www.kaigokensaku.mhlw.go.jp/40/index.php?action_kouhyou_detail_004_kani=true&JigyosyoCd=4071603049-00&ServiceCd=331&Type=search", "url2": "http://kumashiro-sv.co.jp/izumi/" }, "geometry": { "type": "Point", "coordinates": [ 130.543789899999979, 33.3219757 ] } },
{ "type": "Feature", "properties": { "内容": "ケアタウンしらゆり【特定施設入居者生活介護（有料老人ホーム）】福岡県久留米市小森野４－２－１５", "url": "https://www.kaigokensaku.mhlw.go.jp/40/index.php?action_kouhyou_detail_004_kani=true&JigyosyoCd=4071601852-00&ServiceCd=331&Type=search", "url2": "http://www.shirayuri.tv" }, "geometry": { "type": "Point", "coordinates": [ 130.515419588360601, 33.334998209089797 ] } },
{ "type": "Feature", "properties": { "内容": "すまいるホーム上津【特定施設入居者生活介護（有料老人ホーム）】久留米市上津町1769ｰ1", "url": "https://www.kaigokensaku.mhlw.go.jp/40/index.php?action_kouhyou_detail_004_kani=true&JigyosyoCd=4071606067-00&ServiceCd=331&Type=search", "url2": "http://www.smilehome-kanri.jp" }, "geometry": { "type": "Point", "coordinates": [ 130.543193200000019, 33.2809905 ] } },
{ "type": "Feature", "properties": { "内容": "有料老人ホーム　シルバーステージ【特定施設入居者生活介護（有料老人ホーム）】久留米市上津　1-10-31", "url": "https://www.kaigokensaku.mhlw.go.jp/40/index.php?action_kouhyou_detail_004_kani=true&JigyosyoCd=4071602397-00&ServiceCd=331&Type=search", "url2": "http//www.silverstage.jp" }, "geometry": { "type": "Point", "coordinates": [ 130.530073701223387, 33.288745762847661 ] } },
{ "type": "Feature", "properties": { "内容": "さわやかこすもす館【特定施設入居者生活介護（有料老人ホーム）】久留米市北野町今山２", "url": "https://www.kaigokensaku.mhlw.go.jp/40/index.php?action_kouhyou_detail_004_kani=true&JigyosyoCd=4071602587-00&ServiceCd=331&Type=search", "url2": "http://www.sawayakaclub.jp" }, "geometry": { "type": "Point", "coordinates": [ 130.57503440000005, 33.3413547 ] } },
{ "type": "Feature", "properties": { "内容": "介護付有料老人ホーム　ケアハウスすわの【特定施設入居者生活介護（有料老人ホーム）】福岡県久留米市諏訪野町2723-7", "url": "https://www.kaigokensaku.mhlw.go.jp/40/index.php?action_kouhyou_detail_004_kani=true&JigyosyoCd=4071606117-00&ServiceCd=331&Type=search", "url2": "http://www.c-pro.jp" }, "geometry": { "type": "Point", "coordinates": [ 130.527241, 33.314526 ] } },
{ "type": "Feature", "properties": { "内容": "平和の里オアシス【特定施設入居者生活介護（有料老人ホーム）】福岡県直方市頓野１９１８－１", "url": "https://www.kaigokensaku.mhlw.go.jp/40/index.php?action_kouhyou_detail_004_kani=true&JigyosyoCd=4071700902-00&ServiceCd=331&Type=search", "url2": "https://heiwanosato.co.jp/" }, "geometry": { "type": "Point", "coordinates": [ 130.746089200000029, 33.7529078 ] } },
{ "type": "Feature", "properties": { "内容": "さわやか直方館【特定施設入居者生活介護（有料老人ホーム）】福岡県直方市大字山部４４２番地１", "url": "https://www.kaigokensaku.mhlw.go.jp/40/index.php?action_kouhyou_detail_004_kani=true&JigyosyoCd=4071700886-00&ServiceCd=331&Type=search", "url2": "http://www.sawayakaclub.jp" }, "geometry": { "type": "Point", "coordinates": [ 130.721396700000014, 33.7517912 ] } },
{ "type": "Feature", "properties": { "内容": "介護付有料老人ホーム福智の杜【特定施設入居者生活介護（有料老人ホーム）】福岡県直方市頓野１２１３－１", "url": "https://www.kaigokensaku.mhlw.go.jp/40/index.php?action_kouhyou_detail_004_kani=true&JigyosyoCd=4071700662-00&ServiceCd=331&Type=search", "url2": "http://fukuchi.seiwa-shoji.jp" }, "geometry": { "type": "Point", "coordinates": [ 130.7541357, 33.7593043 ] } },
{ "type": "Feature", "properties": { "内容": "有料老人ホームすみの苑【特定施設入居者生活介護（有料老人ホーム）】福岡県直方市知古１４０８－５", "url": "https://www.kaigokensaku.mhlw.go.jp/40/index.php?action_kouhyou_detail_004_kani=true&JigyosyoCd=4071700878-00&ServiceCd=331&Type=search", "url2": "https://suminoen.com" }, "geometry": { "type": "Point", "coordinates": [ 130.718399299999987, 33.758609800000016 ] } },
{ "type": "Feature", "properties": { "内容": "介護付有料老人ホーム　たいしん　かていな永満寺【特定施設入居者生活介護（有料老人ホーム）】福岡県直方市永満寺2058－1", "url": "https://www.kaigokensaku.mhlw.go.jp/40/index.php?action_kouhyou_detail_004_kani=true&JigyosyoCd=4071701843-00&ServiceCd=331&Type=search", "url2": "http://www.taishinph.co.jp" }, "geometry": { "type": "Point", "coordinates": [ 130.765399673016418, 33.737436235971181 ] } },
{ "type": "Feature", "properties": { "内容": "介護付有料老人ホーム千代【特定施設入居者生活介護（有料老人ホーム）】福岡県飯塚市小正147番地3", "url": "https://www.kaigokensaku.mhlw.go.jp/40/index.php?action_kouhyou_detail_004_kani=true&JigyosyoCd=4076200494-00&ServiceCd=331&Type=search", "url2": null }, "geometry": { "type": "Point", "coordinates": [ 130.6627339, 33.6255644 ] } },
{ "type": "Feature", "properties": { "内容": "介護ハウス風の丘【特定施設入居者生活介護（有料老人ホーム）】福岡県飯塚市有井３５５－１０７", "url": "https://www.kaigokensaku.mhlw.go.jp/40/index.php?action_kouhyou_detail_004_kani=true&JigyosyoCd=4076300344-00&ServiceCd=331&Type=search", "url2": null }, "geometry": { "type": "Point", "coordinates": [ 130.719790433729486, 33.647731601933899 ] } },
{ "type": "Feature", "properties": { "内容": "ベターライフ・ノア21【特定施設入居者生活介護（有料老人ホーム）】福岡県飯塚市柏の森11番地1", "url": "https://www.kaigokensaku.mhlw.go.jp/40/index.php?action_kouhyou_detail_004_kani=true&JigyosyoCd=4071801908-00&ServiceCd=331&Type=search", "url2": "http://www.aso-group.co.jp/noah21/" }, "geometry": { "type": "Point", "coordinates": [ 130.711738, 33.6448438 ] } },
{ "type": "Feature", "properties": { "内容": "すまいるホーム三緒【特定施設入居者生活介護（有料老人ホーム）】福岡県飯塚市上三緒４４５", "url": "https://www.kaigokensaku.mhlw.go.jp/40/index.php?action_kouhyou_detail_004_kani=true&JigyosyoCd=4071801452-00&ServiceCd=331&Type=search", "url2": "https://atoto-you-i.com" }, "geometry": { "type": "Point", "coordinates": [ 130.714901899999973, 33.625568 ] } },
{ "type": "Feature", "properties": { "内容": "介護付有料老人ホームウェルシア【特定施設入居者生活介護（有料老人ホーム）】福岡県飯塚市鯰田５１６番地１９介護付有料老人ホームウェルシア", "url": "https://www.kaigokensaku.mhlw.go.jp/40/index.php?action_kouhyou_detail_004_kani=true&JigyosyoCd=4071803268-00&ServiceCd=331&Type=search", "url2": "fujigami@hatsune-inc.jp" }, "geometry": { "type": "Point", "coordinates": [ 130.71128700331883, 33.666620664683244 ] } },
{ "type": "Feature", "properties": { "内容": "介護付有料老人ホームほほえみ【特定施設入居者生活介護（有料老人ホーム）】福岡県飯塚市勢田173-3", "url": "https://www.kaigokensaku.mhlw.go.jp/40/index.php?action_kouhyou_detail_004_kani=true&JigyosyoCd=4071803805-00&ServiceCd=331&Type=search", "url2": null }, "geometry": { "type": "Point", "coordinates": [ 130.736753, 33.6910726 ] } },
{ "type": "Feature", "properties": { "内容": "ケアマンション　アットホームこころ【特定施設入居者生活介護（有料老人ホーム）】福岡県田川市大字夏吉４１７番地３", "url": "https://www.kaigokensaku.mhlw.go.jp/40/index.php?action_kouhyou_detail_004_kani=true&JigyosyoCd=4071901377-00&ServiceCd=331&Type=search", "url2": "http://www7a.biglobe.ne.jp/~at-kokoro" }, "geometry": { "type": "Point", "coordinates": [ 130.819223599999987, 33.6538007 ] } },
{ "type": "Feature", "properties": { "内容": "さわやか田川館【特定施設入居者生活介護（有料老人ホーム）】福岡県田川市大字伊田３９３－１", "url": "https://www.kaigokensaku.mhlw.go.jp/40/index.php?action_kouhyou_detail_004_kani=true&JigyosyoCd=4071901583-00&ServiceCd=331&Type=search", "url2": "http;//www.sawayakaclub.jp" }, "geometry": { "type": "Point", "coordinates": [ 130.840322494903546, 33.641719107449006 ] } },
{ "type": "Feature", "properties": { "内容": "有料老人ホームさくらんぼ【特定施設入居者生活介護（有料老人ホーム）】福岡県柳川市大和町塩塚1337番地", "url": "https://www.kaigokensaku.mhlw.go.jp/40/index.php?action_kouhyou_detail_004_kani=true&JigyosyoCd=4078800168-00&ServiceCd=331&Type=search", "url2": "http://sakuranbo21.jp" }, "geometry": { "type": "Point", "coordinates": [ 130.43178321440277, 33.137435008383235 ] } },
{ "type": "Feature", "properties": { "内容": "介護付有料老人ホーム　勝雄【特定施設入居者生活介護（有料老人ホーム）】福岡県柳川市大和町塩塚1386-1", "url": "https://www.kaigokensaku.mhlw.go.jp/40/index.php?action_kouhyou_detail_004_kani=true&JigyosyoCd=4072000393-00&ServiceCd=331&Type=search", "url2": "https://www.keiwaen.com" }, "geometry": { "type": "Point", "coordinates": [ 130.434362400000026, 33.136879 ] } },
{ "type": "Feature", "properties": { "内容": "介護付有料老人ホーム健荘さくら【特定施設入居者生活介護（有料老人ホーム）】福岡県八女市津江５２１番地１", "url": "https://www.kaigokensaku.mhlw.go.jp/40/index.php?action_kouhyou_detail_004_kani=true&JigyosyoCd=4072301205-00&ServiceCd=331&Type=search", "url2": null }, "geometry": { "type": "Point", "coordinates": [ 130.579381399999988, 33.2099403 ] } },
{ "type": "Feature", "properties": { "内容": "ケアプラザ　ちくご【特定施設入居者生活介護（有料老人ホーム）】福岡県筑後市大字熊野１９０－１", "url": "https://www.kaigokensaku.mhlw.go.jp/40/index.php?action_kouhyou_detail_004_kani=true&JigyosyoCd=4072400429-00&ServiceCd=331&Type=search", "url2": null }, "geometry": { "type": "Point", "coordinates": [ 130.507377799999972, 33.2325752 ] } },
{ "type": "Feature", "properties": { "内容": "有料老人ホーム　いこいの家【特定施設入居者生活介護（有料老人ホーム）】福岡県大川市大字道海島659-3", "url": "https://www.kaigokensaku.mhlw.go.jp/40/index.php?action_kouhyou_detail_004_kani=true&JigyosyoCd=4072500459-00&ServiceCd=331&Type=search", "url2": "http://www.eijunosato.com" }, "geometry": { "type": "Point", "coordinates": [ 130.3788611, 33.2358192 ] } },
{ "type": "Feature", "properties": { "内容": "有料老人ホーム　いこいの家鐘ヶ江【特定施設入居者生活介護（有料老人ホーム）】福岡県大川市大字鐘ヶ江　２４９－１", "url": "https://www.kaigokensaku.mhlw.go.jp/40/index.php?action_kouhyou_detail_004_kani=true&JigyosyoCd=4072500525-00&ServiceCd=331&Type=search", "url2": "http://www.eijunosato.com" }, "geometry": { "type": "Point", "coordinates": [ 130.39079270000002, 33.23305040000001 ] } },
{ "type": "Feature", "properties": { "内容": "ファミリーホーム・アバン　1号館【特定施設入居者生活介護（有料老人ホーム）】福岡県行橋市大字大野井871番1", "url": "https://www.kaigokensaku.mhlw.go.jp/40/index.php?action_kouhyou_detail_004_kani=true&JigyosyoCd=4072600598-00&ServiceCd=331&Type=search", "url2": "http://www.abun.co.jp/" }, "geometry": { "type": "Point", "coordinates": [ 130.965062476012235, 33.719999767101861 ] } },
{ "type": "Feature", "properties": { "内容": "さわやか行橋弐番館【特定施設入居者生活介護（有料老人ホーム）】福岡県行橋市北泉3丁目11-4", "url": "https://www.kaigokensaku.mhlw.go.jp/40/index.php?action_kouhyou_detail_004_kani=true&JigyosyoCd=4072601570-00&ServiceCd=331&Type=search", "url2": "yukuhashi2@sawayakaclub.jp" }, "geometry": { "type": "Point", "coordinates": [ 130.990158400000041, 33.7169572 ] } },
{ "type": "Feature", "properties": { "内容": "ファミリーホーム・アバン2号館【特定施設入居者生活介護（有料老人ホーム）】福岡県行橋市行事1丁目4番11号", "url": "https://www.kaigokensaku.mhlw.go.jp/40/index.php?action_kouhyou_detail_004_kani=true&JigyosyoCd=4072600945-00&ServiceCd=331&Type=search", "url2": null }, "geometry": { "type": "Point", "coordinates": [ 130.977000699999962, 33.7363551 ] } },
{ "type": "Feature", "properties": { "内容": "さわやか行橋館【特定施設入居者生活介護（有料老人ホーム）】行橋市北泉３丁目１１－３", "url": "https://www.kaigokensaku.mhlw.go.jp/40/index.php?action_kouhyou_detail_004_kani=true&JigyosyoCd=4072600929-00&ServiceCd=331&Type=search", "url2": "http://www.sawayakaclub.jp" }, "geometry": { "type": "Point", "coordinates": [ 130.990277800000058, 33.7177766 ] } },
{ "type": "Feature", "properties": { "内容": "介護付有料老人ホーム　グランドホームゆくはし【特定施設入居者生活介護（有料老人ホーム）】福岡県行橋市西宮市２丁目２－３５総合福祉施設　はーとプラザとはや", "url": "https://www.kaigokensaku.mhlw.go.jp/40/index.php?action_kouhyou_detail_004_kani=true&JigyosyoCd=4072600879-00&ServiceCd=331&Type=search", "url2": "https://heartplazatohaya.jp/main_groundhomeyukuhashi/" }, "geometry": { "type": "Point", "coordinates": [ 130.969229400000017, 33.7275086 ] } },
{ "type": "Feature", "properties": { "内容": "ケアポートぶぜん【特定施設入居者生活介護（有料老人ホーム）】福岡県豊前市大字赤熊１３５９－１ケアポートぶぜん", "url": "https://www.kaigokensaku.mhlw.go.jp/40/index.php?action_kouhyou_detail_004_kani=true&JigyosyoCd=4072700406-00&ServiceCd=331&Type=search", "url2": "https://careport-buzen.com/" }, "geometry": { "type": "Point", "coordinates": [ 131.1301479, 33.6196712 ] } },
{ "type": "Feature", "properties": { "内容": "ウエルパークヒルズ「レーベン２１」【特定施設入居者生活介護（有料老人ホーム）】福岡県中間市通谷一丁目３６番２号", "url": "https://www.kaigokensaku.mhlw.go.jp/40/index.php?action_kouhyou_detail_004_kani=true&JigyosyoCd=4072800123-00&ServiceCd=331&Type=search", "url2": "https://wellph.jp/leben21/" }, "geometry": { "type": "Point", "coordinates": [ 130.732096868122909, 33.823821670415967 ] } },
{ "type": "Feature", "properties": { "内容": "サンホーム小郡【特定施設入居者生活介護（有料老人ホーム）】福岡県小郡市大板井493-1サンホーム小郡", "url": "https://www.kaigokensaku.mhlw.go.jp/40/index.php?action_kouhyou_detail_004_kani=true&JigyosyoCd=4072900402-00&ServiceCd=331&Type=search", "url2": "http://sunmedic.net/" }, "geometry": { "type": "Point", "coordinates": [ 130.5607209, 33.4028912 ] } },
{ "type": "Feature", "properties": { "内容": "二日市温泉長寿苑そよ風【特定施設入居者生活介護（有料老人ホーム）】福岡県筑紫野市武蔵1-1-24", "url": "https://www.kaigokensaku.mhlw.go.jp/40/index.php?action_kouhyou_detail_004_kani=true&JigyosyoCd=4073000699-00&ServiceCd=331&Type=search", "url2": "https://www.sykz.co.jp/shisetsu/179" }, "geometry": { "type": "Point", "coordinates": [ 130.5116021, 33.4906178 ] } },
{ "type": "Feature", "properties": { "内容": "すまいるホーム二日市【特定施設入居者生活介護（有料老人ホーム）】福岡県筑紫野市二日市南2丁目15-30", "url": "https://www.kaigokensaku.mhlw.go.jp/40/index.php?action_kouhyou_detail_004_kani=true&JigyosyoCd=4073000731-00&ServiceCd=331&Type=search", "url2": null }, "geometry": { "type": "Point", "coordinates": [ 130.524271917196643, 33.49184710928251 ] } },
{ "type": "Feature", "properties": { "内容": "サンテルム延寿館【特定施設入居者生活介護（有料老人ホーム）】福岡県筑紫野市湯町2-3-2", "url": "https://www.kaigokensaku.mhlw.go.jp/40/index.php?action_kouhyou_detail_004_kani=true&JigyosyoCd=4073000053-00&ServiceCd=331&Type=search", "url2": "http://www.enjyukan.jp" }, "geometry": { "type": "Point", "coordinates": [ 130.5160545, 33.4913789 ] } },
{ "type": "Feature", "properties": { "内容": "アンクラージュ大橋南【特定施設入居者生活介護（有料老人ホーム）】福岡県春日市桜ヶ丘8-29", "url": "https://www.kaigokensaku.mhlw.go.jp/40/index.php?action_kouhyou_detail_004_kani=true&JigyosyoCd=4073100325-00&ServiceCd=331&Type=search", "url2": "http://www.fukusikai.co.jp/" }, "geometry": { "type": "Point", "coordinates": [ 130.449921300000028, 33.5481798 ] } },
{ "type": "Feature", "properties": { "内容": "有料老人ホーム　プレジール春日【特定施設入居者生活介護（有料老人ホーム）】福岡県春日市千歳町3丁目47-1", "url": "https://www.kaigokensaku.mhlw.go.jp/40/index.php?action_kouhyou_detail_004_kani=true&JigyosyoCd=4073100457-00&ServiceCd=331&Type=search", "url2": "https://www.pureji-ru.net/" }, "geometry": { "type": "Point", "coordinates": [ 130.465891088833388, 33.53382794746031 ] } },
{ "type": "Feature", "properties": { "内容": "さわやか春日館【特定施設入居者生活介護（有料老人ホーム）】福岡県春日市上白水4丁目11", "url": "https://www.kaigokensaku.mhlw.go.jp/40/index.php?action_kouhyou_detail_004_kani=true&JigyosyoCd=4073100556-00&ServiceCd=331&Type=search", "url2": "http://www.sawayakaclub.jp" }, "geometry": { "type": "Point", "coordinates": [ 130.442996900000026, 33.5189936 ] } },
{ "type": "Feature", "properties": { "内容": "グッドタイムホーム２・春日【特定施設入居者生活介護（有料老人ホーム）】福岡県春日市平田台1丁目138番2号", "url": "https://www.kaigokensaku.mhlw.go.jp/40/index.php?action_kouhyou_detail_004_kani=true&JigyosyoCd=4073101554-00&ServiceCd=331&Type=search", "url2": "http://www.goodtimehome.com" }, "geometry": { "type": "Point", "coordinates": [ 130.473034500000011, 33.5141758 ] } },
{ "type": "Feature", "properties": { "内容": "ゆうゆうシニア館・ほたるの郷【特定施設入居者生活介護（有料老人ホーム）】福岡県大野城市牛頸２－７－１２", "url": "https://www.kaigokensaku.mhlw.go.jp/40/index.php?action_kouhyou_detail_004_kani=true&JigyosyoCd=4073401319-00&ServiceCd=331&Type=search", "url2": null }, "geometry": { "type": "Point", "coordinates": [ 130.467489099999966, 33.5015515 ] } },
{ "type": "Feature", "properties": { "内容": "介護付き有料老人ホームおとがねの郷【特定施設入居者生活介護（有料老人ホーム）】福岡県大野城市乙金東4丁目11番1号", "url": "https://www.kaigokensaku.mhlw.go.jp/40/index.php?action_kouhyou_detail_004_kani=true&JigyosyoCd=4073201511-00&ServiceCd=331&Type=search", "url2": "http://www.otogane.or.jp" }, "geometry": { "type": "Point", "coordinates": [ 130.499699923417694, 33.557375733828515 ] } },
{ "type": "Feature", "properties": { "内容": "さわやか宗像館【特定施設入居者生活介護（有料老人ホーム）】宗像市石丸1丁目13番地2", "url": "https://www.kaigokensaku.mhlw.go.jp/40/index.php?action_kouhyou_detail_004_kani=true&JigyosyoCd=4073300727-00&ServiceCd=331&Type=search", "url2": "http://www.sawayakaclub.jp" }, "geometry": { "type": "Point", "coordinates": [ 130.59276460000001, 33.8016685 ] } },
{ "type": "Feature", "properties": { "内容": "介護付有料老人ホーム　アクラス五条【特定施設入居者生活介護（有料老人ホーム）】福岡県太宰府市五条2-18-45", "url": "https://www.kaigokensaku.mhlw.go.jp/40/index.php?action_kouhyou_detail_004_kani=true&JigyosyoCd=4073400535-00&ServiceCd=331&Type=search", "url2": "https://aclass-seishin.jp/" }, "geometry": { "type": "Point", "coordinates": [ 130.520578800000067, 33.5110353 ] } },
{ "type": "Feature", "properties": { "内容": "有料老人ホーム　カルム太宰府【特定施設入居者生活介護（有料老人ホーム）】太宰府市大佐野2丁目23番1号", "url": "https://www.kaigokensaku.mhlw.go.jp/40/index.php?action_kouhyou_detail_004_kani=true&JigyosyoCd=4073400493-00&ServiceCd=331&Type=search", "url2": "https://calmekaigo.jp/dazaifu/" }, "geometry": { "type": "Point", "coordinates": [ 130.498330900000042, 33.5006081 ] } },
{ "type": "Feature", "properties": { "内容": "介護付有料老人ホーム　我楽庵【特定施設入居者生活介護（有料老人ホーム）】福岡県太宰府市朱雀２丁目５－３６", "url": "https://www.kaigokensaku.mhlw.go.jp/40/index.php?action_kouhyou_detail_004_kani=true&JigyosyoCd=4073400386-00&ServiceCd=331&Type=search", "url2": "http://www.koureisyakaigo-garaku.com/" }, "geometry": { "type": "Point", "coordinates": [ 130.5208566, 33.5059443 ] } },
{ "type": "Feature", "properties": { "内容": "有料老人ホーム　風【特定施設入居者生活介護（有料老人ホーム）】太宰府市大字内山３６３－４", "url": "https://www.kaigokensaku.mhlw.go.jp/40/index.php?action_kouhyou_detail_004_kani=true&JigyosyoCd=4073400584-00&ServiceCd=331&Type=search", "url2": "www.home-kaze.jp" }, "geometry": { "type": "Point", "coordinates": [ 130.548902099999964, 33.5284527 ] } },
{ "type": "Feature", "properties": { "内容": "介護付き有料老人ホーム　小野山荘【特定施設入居者生活介護（有料老人ホーム）】福岡県古賀市薬王寺539番地1", "url": "https://www.kaigokensaku.mhlw.go.jp/40/index.php?action_kouhyou_detail_004_kani=true&JigyosyoCd=4073601132-00&ServiceCd=331&Type=search", "url2": null }, "geometry": { "type": "Point", "coordinates": [ 130.516251399999987, 33.7162988 ] } },
{ "type": "Feature", "properties": { "内容": "介護付有料老人ホーム　水と光の園【特定施設入居者生活介護（有料老人ホーム）】福岡県福津市日蒔野5丁目8番地の7", "url": "https://www.kaigokensaku.mhlw.go.jp/40/index.php?action_kouhyou_detail_004_kani=true&JigyosyoCd=4074500390-00&ServiceCd=331&Type=search", "url2": "http://www.suikokai.or.jp" }, "geometry": { "type": "Point", "coordinates": [ 130.4976345, 33.7601696 ] } },
{ "type": "Feature", "properties": { "内容": "有料老人ホーム　サンタマリア【特定施設入居者生活介護（有料老人ホーム）】福津市津屋崎2-21-20", "url": "https://www.kaigokensaku.mhlw.go.jp/40/index.php?action_kouhyou_detail_004_kani=true&JigyosyoCd=4074600117-00&ServiceCd=331&Type=search", "url2": "http://www.home-santamaria.jp/" }, "geometry": { "type": "Point", "coordinates": [ 130.473732899999959, 33.787427 ] } },
{ "type": "Feature", "properties": { "内容": "介護付有料老人ホーム　サン・ヴィレッジ三愛【特定施設入居者生活介護（有料老人ホーム）】福岡県福津市手光1803-2", "url": "https://www.kaigokensaku.mhlw.go.jp/40/index.php?action_kouhyou_detail_004_kani=true&JigyosyoCd=4074500416-00&ServiceCd=331&Type=search", "url2": "http://sanai8388.com" }, "geometry": { "type": "Point", "coordinates": [ 130.50122280000005, 33.7697323 ] } },
{ "type": "Feature", "properties": { "内容": "有料老人ホーム九電ケアタウン【特定施設入居者生活介護（有料老人ホーム）】福岡県福津市花見が丘三丁目２８番２号九電ケアタウン", "url": "https://www.kaigokensaku.mhlw.go.jp/40/index.php?action_kouhyou_detail_004_kani=true&JigyosyoCd=4074500267-00&ServiceCd=331&Type=search", "url2": "https://www.kyuden-goodlife.co.jp" }, "geometry": { "type": "Point", "coordinates": [ 130.477825, 33.7546755 ] } },
{ "type": "Feature", "properties": { "内容": "有料老人ホーム　エバーガーデンうきは【特定施設入居者生活介護（有料老人ホーム）】福岡県うきは市浮羽町朝田277番地1有料老人ホーム　エバーガーデンうきは", "url": "https://www.kaigokensaku.mhlw.go.jp/40/index.php?action_kouhyou_detail_004_kani=true&JigyosyoCd=4077300517-00&ServiceCd=331&Type=search", "url2": "http://kourinfukushi.or.jp/" }, "geometry": { "type": "Point", "coordinates": [ 130.788618199999974, 33.3380544 ] } },
{ "type": "Feature", "properties": { "内容": "株式会社　西和商事　介護付有料老人ホーム　笠松の杜【特定施設入居者生活介護（有料老人ホーム）】福岡県宮若市上有木335番地１", "url": "https://www.kaigokensaku.mhlw.go.jp/40/index.php?action_kouhyou_detail_004_kani=true&JigyosyoCd=4075500506-00&ServiceCd=331&Type=search", "url2": "http://kasamatsu.seiwa-shoji.jp/" }, "geometry": { "type": "Point", "coordinates": [ 130.6222093, 33.7634293 ] } },
{ "type": "Feature", "properties": { "内容": "有料老人ホームケアホームやすらぎ【特定施設入居者生活介護（有料老人ホーム）】福岡県宮若市磯光1301-27", "url": "https://www.kaigokensaku.mhlw.go.jp/40/index.php?action_kouhyou_detail_004_kani=true&JigyosyoCd=4075500605-00&ServiceCd=331&Type=search", "url2": "http://ch-yasuragi.com/" }, "geometry": { "type": "Point", "coordinates": [ 130.686906, 33.7135136 ] } },
{ "type": "Feature", "properties": { "内容": "ライフステイ　いなつき【特定施設入居者生活介護（有料老人ホーム）】福岡県嘉麻市鴨生９４番地１９", "url": "https://www.kaigokensaku.mhlw.go.jp/40/index.php?action_kouhyou_detail_004_kani=true&JigyosyoCd=4072100292-00&ServiceCd=331&Type=search", "url2": "http://www.s-clf.co.jp/" }, "geometry": { "type": "Point", "coordinates": [ 130.732917400000019, 33.6066144 ] } },
{ "type": "Feature", "properties": { "内容": "さわやかいずみ館【特定施設入居者生活介護（有料老人ホーム）】福岡県朝倉市甘木２６０－１", "url": "https://www.kaigokensaku.mhlw.go.jp/40/index.php?action_kouhyou_detail_004_kani=true&JigyosyoCd=4072200464-00&ServiceCd=331&Type=search", "url2": "http://www.sawayakaclub.jp" }, "geometry": { "type": "Point", "coordinates": [ 130.658454500000062, 33.4130049 ] } },
{ "type": "Feature", "properties": { "内容": "ケア・ラポート南風台【特定施設入居者生活介護（有料老人ホーム）】福岡県糸島市南風台7-1-7", "url": "https://www.kaigokensaku.mhlw.go.jp/40/index.php?action_kouhyou_detail_004_kani=true&JigyosyoCd=4073500441-00&ServiceCd=331&Type=search", "url2": "http://www.117294.jp" }, "geometry": { "type": "Point", "coordinates": [ 130.195199095106574, 33.548486121159435 ] } },
{ "type": "Feature", "properties": { "内容": "ゆうゆうシニア館・那珂川【特定施設入居者生活介護（有料老人ホーム）】福岡県筑紫郡那珂川市今光8丁目3番13号", "url": "https://www.kaigokensaku.mhlw.go.jp/40/index.php?action_kouhyou_detail_004_kani=true&JigyosyoCd=4073700330-00&ServiceCd=331&Type=search", "url2": null }, "geometry": { "type": "Point", "coordinates": [ 130.423648700000058, 33.5213762 ] } },
{ "type": "Feature", "properties": { "内容": "生涯介護付マイホーム　こでまり【特定施設入居者生活介護（有料老人ホーム）】福岡県那珂川市下梶原２丁目６番２号", "url": "https://www.kaigokensaku.mhlw.go.jp/40/index.php?action_kouhyou_detail_004_kani=true&JigyosyoCd=4073700207-00&ServiceCd=331&Type=search", "url2": "kodemari@nakafuku.jp" }, "geometry": { "type": "Point", "coordinates": [ 130.4388056, 33.4985953 ] } },
{ "type": "Feature", "properties": { "内容": "介護付有料老人ホーム八重の杜【特定施設入居者生活介護（有料老人ホーム）】福岡県那珂川市今光１丁目135番地", "url": "https://www.kaigokensaku.mhlw.go.jp/40/index.php?action_kouhyou_detail_004_kani=true&JigyosyoCd=4073700769-00&ServiceCd=331&Type=search", "url2": "info@firsto-lifel.jp" }, "geometry": { "type": "Point", "coordinates": [ 130.430689700000016, 33.522812400000014 ] } },
{ "type": "Feature", "properties": { "内容": "介護付有料老人ホームひばり苑【特定施設入居者生活介護（有料老人ホーム）】観晴が丘3-18", "url": "https://www.kaigokensaku.mhlw.go.jp/40/index.php?action_kouhyou_detail_004_kani=true&JigyosyoCd=4073701023-00&ServiceCd=331&Type=search", "url2": "https://care-net.biz/40/fujinotsubomi/" }, "geometry": { "type": "Point", "coordinates": [ 130.4418354, 33.5096914 ] } },
{ "type": "Feature", "properties": { "内容": "和みの里悠友倶楽部【特定施設入居者生活介護（有料老人ホーム）】福岡県粕屋郡宇美町障子岳６丁目４－１６", "url": "https://www.kaigokensaku.mhlw.go.jp/40/index.php?action_kouhyou_detail_004_kani=true&JigyosyoCd=4073800262-00&ServiceCd=331&Type=search", "url2": "https://www.amenitylife-f.co.jp" }, "geometry": { "type": "Point", "coordinates": [ 130.540973500000064, 33.5642295 ] } },
{ "type": "Feature", "properties": { "内容": "介護付有料老人ホーム　ささぐりの里【特定施設入居者生活介護（有料老人ホーム）】福岡県粕屋郡篠栗町大字金出3279-1泯江堂介護センター", "url": "https://www.kaigokensaku.mhlw.go.jp/40/index.php?action_kouhyou_detail_004_kani=true&JigyosyoCd=4073900294-00&ServiceCd=331&Type=search", "url2": "minkodo-minohara.com" }, "geometry": { "type": "Point", "coordinates": [ 130.541589151789111, 33.630218832713304 ] } },
{ "type": "Feature", "properties": { "内容": "サンカルナ博多の森【特定施設入居者生活介護（有料老人ホーム）】福岡県糟屋郡志免町別府西2丁目24番3号", "url": "https://www.kaigokensaku.mhlw.go.jp/40/index.php?action_kouhyou_detail_004_kani=true&JigyosyoCd=4074000276-00&ServiceCd=331&Type=search", "url2": "http://www.suncarna.com/hakatanomori/" }, "geometry": { "type": "Point", "coordinates": [ 130.456833800000027, 33.5967908 ] } },
{ "type": "Feature", "properties": { "内容": "有料老人ホームアイポケット亀山【特定施設入居者生活介護（有料老人ホーム）】糟屋郡志免町別府四丁目18-8", "url": "https://www.kaigokensaku.mhlw.go.jp/40/index.php?action_kouhyou_detail_004_kani=true&JigyosyoCd=4074000284-00&ServiceCd=331&Type=search", "url2": "http//www.i-pocket.jp" }, "geometry": { "type": "Point", "coordinates": [ 130.459613799999943, 33.6049594 ] } },
{ "type": "Feature", "properties": { "内容": "サンカルナ博多の森ケアステージ【特定施設入居者生活介護（有料老人ホーム）】福岡県糟屋郡志免町別府西2-23-1", "url": "https://www.kaigokensaku.mhlw.go.jp/40/index.php?action_kouhyou_detail_004_kani=true&JigyosyoCd=4074000326-00&ServiceCd=331&Type=search", "url2": "http://www.suncarna.com/hakatanomori_care/" }, "geometry": { "type": "Point", "coordinates": [ 130.457430899999963, 33.5972991 ] } },
{ "type": "Feature", "properties": { "内容": "介護付有料老人ホーム　かめやま【特定施設入居者生活介護（有料老人ホーム）】福岡県糟屋郡志免町別府２－２－１", "url": "https://www.kaigokensaku.mhlw.go.jp/40/index.php?action_kouhyou_detail_004_kani=true&JigyosyoCd=4074000342-00&ServiceCd=331&Type=search", "url2": "https://www.eikoh.or.jp" }, "geometry": { "type": "Point", "coordinates": [ 130.463671463229389, 33.600957983224781 ] } },
{ "type": "Feature", "properties": { "内容": "介護付有料老人ホーム「よかよかの郷」【特定施設入居者生活介護（有料老人ホーム）】福岡県糟屋郡須恵町大字佐谷1158-3", "url": "https://www.kaigokensaku.mhlw.go.jp/40/index.php?action_kouhyou_detail_004_kani=true&JigyosyoCd=4074100340-00&ServiceCd=331&Type=search", "url2": "http://www.taihei.or.jp" }, "geometry": { "type": "Point", "coordinates": [ 130.5209969, 33.5844044 ] } },
{ "type": "Feature", "properties": { "内容": "介護付有料老人ホーム　あざれあ【特定施設入居者生活介護（有料老人ホーム）】福岡県遠賀郡水巻町吉田西3-20-27", "url": "https://www.kaigokensaku.mhlw.go.jp/40/index.php?action_kouhyou_detail_004_kani=true&JigyosyoCd=4075000374-00&ServiceCd=331&Type=search", "url2": ":http://care-net.biz/40/a-and-m/" }, "geometry": { "type": "Point", "coordinates": [ 130.703532099999961, 33.8460322 ] } },
{ "type": "Feature", "properties": { "内容": "介護付有料老人ホーム　こすもすの郷【特定施設入居者生活介護（有料老人ホーム）】福岡県遠賀郡水巻町吉田西4丁目1-27こすもすの郷", "url": "https://www.kaigokensaku.mhlw.go.jp/40/index.php?action_kouhyou_detail_004_kani=true&JigyosyoCd=4075000564-00&ServiceCd=331&Type=search", "url2": "http://www.care-net.biz/40/a-and-m/" }, "geometry": { "type": "Point", "coordinates": [ 130.703898462565547, 33.843651977368921 ] } },
{ "type": "Feature", "properties": { "内容": "有料老人ホーム　花と木と光の家悠々【特定施設入居者生活介護（有料老人ホーム）】福岡県遠賀郡水巻町立屋敷二丁目６－２７花と木と光の家　悠々", "url": "https://www.kaigokensaku.mhlw.go.jp/40/index.php?action_kouhyou_detail_004_kani=true&JigyosyoCd=4075000366-00&ServiceCd=331&Type=search", "url2": "http://yu-yu-day.jp/ryoukin.html" }, "geometry": { "type": "Point", "coordinates": [ 130.690172100000041, 33.8485565 ] } },
{ "type": "Feature", "properties": { "内容": "おんが長寿苑そよ風【特定施設入居者生活介護（有料老人ホーム）】福岡県遠賀郡岡垣町野間二丁目7番7号おんが長寿苑そよ風", "url": "https://www.kaigokensaku.mhlw.go.jp/40/index.php?action_kouhyou_detail_004_kani=true&JigyosyoCd=4075100547-00&ServiceCd=331&Type=search", "url2": "https://www.sykz.co.jp/" }, "geometry": { "type": "Point", "coordinates": [ 130.615337100000033, 33.8513551 ] } },
{ "type": "Feature", "properties": { "内容": "医療法人健愛会　健愛記念病院　シルバーケアきもり【特定施設入居者生活介護（有料老人ホーム）】遠賀郡遠賀町大字浅木576番地シルバーケアきもり", "url": "https://www.kaigokensaku.mhlw.go.jp/40/index.php?action_kouhyou_detail_004_kani=true&JigyosyoCd=4075200446-00&ServiceCd=331&Type=search", "url2": "http://www.kenai.or.jp/" }, "geometry": { "type": "Point", "coordinates": [ 130.668570119798432, 33.835571071913868 ] } },
{ "type": "Feature", "properties": { "内容": "介護付有料老人ホームみずき「新館」【特定施設入居者生活介護（有料老人ホーム）】福岡県鞍手郡小竹町大字新多1483-117", "url": "https://www.kaigokensaku.mhlw.go.jp/40/index.php?action_kouhyou_detail_004_kani=true&JigyosyoCd=4075300428-00&ServiceCd=331&Type=search", "url2": "http://kenshinsha.jp/" }, "geometry": { "type": "Point", "coordinates": [ 130.693366874343866, 33.694211138234415 ] } },
{ "type": "Feature", "properties": { "内容": "ハーティーマインドあまぎ【特定施設入居者生活介護（有料老人ホーム）】福岡県田川郡川崎町大字安眞木3372番地", "url": "https://www.kaigokensaku.mhlw.go.jp/40/index.php?action_kouhyou_detail_004_kani=true&JigyosyoCd=4079600179-00&ServiceCd=331&Type=search", "url2": "http://heartymind.jp/" }, "geometry": { "type": "Point", "coordinates": [ 130.8291673, 33.5646157 ] } },
{ "type": "Feature", "properties": { "内容": "ハーティーマインドなぎの【特定施設入居者生活介護（有料老人ホーム）】福岡県田川郡川崎町大字安眞木3380番地の３", "url": "https://www.kaigokensaku.mhlw.go.jp/40/index.php?action_kouhyou_detail_004_kani=true&JigyosyoCd=4079600351-00&ServiceCd=331&Type=search", "url2": "http://www.heartymind.jp/" }, "geometry": { "type": "Point", "coordinates": [ 130.828620099999966, 33.5645435 ] } },
{ "type": "Feature", "properties": { "内容": "介護付有料老人ホームマイハート【特定施設入居者生活介護（有料老人ホーム）】福岡県田川郡大任町大字今任原　３２４０", "url": "https://www.kaigokensaku.mhlw.go.jp/40/index.php?action_kouhyou_detail_004_kani=true&JigyosyoCd=4079900264-00&ServiceCd=331&Type=search", "url2": null }, "geometry": { "type": "Point", "coordinates": [ 130.845924119049073, 33.632601548133209 ] } },
{ "type": "Feature", "properties": { "内容": "介護付有料老人ホーム　藤の里【特定施設入居者生活介護（有料老人ホーム）】福岡県田川郡福智町神崎１０９８番地２３７", "url": "https://www.kaigokensaku.mhlw.go.jp/40/index.php?action_kouhyou_detail_004_kani=true&JigyosyoCd=4079400364-00&ServiceCd=331&Type=search", "url2": "http://fujinosato.co.jp" }, "geometry": { "type": "Point", "coordinates": [ 130.758582100000012, 33.676458 ] } },
{ "type": "Feature", "properties": { "内容": "介護付き有料老人ホーム　ふじの花【特定施設入居者生活介護（有料老人ホーム）】福岡県田川郡福智町神崎１０５６番地１５３", "url": "https://www.kaigokensaku.mhlw.go.jp/40/index.php?action_kouhyou_detail_004_kani=true&JigyosyoCd=4079400885-00&ServiceCd=331&Type=search", "url2": null }, "geometry": { "type": "Point", "coordinates": [ 130.7592837, 33.6756654 ] } },
{ "type": "Feature", "properties": { "内容": "介護付有料老人ホーム小波瀬ひまわり【特定施設入居者生活介護（有料老人ホーム）】福岡県京都郡苅田町与原3丁目8-10", "url": "https://www.kaigokensaku.mhlw.go.jp/40/index.php?action_kouhyou_detail_004_kani=true&JigyosyoCd=4078000165-00&ServiceCd=331&Type=search", "url2": "http://obase-himawari.jp" }, "geometry": { "type": "Point", "coordinates": [ 130.977852900000016, 33.7522231 ] } },
{ "type": "Feature", "properties": { "内容": "介護付有料老人ホームかんだんて【特定施設入居者生活介護（有料老人ホーム）】福岡県京都郡苅田町与原1207番地", "url": "https://www.kaigokensaku.mhlw.go.jp/40/index.php?action_kouhyou_detail_004_kani=true&JigyosyoCd=4078000413-00&ServiceCd=331&Type=search", "url2": "https://heartplazatohaya.jp" }, "geometry": { "type": "Point", "coordinates": [ 130.983106479792809, 33.76280778912561 ] } },
{ "type": "Feature", "properties": { "内容": "いこいの里　小波瀬【特定施設入居者生活介護（有料老人ホーム）】京都郡苅田町大字新津石走り１５１９－１介護付き有料老人ホーム　いこいの里小波瀬", "url": "https://www.kaigokensaku.mhlw.go.jp/40/index.php?action_kouhyou_detail_004_kani=true&JigyosyoCd=4070001112-00&ServiceCd=331&Type=search", "url2": "http://ikoino-sato.com" }, "geometry": { "type": "Point", "coordinates": [ 130.970697800000039, 33.7563087 ] } },
{ "type": "Feature", "properties": { "内容": "介護付有料老人ホーム夢のケア桜の里【特定施設入居者生活介護（有料老人ホーム）】福岡県京都郡みやこ町勝山松田１１３８番地", "url": "https://www.kaigokensaku.mhlw.go.jp/40/index.php?action_kouhyou_detail_004_kani=true&JigyosyoCd=4070001393-00&ServiceCd=331&Type=search", "url2": null }, "geometry": { "type": "Point", "coordinates": [ 130.905886199999941, 33.6913481 ] } },
{ "type": "Feature", "properties": { "内容": "うぇるふぁみやこ【特定施設入居者生活介護（有料老人ホーム）】京都郡みやこ町豊津2121-4", "url": "https://www.kaigokensaku.mhlw.go.jp/40/index.php?action_kouhyou_detail_004_kani=true&JigyosyoCd=4070001369-00&ServiceCd=331&Type=search", "url2": "www.bonwellfair.com/h-miyako/" }, "geometry": { "type": "Point", "coordinates": [ 130.97489470000005, 33.6632827 ] } },
{ "type": "Feature", "properties": { "内容": "有料老人ホーム　ピースハウス【特定施設入居者生活介護（有料老人ホーム）】福岡県築上郡築上町大字湊１０３５－２", "url": "https://www.kaigokensaku.mhlw.go.jp/40/index.php?action_kouhyou_detail_004_kani=true&JigyosyoCd=4070001229-00&ServiceCd=331&Type=search", "url2": "http://mamorukai.biz/" }, "geometry": { "type": "Point", "coordinates": [ 131.069000700000061, 33.6492858 ] } },
{ "type": "Feature", "properties": { "内容": "介護付き有料老人ホーム　やまぼうし【特定施設入居者生活介護（有料老人ホーム）】福岡県築上郡築上町大字東築城135番地１", "url": "https://www.kaigokensaku.mhlw.go.jp/40/index.php?action_kouhyou_detail_004_kani=true&JigyosyoCd=4079800407-00&ServiceCd=331&Type=search", "url2": "http://hakuai-kai.net/" }, "geometry": { "type": "Point", "coordinates": [ 131.036513900000045, 33.6722076 ] } }
]
}
