{
"type": "FeatureCollection",
"name": "geo_40_中等教育学校",
"crs": { "type": "name", "properties": { "name": "urn:ogc:def:crs:EPSG::6668" } },
"features": [
{ "type": "Feature", "properties": { "P29_001": "40210", "P29_002": "D240221000013", "P29_003": "16003", "P29_004": "福岡県立輝翔館中等教育学校", "P29_005": "福岡県八女市黒木町桑原10-2", "P29_006": "2", "P29_007": "0", "P29_008": "00", "P29_009": null }, "geometry": { "type": "Point", "coordinates": [ 130.666082969607942, 33.213284633685944 ] } },
{ "type": "Feature", "properties": { "P29_001": "40217", "P29_002": "D240321700014", "P29_003": "16003", "P29_004": "リンデンホールスクール中高学部", "P29_005": "福岡県筑紫野市二日市北3-10-1", "P29_006": "4", "P29_007": "0", "P29_008": "00", "P29_009": null }, "geometry": { "type": "Point", "coordinates": [ 130.528880876265674, 33.505574829172382 ] } }
]
}
