{
"type": "FeatureCollection",
"name": "geo_40_地域密着型特定施設入居者生活介護（有料老人ホーム）",
"crs": { "type": "name", "properties": { "name": "urn:ogc:def:crs:OGC:1.3:CRS84" } },
"features": [
{ "type": "Feature", "properties": { "内容": "介護付き有料老人ホーム桜寿のさと松田【地域密着型特定施設入居者生活介護（有料老人ホーム）】福岡県福岡市東区松田3丁目20-22", "url": "https://www.kaigokensaku.mhlw.go.jp/40/index.php?action_kouhyou_detail_004_kani=true&JigyosyoCd=4090800899-00&ServiceCd=361&Type=search", "url2": "oujyufukushikai.co.jp" }, "geometry": { "type": "Point", "coordinates": [ 130.448893199999986, 33.6191439 ] } },
{ "type": "Feature", "properties": { "内容": "介護付き有料老人ホームマナハウス2番館【地域密着型特定施設入居者生活介護（有料老人ホーム）】福岡市西区戸切３丁目20-12", "url": "https://www.kaigokensaku.mhlw.go.jp/40/index.php?action_kouhyou_detail_004_kani=true&JigyosyoCd=4091200537-00&ServiceCd=361&Type=search", "url2": "http://www.sawara-fukushikai.org/" }, "geometry": { "type": "Point", "coordinates": [ 130.313968832540894, 33.552150698438439 ] } },
{ "type": "Feature", "properties": { "内容": "介護付有料老人ホーム　コージーヴィラ南船津【地域密着型特定施設入居者生活介護（有料老人ホーム）】福岡県大牟田市南船津町１丁目９番１号", "url": "https://www.kaigokensaku.mhlw.go.jp/40/index.php?action_kouhyou_detail_004_kani=true&JigyosyoCd=4091500464-00&ServiceCd=361&Type=search", "url2": "http://www.tokyoukai.or.jp/villam.html" }, "geometry": { "type": "Point", "coordinates": [ 130.436099600000034, 33.0091138 ] } },
{ "type": "Feature", "properties": { "内容": "有料老人ホーム　杏【地域密着型特定施設入居者生活介護（有料老人ホーム）】福岡県大牟田市大字倉永76-1", "url": "https://www.kaigokensaku.mhlw.go.jp/40/index.php?action_kouhyou_detail_004_kani=true&JigyosyoCd=4071501706-00&ServiceCd=361&Type=search", "url2": "https://ueda-omuta.com" }, "geometry": { "type": "Point", "coordinates": [ 130.464464099999987, 33.0713318 ] } },
{ "type": "Feature", "properties": { "内容": "介護付有料老人ホームすまいるホーム歴木・二番館【地域密着型特定施設入居者生活介護（有料老人ホーム）】福岡県大牟田市歴木1807-1202", "url": "https://www.kaigokensaku.mhlw.go.jp/40/index.php?action_kouhyou_detail_004_kani=true&JigyosyoCd=4071501888-00&ServiceCd=361&Type=search", "url2": "http://www.smilehome-kanri.jp" }, "geometry": { "type": "Point", "coordinates": [ 130.477335341204224, 33.035447204791581 ] } },
{ "type": "Feature", "properties": { "内容": "地域密着型特定施設　てとての森【地域密着型特定施設入居者生活介護（有料老人ホーム）】福岡県大牟田市小川町３０番地1", "url": "https://www.kaigokensaku.mhlw.go.jp/40/index.php?action_kouhyou_detail_004_kani=true&JigyosyoCd=4091500514-00&ServiceCd=361&Type=search", "url2": "http://www.sugahara-hospital.com" }, "geometry": { "type": "Point", "coordinates": [ 130.429386099999988, 33.0219291 ] } },
{ "type": "Feature", "properties": { "内容": "すまいるホーム飯塚【地域密着型特定施設入居者生活介護（有料老人ホーム）】福岡県飯塚市横田10番地", "url": "https://www.kaigokensaku.mhlw.go.jp/40/index.php?action_kouhyou_detail_004_kani=true&JigyosyoCd=4091800021-00&ServiceCd=361&Type=search", "url2": "http://drugkoei.com/smile/index.html" }, "geometry": { "type": "Point", "coordinates": [ 130.6760349, 33.643413 ] } },
{ "type": "Feature", "properties": { "内容": "介護付有料老人ホーム太陽の郷【地域密着型特定施設入居者生活介護（有料老人ホーム）】福岡県飯塚市鯰田５１６番地１７", "url": "https://www.kaigokensaku.mhlw.go.jp/40/index.php?action_kouhyou_detail_004_kani=true&JigyosyoCd=4091800187-00&ServiceCd=361&Type=search", "url2": "http://www.taiyonosato,jp" }, "geometry": { "type": "Point", "coordinates": [ 130.7100517, 33.6666106 ] } },
{ "type": "Feature", "properties": { "内容": "介護付有料老人ホーム　第２八木山の里すずらん【地域密着型特定施設入居者生活介護（有料老人ホーム）】福岡県飯塚市八木山１２４９番地１", "url": "https://www.kaigokensaku.mhlw.go.jp/40/index.php?action_kouhyou_detail_004_kani=true&JigyosyoCd=4091800161-00&ServiceCd=361&Type=search", "url2": null }, "geometry": { "type": "Point", "coordinates": [ 130.601472699999931, 33.6237826 ] } },
{ "type": "Feature", "properties": { "内容": "のいえ大野城南【地域密着型特定施設入居者生活介護（有料老人ホーム）】福岡県大野城市牛頸4丁目5番3号", "url": "https://www.kaigokensaku.mhlw.go.jp/40/index.php?action_kouhyou_detail_004_kani=true&JigyosyoCd=4093200022-00&ServiceCd=361&Type=search", "url2": null }, "geometry": { "type": "Point", "coordinates": [ 130.470588899999939, 33.5039736 ] } },
{ "type": "Feature", "properties": { "内容": "介護付き有料老人ホーム　木もれ日の館【地域密着型特定施設入居者生活介護（有料老人ホーム）】福岡県大野城市東大利３丁目１１番２２号", "url": "https://www.kaigokensaku.mhlw.go.jp/40/index.php?action_kouhyou_detail_004_kani=true&JigyosyoCd=4093200121-00&ServiceCd=361&Type=search", "url2": "http://www.yuseido.co.jp" }, "geometry": { "type": "Point", "coordinates": [ 130.48890670000003, 33.5264082 ] } },
{ "type": "Feature", "properties": { "内容": "ラ・ナシカ　おとがな【地域密着型特定施設入居者生活介護（有料老人ホーム）】福岡県大野城市乙金一丁目4番3号", "url": "https://www.kaigokensaku.mhlw.go.jp/40/index.php?action_kouhyou_detail_004_kani=true&JigyosyoCd=4093200105-00&ServiceCd=361&Type=search", "url2": "http://www.cedar-group.co.jp" }, "geometry": { "type": "Point", "coordinates": [ 130.491206499999947, 33.5486614 ] } }
]
}
