{
"type": "FeatureCollection",
"name": "geo_40_短期入所療養介護(療養病床を有する病院等）",
"crs": { "type": "name", "properties": { "name": "urn:ogc:def:crs:OGC:1.3:CRS84" } },
"features": [
{ "type": "Feature", "properties": { "内容": "福岡和仁会病院【短期入所療養介護(療養病床を有する病院等）】福岡県福岡市西区生の松原１丁目３３番１８号福岡和仁会病院", "url": "https://www.kaigokensaku.mhlw.go.jp/40/index.php?action_kouhyou_detail_004_kani=true&JigyosyoCd=4071202156-00&ServiceCd=&Type=search", "url2": "http://fukuoka-wajinkai-hp.or.jp" }, "geometry": { "type": "Point", "coordinates": [ 130.29511530000002, 33.5798246 ] } },
{ "type": "Feature", "properties": { "内容": "大木整形・リハビリ医院【短期入所療養介護(療養病床を有する病院等）】福岡県福岡市早良区藤崎1丁目21-19", "url": "https://www.kaigokensaku.mhlw.go.jp/40/index.php?action_kouhyou_detail_004_kani=true&JigyosyoCd=4071404331-00&ServiceCd=&Type=search", "url2": "http://ohki-clinic.jp/" }, "geometry": { "type": "Point", "coordinates": [ 130.346500099999986, 33.5793468 ] } },
{ "type": "Feature", "properties": { "内容": "どい内科クリニック　ショートステイ【短期入所療養介護(療養病床を有する病院等）】光が丘４丁目５番地3", "url": "https://www.kaigokensaku.mhlw.go.jp/40/index.php?action_kouhyou_detail_004_kani=true&JigyosyoCd=4073000970-00&ServiceCd=&Type=search", "url2": "http://www.sanshukai.or.jp/" }, "geometry": { "type": "Point", "coordinates": [ 139.6286328, 35.7671573 ] } }
]
}
